{"type": "FeatureCollection", "name": "cheongun-split-v1", "crs": {"type": "name", "properties": {"name": "urn:ogc:def:crs:EPSG::5186"}}, "provenance": {"source": "building-outlines-5186.json 청운관 + field-surfaces-v3 SF-CHEONGUN-CANOPY", "sha256": "9da4afc90e47a11941e583a54dd828cb83c24c01c78fe0dfdeb7d3a968f4cfaa", "generator": "docs/audit/field/terrain_clip_v1.py", "status": "표시용 국소 대체(추정). 원본 scene 자료·운영 DB 불변"}, "features": [{"type": "Feature", "properties": {"id": "CHEONGUN-BODY", "type": "building_override", "kind": "override", "buildingId": "청운관", "estimated": true, "assumption": "청운관 본체 = 원외곽선 − 돌출 지붕 평면(76.0 m²)을 0.5 m 넓힌 범위(전면 외곽선까지 열기 위한 가정). 본체 높이는 원본 baseM/roofM 유지. 돌출부는 열린 다층(슬래브·기둥 추정)과 빈 공간", "source": "building-outlines-5186 청운관 외곽선, SF-CHEONGUN-CANOPY 평면(S-MAP), 사진23·영상 SKU 02:03"}, "geometry": {"type": "MultiPolygon", "coordinates": [[[[201261.224, 557286.785], [201251.203, 557276.305], [201246.783, 557271.985], [201248.003, 557270.335], [201244.083, 557264.567], [201241.413, 557265.885], [201238.353, 557263.866], [201229.693, 557273.296], [201223.783, 557274.5], [201227.5, 557274.5], [201227.5, 557277.5], [201225.5, 557277.5], [201225.5, 557279.5], [201223.5, 557279.5], [201223.5, 557281.5], [201221.5, 557281.5], [201221.5, 557283.5], [201219.5, 557283.5], [201219.5, 557285.5], [201217.5, 557285.5], [201217.5, 557287.5], [201215.5, 557287.5], [201215.5, 557289.5], [201212.5, 557289.5], [201212.5, 557280.5], [201214.5, 557280.5], [201214.5, 557279.215], [201211.872, 557280.866], [201212.233, 557290.025], [201219.503, 557296.526], [201218.913, 557297.685], [201223.303, 557304.686], [201225.624, 557302.725], [201235.303, 557313.606], [201261.224, 557286.785]]], [[[201221.153, 557275.036], [201218.822, 557276.5], [201222.5, 557276.5], [201222.5, 557274.761], [201221.153, 557275.036]]], [[[201215.639, 557278.5], [201218.5, 557278.5], [201218.5, 557276.702], [201215.639, 557278.5]]]]}}]}