{"type": "FeatureCollection", "name": "corridor-stair-cut-v1", "crs": {"type": "name", "properties": {"name": "urn:ogc:def:crs:EPSG::5186"}}, "provenance": {"source": "frontend/public/corrections/field-surfaces-v3.geojson SF-CORRIDOR + field-structures-est-v1", "sha256": "a130fcb1cbe062539487f030842873dfab3dcb3666038d9408c700d08b7fb345", "generator": "docs/audit/field/corridor_stair_cut_v1.py", "status": "비교 후보(추정). 숨겨진 계단을 구현 완료로 세지 않음"}, "features": [{"type": "Feature", "properties": {"id": "SF-CORRIDOR-STAIRCUT", "type": "corridor_cut", "kind": "surface", "replaces": "SF-CORRIDOR", "estimated": true, "assumption": "계단 후보: 현재 추정 계단(ST-DAEIL-EXIT-SIDE·ST-A14) 평면 + 0.3 m 안만 사잇길 면을 잘라냄. 나머지 정점 z는 SF-CORRIDOR 원값, 새 구멍 가장자리 z는 원 정점 IDW | 면 구성: 원 SF-CORRIDOR 렌더 삼각형에서 구멍만 뺀 평면 조각(내부 z 불변, 절단 경계 z = 같은 삼각형 평면, cut_from_render_tris.py)", "source": "field-surfaces-v3 SF-CORRIDOR(S-MAP) + field-structures-est-v1 계단 평면"}, "geometry": {"type": "MultiPolygon", "coordinates": [[[[201099.0, 557317.5, 139.9], [201099.0, 557335.0, 141.8], [201101.0, 557335.0, 141.8], [201099.0, 557317.5, 139.9]]], [[[201103.0, 557317.0, 138.7], [201100.03, 557317.0, 139.9], [201099.0, 557317.5, 139.9], [201103.0, 557317.0, 138.7]]], [[[201104.09, 557315.0, 138.7], [201103.0, 557315.54, 138.7], [201103.0, 557317.0, 138.7], [201104.09, 557315.0, 138.7]]], [[[201103.0, 557312.42, 135.2], [201103.28, 557313.0, 135.2], [201105.0, 557313.0, 135.2], [201103.0, 557312.42, 135.2]]], [[[201101.0, 557308.21, 132.8], [201101.37, 557309.0, 132.8], [201103.0, 557309.0, 132.8], [201101.0, 557308.21, 132.8]]], [[[201103.0, 557305.0, 132.1], [201101.0, 557305.0, 131.3], [201101.0, 557308.21, 132.8], [201103.0, 557305.0, 132.1]]], [[[201106.93, 557308.1, 133.6], [201105.57, 557307.0, 133.6], [201103.0, 557307.0, 132.1], [201106.93, 557308.1, 133.6]]], [[[201107.0, 557309.0, 133.6], [201107.0, 557308.12, 133.6], [201106.93, 557308.1, 133.6], [201107.0, 557309.0, 133.6]]], [[[201112.82, 557310.06, 135.1], [201109.65, 557309.0, 134.8], [201107.0, 557309.0, 133.6], [201112.82, 557310.06, 135.1]]], [[[201131.0, 557299.0, 135.5], [201128.69, 557299.0, 135.1], [201127.14, 557303.42, 136.1], [201131.0, 557299.0, 135.5]]], [[[201147.0, 557299.0, 148.7], [201143.0, 557299.0, 148.7], [201143.0, 557301.0, 148.7], [201147.0, 557299.0, 148.7]]], [[[201149.0, 557305.0, 148.7], [201149.0, 557301.0, 148.8], [201147.0, 557301.0, 148.7], [201149.0, 557305.0, 148.7]]], [[[201151.0, 557307.0, 148.8], [201151.0, 557305.0, 148.8], [201149.0, 557305.0, 148.7], [201151.0, 557307.0, 148.8]]], [[[201151.0, 557309.0, 148.8], [201149.0, 557309.0, 148.6], [201150.204, 557312.462, 149.804], [201150.645, 557312.269, 149.788], [201151.0, 557312.113, 149.774], [201151.0, 557309.0, 148.8]]], [[[201145.63, 557317.0, 149.7], [201145.756, 557316.947, 149.737], [201145.749, 557316.93, 149.711], [201145.63, 557317.0, 149.7]]], [[[201142.71, 557318.23, 148.3], [201143.0, 557318.11, 148.3], [201143.0, 557317.0, 148.5], [201142.71, 557318.23, 148.3]]], [[[201141.58, 557321.0, 147.9], [201143.38, 557320.19, 148.6], [201142.71, 557318.23, 148.3], [201141.58, 557321.0, 147.9]]], [[[201137.15, 557323.0, 145.9], [201141.0, 557321.26, 146.7], [201141.0, 557321.0, 147.0], [201137.15, 557323.0, 145.9]]], [[[201132.72, 557325.0, 145.4], [201137.0, 557323.07, 145.7], [201137.0, 557323.0, 145.7], [201132.72, 557325.0, 145.4]]], [[[201128.29, 557327.0, 145.4], [201131.0, 557325.78, 145.4], [201131.0, 557325.0, 145.5], [201128.29, 557327.0, 145.4]]], [[[201123.87, 557329.0, 145.3], [201127.0, 557327.58, 145.4], [201127.0, 557327.0, 145.4], [201123.87, 557329.0, 145.3]]], [[[201119.73, 557330.87, 145.3], [201123.0, 557329.39, 145.3], [201123.0, 557329.0, 145.3], [201119.73, 557330.87, 145.3]]], [[[201119.0, 557331.0, 145.2], [201119.79, 557331.0, 145.3], [201119.73, 557330.87, 145.3], [201119.0, 557331.0, 145.2]]], [[[201121.0, 557333.8, 145.4], [201120.66, 557333.0, 145.4], [201119.0, 557333.0, 145.0], [201121.0, 557333.8, 145.4]]], [[[201119.62, 557337.0, 145.3], [201121.0, 557337.0, 145.3], [201121.0, 557333.8, 145.4], [201119.62, 557337.0, 145.3]]], [[[201119.0, 557335.0, 144.9], [201119.0, 557335.66, 145.3], [201119.62, 557337.0, 145.3], [201119.0, 557335.0, 144.9]]], [[[201118.17, 557333.89, 144.9], [201118.69, 557335.0, 144.9], [201119.0, 557335.0, 144.9], [201118.17, 557333.89, 144.9]]], [[[201113.0, 557335.0, 144.2], [201115.62, 557335.0, 144.3], [201118.17, 557333.89, 144.9], [201113.0, 557335.0, 144.2]]], [[[201111.05, 557337.0, 144.2], [201113.0, 557336.15, 144.2], [201113.0, 557335.0, 144.2], [201111.05, 557337.0, 144.2]]], [[[201111.0, 557335.0, 144.1], [201111.0, 557337.0, 144.2], [201111.05, 557337.0, 144.2], [201111.0, 557335.0, 144.1]]], [[[201109.0, 557331.0, 142.5], [201109.0, 557335.0, 144.1], [201111.0, 557335.0, 144.1], [201109.0, 557331.0, 142.5]]], [[[201101.0, 557333.0, 140.7], [201107.0, 557333.0, 142.6], [201107.0, 557331.0, 142.3], [201101.0, 557333.0, 140.7]]], [[[201099.0, 557317.5, 139.9], [201101.0, 557335.0, 141.8], [201101.0, 557333.0, 140.7], [201099.0, 557317.5, 139.9]]], [[[201105.0, 557315.0, 137.4], [201104.09, 557315.0, 138.7], [201103.0, 557317.0, 138.7], [201105.0, 557315.0, 137.4]]], [[[201103.0, 557309.0, 132.8], [201103.0, 557312.42, 135.2], [201105.0, 557313.0, 135.2], [201103.0, 557309.0, 132.8]]], [[[201103.0, 557305.0, 132.1], [201101.0, 557308.21, 132.8], [201103.0, 557309.0, 132.8], [201103.0, 557305.0, 132.1]]], [[[201107.0, 557309.0, 133.6], [201106.93, 557308.1, 133.6], [201103.0, 557307.0, 132.1], [201107.0, 557309.0, 133.6]]], [[[201131.0, 557301.0, 135.5], [201131.0, 557299.0, 135.5], [201127.14, 557303.42, 136.1], [201131.0, 557301.0, 135.5]]], [[[201147.0, 557301.0, 148.7], [201147.0, 557299.0, 148.7], [201143.0, 557301.0, 148.7], [201147.0, 557301.0, 148.7]]], [[[201149.0, 557307.0, 148.6], [201151.0, 557307.0, 148.8], [201149.0, 557305.0, 148.7], [201149.0, 557307.0, 148.6]]], [[[201149.0, 557309.0, 148.6], [201149.0, 557312.987, 149.53], [201149.042, 557312.969, 149.54], [201149.042, 557312.969, 149.54], [201150.204, 557312.462, 149.804], [201149.0, 557309.0, 148.6]]], [[[201143.0, 557317.0, 148.5], [201145.63, 557317.0, 149.7], [201145.749, 557316.93, 149.711], [201145.425, 557316.192, 149.106], [201143.0, 557317.0, 148.5]]], [[[201141.58, 557321.0, 147.9], [201142.71, 557318.23, 148.3], [201143.0, 557317.0, 148.5], [201141.58, 557321.0, 147.9]]], [[[201137.0, 557323.0, 145.7], [201137.15, 557323.0, 145.9], [201141.0, 557321.0, 147.0], [201137.0, 557323.0, 145.7]]], [[[201131.0, 557325.0, 145.5], [201132.72, 557325.0, 145.4], [201137.0, 557323.0, 145.7], [201131.0, 557325.0, 145.5]]], [[[201127.0, 557327.0, 145.4], [201128.29, 557327.0, 145.4], [201131.0, 557325.0, 145.5], [201127.0, 557327.0, 145.4]]], [[[201123.0, 557329.0, 145.3], [201123.87, 557329.0, 145.3], [201127.0, 557327.0, 145.4], [201123.0, 557329.0, 145.3]]], [[[201119.0, 557331.0, 145.2], [201119.73, 557330.87, 145.3], [201123.0, 557329.0, 145.3], [201119.0, 557331.0, 145.2]]], [[[201119.62, 557337.0, 145.3], [201121.0, 557333.8, 145.4], [201119.0, 557333.0, 145.0], [201119.62, 557337.0, 145.3]]], [[[201111.0, 557335.0, 144.1], [201111.05, 557337.0, 144.2], [201113.0, 557335.0, 144.2], [201111.0, 557335.0, 144.1]]], [[[201099.0, 557317.5, 139.9], [201101.0, 557333.0, 140.7], [201107.0, 557331.0, 142.3], [201099.0, 557317.5, 139.9]]], [[[201131.0, 557301.0, 135.5], [201127.14, 557303.42, 136.1], [201123.15, 557307.15, 138.9], [201131.0, 557301.0, 135.5]]], [[[201149.0, 557305.0, 148.7], [201147.0, 557301.0, 148.7], [201143.0, 557301.0, 148.7], [201149.0, 557305.0, 148.7]]], [[[201149.0, 557309.0, 148.6], [201143.0, 557317.0, 148.5], [201145.425, 557316.192, 149.106], [201144.823, 557314.82, 148.589], [201145.623, 557314.469, 148.769], [201145.872, 557314.36, 148.825], [201145.872, 557314.36, 148.825], [201146.92, 557313.9, 149.061], [201146.92, 557313.9, 149.061], [201147.195, 557313.779, 149.123], [201147.469, 557313.659, 149.185], [201147.469, 557313.659, 149.185], [201147.72, 557313.549, 149.242], [201148.21, 557313.334, 149.352], [201148.494, 557313.209, 149.416], [201148.494, 557313.209, 149.416], [201148.521, 557313.197, 149.422], [201149.0, 557312.987, 149.53], [201149.0, 557309.0, 148.6]]], [[[201141.0, 557321.0, 147.0], [201141.58, 557321.0, 147.9], [201143.0, 557317.0, 148.5], [201141.0, 557321.0, 147.0]]], [[[201131.0, 557325.0, 145.5], [201137.0, 557323.0, 145.7], [201141.0, 557321.0, 147.0], [201131.0, 557325.0, 145.5]]], [[[201119.0, 557335.0, 144.9], [201119.62, 557337.0, 145.3], [201119.0, 557333.0, 145.0], [201119.0, 557335.0, 144.9]]], [[[201111.0, 557335.0, 144.1], [201113.0, 557335.0, 144.2], [201118.17, 557333.89, 144.9], [201111.0, 557335.0, 144.1]]], [[[201099.0, 557317.5, 139.9], [201107.0, 557331.0, 142.3], [201109.0, 557331.0, 142.5], [201099.0, 557317.5, 139.9]]], [[[201103.0, 557307.0, 132.1], [201103.0, 557309.0, 132.8], [201105.0, 557313.0, 135.2], [201103.0, 557307.0, 132.1]]], [[[201143.0, 557301.0, 148.7], [201131.0, 557301.0, 135.5], [201123.15, 557307.15, 138.9], [201143.0, 557301.0, 148.7]]], [[[201149.0, 557309.0, 148.6], [201149.0, 557305.0, 148.7], [201143.0, 557301.0, 148.7], [201149.0, 557309.0, 148.6]]], [[[201131.0, 557325.0, 145.5], [201141.0, 557321.0, 147.0], [201143.0, 557317.0, 148.5], [201131.0, 557325.0, 145.5]]], [[[201109.0, 557331.0, 142.5], [201111.0, 557335.0, 144.1], [201118.17, 557333.89, 144.9], [201109.0, 557331.0, 142.5]]], [[[201103.0, 557317.0, 138.7], [201099.0, 557317.5, 139.9], [201109.0, 557331.0, 142.5], [201103.0, 557317.0, 138.7]]], [[[201107.0, 557309.0, 133.6], [201103.0, 557307.0, 132.1], [201105.0, 557313.0, 135.2], [201107.0, 557309.0, 133.6]]], [[[201143.0, 557301.0, 148.7], [201123.15, 557307.15, 138.9], [201118.23, 557309.37, 137.8], [201143.0, 557301.0, 148.7]]], [[[201143.0, 557317.0, 148.5], [201149.0, 557309.0, 148.6], [201143.0, 557301.0, 148.7], [201143.0, 557317.0, 148.5]]], [[[201119.0, 557331.0, 145.2], [201131.0, 557325.0, 145.5], [201143.0, 557317.0, 148.5], [201119.0, 557331.0, 145.2]]], [[[201118.17, 557333.89, 144.9], [201119.0, 557335.0, 144.9], [201119.0, 557331.0, 145.2], [201118.17, 557333.89, 144.9]]], [[[201103.0, 557317.0, 138.7], [201109.0, 557331.0, 142.5], [201118.17, 557333.89, 144.9], [201103.0, 557317.0, 138.7]]], [[[201107.0, 557309.0, 133.6], [201105.0, 557313.0, 135.2], [201105.0, 557315.0, 137.4], [201107.0, 557309.0, 133.6]]], [[[201143.0, 557317.0, 148.5], [201143.0, 557301.0, 148.7], [201118.23, 557309.37, 137.8], [201130.517, 557313.155, 143.108], [201130.893, 557312.981, 143.274], [201131.05, 557313.319, 143.338], [201143.0, 557317.0, 148.5]]], [[[201103.0, 557317.0, 138.7], [201118.17, 557333.89, 144.9], [201119.0, 557331.0, 145.2], [201103.0, 557317.0, 138.7]]], [[[201112.82, 557310.06, 135.1], [201107.0, 557309.0, 133.6], [201105.0, 557315.0, 137.4], [201112.82, 557310.06, 135.1]]], [[[201118.23, 557309.37, 137.8], [201112.82, 557310.06, 135.1], [201129.113, 557313.807, 142.334], [201130.517, 557313.155, 143.108], [201118.23, 557309.37, 137.8]]], [[[201143.0, 557317.0, 148.5], [201131.05, 557313.319, 143.338], [201131.141, 557313.515, 143.351], [201131.141, 557313.515, 143.351], [201131.267, 557313.787, 143.37], [201131.393, 557314.059, 143.389], [201131.393, 557314.059, 143.389], [201131.515, 557314.322, 143.406], [201131.535, 557314.363, 143.409], [201143.0, 557317.0, 148.5]]], [[[201103.0, 557317.0, 138.7], [201119.0, 557331.0, 145.2], [201143.0, 557317.0, 148.5], [201132.758, 557317.0, 145.991], [201132.876, 557317.255, 146.066], [201132.876, 557317.255, 146.067], [201133.002, 557317.527, 146.148], [201133.128, 557317.799, 146.229], [201133.128, 557317.799, 146.229], [201133.25, 557318.062, 146.307], [201133.372, 557318.324, 146.385], [201133.372, 557318.324, 146.385], [201133.62, 557318.858, 146.544], [201133.62, 557318.857, 146.544], [201133.746, 557319.13, 146.625], [201133.873, 557319.402, 146.706], [201133.872, 557319.402, 146.706], [201133.993, 557319.665, 146.784], [201134.115, 557319.927, 146.862], [201134.115, 557319.927, 146.862], [201134.34, 557320.411, 147.007], [201134.367, 557320.471, 147.025], [201134.615, 557321.005, 147.184], [201132.257, 557322.099, 146.808], [201132.009, 557321.565, 146.649], [201132.009, 557321.565, 146.649], [201131.883, 557321.293, 146.567], [201131.757, 557321.021, 146.486], [201131.757, 557321.021, 146.486], [201131.635, 557320.758, 146.408], [201131.513, 557320.496, 146.33], [201131.265, 557319.962, 146.171], [201131.265, 557319.963, 146.171], [201131.139, 557319.69, 146.09], [201131.012, 557319.418, 146.009], [201131.013, 557319.418, 146.009], [201130.892, 557319.155, 145.931], [201130.77, 557318.893, 145.853], [201130.77, 557318.893, 145.853], [201130.522, 557318.359, 145.693], [201130.522, 557318.359, 145.693], [201130.274, 557317.825, 145.534], [201130.274, 557317.825, 145.534], [201130.148, 557317.553, 145.453], [201130.022, 557317.281, 145.372], [201130.022, 557317.281, 145.372], [201129.9, 557317.018, 145.294], [201129.891, 557317.0, 145.288], [201103.0, 557317.0, 138.7]]], [[[201112.82, 557310.06, 135.1], [201105.0, 557315.0, 137.4], [201103.0, 557317.0, 138.7], [201112.82, 557310.06, 135.1]]], [[[201112.82, 557310.06, 135.1], [201103.0, 557317.0, 138.7], [201129.891, 557317.0, 145.288], [201129.778, 557316.756, 145.05], [201129.778, 557316.756, 145.05], [201129.53, 557316.222, 144.527], [201129.53, 557316.223, 144.527], [201129.404, 557315.95, 144.26], [201129.277, 557315.678, 143.994], [201129.278, 557315.678, 143.994], [201129.157, 557315.415, 143.737], [201129.035, 557315.153, 143.481], [201128.535, 557314.075, 142.425], [201129.113, 557313.807, 142.334], [201112.82, 557310.06, 135.1]]], [[[201143.0, 557317.0, 148.5], [201131.535, 557314.363, 143.409], [201131.637, 557314.584, 143.625], [201131.637, 557314.584, 143.625], [201131.81, 557314.956, 143.989], [201131.885, 557315.118, 144.148], [201131.885, 557315.117, 144.148], [201132.011, 557315.39, 144.414], [201132.138, 557315.662, 144.681], [201132.137, 557315.662, 144.681], [201132.258, 557315.925, 144.938], [201132.38, 557316.187, 145.194], [201132.628, 557316.721, 145.717], [201132.628, 557316.721, 145.717], [201132.758, 557317.0, 145.991], [201143.0, 557317.0, 148.5]]]]}}, {"type": "Feature", "properties": {"id": "CUT-EDGE-ST-DAEIL-EXIT-SIDE-1", "type": "render_connection_face", "kind": "skirt", "estimated": true, "verifiedWall": false, "otherZ": [143.8, 143.8, 143.8, 143.8, 143.8, 143.8, 143.8, 143.8, 143.8, 143.8, 143.8, 143.8, 143.8, 143.8, 143.8, 143.8, 143.8, 143.8, 143.8], "assumption": "렌더 연결면(벽 아님): 잘린 사잇길 면 가장자리 z ↔ 계단 최저 z 143.8(운영 DRAFT 기반 추정 계단)", "source": "SF-CORRIDOR z(S-MAP) + 추정 계단 z"}, "geometry": {"type": "LineString", "coordinates": [[201148.494, 557313.209, 149.416], [201147.585, 557313.608, 149.211], [201146.676, 557314.007, 149.007], [201145.768, 557314.406, 148.802], [201144.859, 557314.804, 148.597], [201145.206, 557315.692, 148.918], [201145.604, 557316.601, 149.441], [201146.323, 557316.71, 149.906], [201147.238, 557316.327, 150.177], [201148.154, 557315.944, 149.994], [201149.0, 557315.515, 150.611], [201149.477, 557315.0, 150.204], [201150.464, 557314.973, 150.6], [201151.0, 557314.338, 150.471], [201151.0, 557313.346, 150.16], [201151.0, 557312.353, 149.85], [201150.311, 557312.415, 149.8], [201149.402, 557312.812, 149.622], [201148.494, 557313.209, 149.416]]}}, {"type": "Feature", "properties": {"id": "CUT-EDGE-ST-A14-1", "type": "render_connection_face", "kind": "skirt", "estimated": true, "verifiedWall": false, "otherZ": [141.73, 141.73, 141.73, 141.73, 141.73, 141.73, 141.73, 141.73, 141.73, 141.73, 141.73, 141.73, 141.73, 141.73, 141.73, 141.73, 141.73, 141.73, 141.73, 141.73, 141.73, 141.73, 141.73, 141.73], "assumption": "렌더 연결면(벽 아님): 잘린 사잇길 면 가장자리 z ↔ 계단 최저 z 141.73(운영 DRAFT 기반 추정 계단)", "source": "SF-CORRIDOR z(S-MAP) + 추정 계단 z"}, "geometry": {"type": "LineString", "coordinates": [[201129.157, 557315.415, 143.737], [201129.575, 557316.318, 144.621], [201129.994, 557317.221, 145.354], [201130.413, 557318.124, 145.623], [201130.832, 557319.026, 145.892], [201131.25, 557319.93, 146.161], [201131.669, 557320.832, 146.43], [201132.088, 557321.735, 146.699], [201132.796, 557321.849, 146.894], [201133.699, 557321.43, 147.038], [201134.601, 557321.011, 147.181], [201134.203, 557320.116, 146.919], [201133.785, 557319.213, 146.65], [201133.366, 557318.31, 146.381], [201132.947, 557317.408, 146.112], [201132.528, 557316.505, 145.506], [201132.109, 557315.602, 144.622], [201131.69, 557314.699, 143.738], [201131.271, 557313.796, 143.37], [201130.806, 557313.021, 143.235], [201129.903, 557313.44, 142.769], [201129.0, 557313.859, 142.352], [201128.738, 557314.512, 142.853], [201129.157, 557315.415, 143.737]]}}]}