{"type": "FeatureCollection", "name": "terrain-clip-v1", "crs": {"type": "name", "properties": {"name": "urn:ogc:def:crs:EPSG::5186"}}, "provenance": {"source": "frontend/public/corrections/field-surfaces-v3.geojson + docs/audit/m16/preview/data/terrain-grid.f32", "sha256": "051d632f65c5fa6abc19a26d71f6f85fa2311c2b94c9059e78d357f419546ad8", "generator": "docs/audit/field/terrain_clip_v1.py", "status": "표시용 국소 대체(추정). DEM 파일·운영 DB 불변"}, "features": [{"type": "Feature", "properties": {"id": "CLIP-SF-FIELD", "type": "terrain_clip", "kind": "clip", "estimated": true, "assumption": "SF-FIELD 경계 안 렌더 지형을 잘라 보정 면만 보이게 함(표시 전용, DEM 파일·운영 DB 불변)", "source": "field-surfaces-v3.geojson SF-FIELD 경계(S-MAP 메시)"}, "geometry": {"type": "Polygon", "coordinates": [[[201141.0, 557227.0], [201135.0, 557227.0], [201135.0, 557229.0], [201137.0, 557229.0], [201137.0, 557237.0], [201139.0, 557237.0], [201139.0, 557243.0], [201137.0, 557243.0], [201137.0, 557245.0], [201135.0, 557245.0], [201135.0, 557249.0], [201137.0, 557249.0], [201137.0, 557251.0], [201139.0, 557251.0], [201139.0, 557253.0], [201141.0, 557253.0], [201141.0, 557255.0], [201143.0, 557255.0], [201143.0, 557271.0], [201145.0, 557271.0], [201145.0, 557281.0], [201147.0, 557281.0], [201147.0, 557297.0], [201145.0, 557297.0], [201145.0, 557295.0], [201143.0, 557295.0], [201143.0, 557299.0], [201147.0, 557299.0], [201147.0, 557301.0], [201149.0, 557301.0], [201149.0, 557305.0], [201151.0, 557305.0], [201151.0, 557307.0], [201149.0, 557307.0], [201149.0, 557309.0], [201153.0, 557309.0], [201153.0, 557307.0], [201157.0, 557307.0], [201157.0, 557305.0], [201159.0, 557305.0], [201159.0, 557303.0], [201163.0, 557303.0], [201163.0, 557305.0], [201167.0, 557305.0], [201167.0, 557303.0], [201171.0, 557303.0], [201171.0, 557301.0], [201175.0, 557301.0], [201175.0, 557299.0], [201179.0, 557299.0], [201179.0, 557295.0], [201181.0, 557295.0], [201181.0, 557293.0], [201187.0, 557293.0], [201187.0, 557295.0], [201189.0, 557295.0], [201189.0, 557293.0], [201193.0, 557293.0], [201193.0, 557291.0], [201197.0, 557291.0], [201197.0, 557289.0], [201203.0, 557289.0], [201203.0, 557287.0], [201207.0, 557287.0], [201207.0, 557285.0], [201209.0, 557285.0], [201209.0, 557283.0], [201211.0, 557283.0], [201211.0, 557281.0], [201215.0, 557281.0], [201215.0, 557279.0], [201217.0, 557279.0], [201217.0, 557277.0], [201221.0, 557277.0], [201221.0, 557275.0], [201223.0, 557275.0], [201223.0, 557273.0], [201227.0, 557273.0], [201227.0, 557271.0], [201229.0, 557271.0], [201229.0, 557269.0], [201231.0, 557269.0], [201231.0, 557267.0], [201233.0, 557267.0], [201233.0, 557265.0], [201235.0, 557265.0], [201235.0, 557263.0], [201237.0, 557263.0], [201237.0, 557261.0], [201241.0, 557261.0], [201241.0, 557253.0], [201239.0, 557253.0], [201239.0, 557249.0], [201237.0, 557249.0], [201237.0, 557247.0], [201235.0, 557247.0], [201235.0, 557243.0], [201233.0, 557243.0], [201233.0, 557239.0], [201231.0, 557239.0], [201231.0, 557237.0], [201229.0, 557237.0], [201229.0, 557233.0], [201225.0, 557233.0], [201225.0, 557229.0], [201223.0, 557229.0], [201223.0, 557225.0], [201221.0, 557225.0], [201221.0, 557221.0], [201219.0, 557221.0], [201219.0, 557217.0], [201217.0, 557217.0], [201217.0, 557215.0], [201215.0, 557215.0], [201215.0, 557213.0], [201213.0, 557213.0], [201213.0, 557207.0], [201211.0, 557207.0], [201211.0, 557203.0], [201209.0, 557203.0], [201209.0, 557199.0], [201207.0, 557199.0], [201207.0, 557195.0], [201205.0, 557195.0], [201205.0, 557191.0], [201203.0, 557191.0], [201203.0, 557189.0], [201201.0, 557189.0], [201201.0, 557185.0], [201199.0, 557185.0], [201199.0, 557181.0], [201201.0, 557181.0], [201201.0, 557179.0], [201197.0, 557179.0], [201197.0, 557175.0], [201195.0, 557175.0], [201195.0, 557179.0], [201193.0, 557179.0], [201193.0, 557181.0], [201191.0, 557181.0], [201191.0, 557183.0], [201189.0, 557183.0], [201189.0, 557185.0], [201187.0, 557185.0], [201187.0, 557187.0], [201185.0, 557187.0], [201185.0, 557189.0], [201183.0, 557189.0], [201183.0, 557193.0], [201177.0, 557193.0], [201177.0, 557195.0], [201175.0, 557195.0], [201175.0, 557199.0], [201171.0, 557199.0], [201171.0, 557201.0], [201169.0, 557201.0], [201169.0, 557203.0], [201167.0, 557203.0], [201167.0, 557205.0], [201165.0, 557205.0], [201165.0, 557207.0], [201163.0, 557207.0], [201163.0, 557209.0], [201161.0, 557209.0], [201161.0, 557211.0], [201157.0, 557211.0], [201157.0, 557213.0], [201155.0, 557213.0], [201155.0, 557215.0], [201153.0, 557215.0], [201153.0, 557219.0], [201149.0, 557219.0], [201149.0, 557221.0], [201147.0, 557221.0], [201147.0, 557223.0], [201143.0, 557223.0], [201143.0, 557225.0], [201141.0, 557225.0], [201141.0, 557227.0]]]}}, {"type": "Feature", "properties": {"id": "SKIRT-SF-FIELD", "type": "skirt", "kind": "skirt", "estimated": true, "otherZ": [141.906, 141.92, 141.935, 141.951, 141.92, 141.889, 141.857, 141.9, 141.938, 141.966, 141.947, 141.934, 141.916, 141.899, 141.878, 141.857, 141.836, 141.815, 141.798, 141.788, 141.764, 141.75, 141.731, 141.713, 141.706, 141.7, 141.694, 141.7, 141.707, 141.699, 141.694, 141.691, 141.697, 141.681, 141.719, 141.758, 141.81, 141.818, 141.82, 141.863, 141.904, 141.897, 141.889, 141.921, 141.947, 141.931, 141.916, 141.935, 141.935, 141.916, 141.898, 141.894, 141.887, 141.88, 141.87, 141.859, 141.849, 141.839, 141.839, 141.839, 141.86, 141.88, 141.895, 141.91, 141.919, 141.929, 141.934, 141.91, 141.89, 141.894, 141.897, 141.9, 141.913, 141.925, 141.949, 141.973, 142.002, 142.031, 142.055, 142.023, 141.996, 142.016, 142.03, 142.045, 142.057, 142.07, 142.083, 142.096, 142.11, 142.123, 142.137, 142.15, 142.164, 142.178, 142.191, 142.205, 142.218, 142.257, 142.301, 142.287, 142.273, 142.316, 142.366, 142.38, 142.394, 142.407, 142.417, 142.37, 142.327, 142.283, 142.244, 142.257, 142.233, 142.195, 142.16, 142.137, 142.114, 142.09, 142.065, 142.032, 142.003, 141.979, 141.95, 141.977, 142.008, 141.977, 141.941, 141.913, 141.889, 141.864, 141.843, 141.872, 141.899, 141.875, 141.854, 141.833, 141.814, 141.837, 141.858, 141.838, 141.82, 141.839, 141.858, 141.839, 141.822, 141.805, 141.789, 141.772, 141.752, 141.734, 141.713, 141.691, 141.676, 141.683, 141.708, 141.682, 141.666, 141.651, 141.643, 141.644, 141.663, 141.645, 141.633, 141.62, 141.597, 141.594, 141.604, 141.574, 141.548, 141.523, 141.508, 141.509, 141.515, 141.522, 141.538, 141.508, 141.502, 141.507, 141.518, 141.497, 141.496, 141.496, 141.495, 141.495, 141.496, 141.495, 141.492, 141.49, 141.49, 141.496, 141.496, 141.497, 141.494, 141.492, 141.489, 141.491, 141.504, 141.5, 141.503, 141.506, 141.501, 141.505, 141.508, 141.505, 141.503, 141.5, 141.5, 141.5, 141.527, 141.529, 141.533, 141.558, 141.558, 141.558, 141.559, 141.56, 141.565, 141.563, 141.563, 141.564, 141.572, 141.572, 141.569, 141.574, 141.579, 141.576, 141.575, 141.573, 141.574, 141.576, 143.763, 143.77, 144.945, 145.955, 145.958, 145.954, 145.97, 145.986, 146.0, 146.006, 146.008, 146.025, 146.045, 146.052, 148.402, 148.417, 149.61, 150.803, 150.809, 150.784, 150.754, 150.762, 150.768, 150.742, 150.713, 150.722, 150.733, 150.704, 150.673, 150.682, 150.696, 150.665, 150.639, 150.651, 150.666, 150.637, 150.613, 150.626, 150.642, 150.616, 150.591, 150.608, 150.636, 150.663, 150.69, 150.677, 150.656, 150.634, 150.614, 150.594, 150.572, 150.551, 150.519, 150.483, 150.456, 150.415, 150.388, 150.361, 150.318, 150.292, 150.26, 150.228, 150.189, 150.167, 150.139, 150.111, 150.073, 150.036, 149.996, 149.976, 149.957, 149.916, 149.875, 149.835, 149.797, 149.782, 149.77, 149.735, 149.702, 149.693, 149.685, 149.655, 149.628, 149.6, 149.576, 149.573, 149.571, 149.568, 149.557, 149.546, 149.529, 149.511, 149.496, 149.498, 149.49, 149.486, 149.475, 149.464, 149.456, 149.46, 149.464, 149.457, 149.451, 149.446, 149.442, 149.447, 149.452, 149.449, 149.448, 149.447, 149.448, 149.461, 149.467, 149.475, 149.479, 149.485, 149.491, 149.495, 149.501, 149.507, 148.498, 147.487, 146.527, 145.567, 145.615, 145.663, 145.661, 145.621, 145.529, 145.581, 145.587, 145.593, 145.595, 145.555, 145.512, 145.519, 145.523, 145.526, 145.54, 145.506, 144.269, 143.086, 143.115, 143.145, 142.025, 140.827, 140.795, 140.855, 140.912, 140.97, 141.038, 141.017, 140.983, 141.05, 141.112, 141.083, 141.048, 141.116, 141.187, 141.257, 141.325, 141.291, 141.261, 141.34, 141.443, 141.545, 141.624, 141.621, 141.655, 141.746, 141.844, 141.807, 141.796, 141.785, 141.738, 141.801, 141.868, 141.934, 142.007, 141.955, 141.91, 141.849, 141.78, 141.711, 141.652, 141.612, 141.596, 141.534, 141.458, 141.453, 141.322, 141.258, 141.211, 141.097, 141.142, 141.094, 141.047, 141.082, 141.107, 141.048, 140.99, 141.015, 141.05, 141.002, 140.955, 140.99, 141.028, 140.98, 140.935, 140.891, 140.851, 140.891, 140.935, 140.979, 141.02, 141.062, 141.104, 141.061, 141.02, 141.061, 141.104, 141.062, 141.023, 140.984, 140.948, 140.99, 141.034, 141.078, 141.123, 141.089, 141.058, 141.105, 141.153, 141.123, 141.096, 141.145, 141.195, 141.167, 141.087, 141.169, 141.201, 141.161, 141.065, 141.102, 141.137, 141.038, 141.02, 141.054, 141.091, 141.075, 141.065, 141.105, 141.145, 141.184, 141.221, 141.212, 141.203, 141.241, 141.277, 141.269, 141.263, 141.299, 141.332, 141.324, 141.317, 141.311, 141.306, 141.339, 141.54, 141.742, 141.741, 141.736, 141.755, 141.762, 141.773, 141.808, 141.838, 141.851, 141.865, 141.88, 141.893, 141.919, 141.905, 141.917, 141.93, 141.916, 141.906], "assumption": "경계선 ≤1 m 간격마다 표면 z와 DEM(쌍선형) z 사이 세로 면 — 실제 사면·옹벽 형상 미측정, 틈 메움용", "source": "field-surfaces-v3.geojson SF-FIELD z(S-MAP) + DEM 스냅샷 terrain-grid.f32"}, "geometry": {"type": "LineString", "coordinates": [[201141.0, 557227.0, 148.9], [201140.0, 557227.0, 148.9], [201139.0, 557227.0, 148.9], [201138.0, 557227.0, 148.9], [201137.0, 557227.0, 148.9], [201136.0, 557227.0, 148.9], [201135.0, 557227.0, 148.9], [201135.0, 557228.0, 148.9], [201135.0, 557229.0, 148.9], [201136.0, 557229.0, 148.9], [201137.0, 557229.0, 148.9], [201137.0, 557230.0, 148.9], [201137.0, 557231.0, 148.9], [201137.0, 557232.0, 148.9], [201137.0, 557233.0, 148.9], [201137.0, 557234.0, 148.9], [201137.0, 557235.0, 148.9], [201137.0, 557236.0, 148.9], [201137.0, 557237.0, 148.9], [201138.0, 557237.0, 148.9], [201139.0, 557237.0, 148.9], [201139.0, 557238.0, 148.9], [201139.0, 557239.0, 148.9], [201139.0, 557240.0, 148.9], [201139.0, 557241.0, 148.9], [201139.0, 557242.0, 148.9], [201139.0, 557243.0, 148.9], [201138.0, 557243.0, 148.9], [201137.0, 557243.0, 148.9], [201137.0, 557244.0, 148.9], [201137.0, 557245.0, 148.9], [201136.0, 557245.0, 148.9], [201135.0, 557245.0, 148.9], [201135.0, 557246.0, 148.9], [201135.0, 557247.0, 148.9], [201135.0, 557248.0, 148.9], [201135.0, 557249.0, 148.9], [201136.0, 557249.0, 148.9], [201137.0, 557249.0, 148.9], [201137.0, 557250.0, 148.9], [201137.0, 557251.0, 148.9], [201138.0, 557251.0, 148.9], [201139.0, 557251.0, 148.9], [201139.0, 557252.0, 148.9], [201139.0, 557253.0, 148.9], [201140.0, 557253.0, 148.9], [201141.0, 557253.0, 148.9], [201141.0, 557254.0, 148.9], [201141.0, 557255.0, 148.9], [201142.0, 557255.0, 148.9], [201143.0, 557255.0, 148.9], [201143.0, 557256.0, 148.9], [201143.0, 557257.0, 148.9], [201143.0, 557258.0, 148.9], [201143.0, 557259.0, 148.9], [201143.0, 557260.0, 148.9], [201143.0, 557261.0, 148.9], [201143.0, 557262.0, 148.9], [201143.0, 557263.0, 148.9], [201143.0, 557264.0, 148.9], [201143.0, 557265.0, 148.9], [201143.0, 557266.0, 148.9], [201143.0, 557267.0, 148.9], [201143.0, 557268.0, 148.9], [201143.0, 557269.0, 148.9], [201143.0, 557270.0, 148.9], [201143.0, 557271.0, 148.9], [201144.0, 557271.0, 148.9], [201145.0, 557271.0, 148.9], [201145.0, 557272.0, 148.9], [201145.0, 557273.0, 148.9], [201145.0, 557274.0, 148.9], [201145.0, 557275.0, 148.9], [201145.0, 557276.0, 148.9], [201145.0, 557277.0, 148.9], [201145.0, 557278.0, 148.9], [201145.0, 557279.0, 148.9], [201145.0, 557280.0, 148.9], [201145.0, 557281.0, 148.9], [201146.0, 557281.0, 148.9], [201147.0, 557281.0, 148.9], [201147.0, 557282.0, 148.9], [201147.0, 557283.0, 148.9], [201147.0, 557284.0, 148.9], [201147.0, 557285.0, 148.9], [201147.0, 557286.0, 148.9], [201147.0, 557287.0, 148.9], [201147.0, 557288.0, 148.9], [201147.0, 557289.0, 148.9], [201147.0, 557290.0, 148.9], [201147.0, 557291.0, 148.9], [201147.0, 557292.0, 148.9], [201147.0, 557293.0, 148.9], [201147.0, 557294.0, 148.9], [201147.0, 557295.0, 148.9], [201147.0, 557296.0, 148.9], [201147.0, 557297.0, 148.9], [201146.0, 557297.0, 148.9], [201145.0, 557297.0, 148.9], [201145.0, 557296.0, 148.9], [201145.0, 557295.0, 148.9], [201144.0, 557295.0, 148.9], [201143.0, 557295.0, 148.9], [201143.0, 557296.0, 148.9], [201143.0, 557297.0, 148.9], [201143.0, 557298.0, 148.9], [201143.0, 557299.0, 148.9], [201144.0, 557299.0, 148.9], [201145.0, 557299.0, 148.9], [201146.0, 557299.0, 148.9], [201147.0, 557299.0, 148.9], [201147.0, 557300.0, 148.9], [201147.0, 557301.0, 148.9], [201148.0, 557301.0, 148.9], [201149.0, 557301.0, 148.9], [201149.0, 557302.0, 148.9], [201149.0, 557303.0, 148.9], [201149.0, 557304.0, 148.9], [201149.0, 557305.0, 148.9], [201150.0, 557305.0, 148.9], [201151.0, 557305.0, 148.9], [201151.0, 557306.0, 148.9], [201151.0, 557307.0, 148.9], [201150.0, 557307.0, 148.9], [201149.0, 557307.0, 148.9], [201149.0, 557308.0, 148.9], [201149.0, 557309.0, 148.9], [201150.0, 557309.0, 148.9], [201151.0, 557309.0, 148.9], [201152.0, 557309.0, 148.9], [201153.0, 557309.0, 148.9], [201153.0, 557308.0, 148.9], [201153.0, 557307.0, 148.9], [201154.0, 557307.0, 148.9], [201155.0, 557307.0, 148.9], [201156.0, 557307.0, 148.9], [201157.0, 557307.0, 148.9], [201157.0, 557306.0, 148.9], [201157.0, 557305.0, 148.9], [201158.0, 557305.0, 148.9], [201159.0, 557305.0, 148.9], [201159.0, 557304.0, 148.9], [201159.0, 557303.0, 148.9], [201160.0, 557303.0, 148.9], [201161.0, 557303.0, 148.9], [201162.0, 557303.0, 148.9], [201163.0, 557303.0, 148.9], [201163.0, 557304.0, 148.9], [201163.0, 557305.0, 148.9], [201164.0, 557305.0, 148.9], [201165.0, 557305.0, 148.9], [201166.0, 557305.0, 148.9], [201167.0, 557305.0, 148.9], [201167.0, 557304.0, 148.9], [201167.0, 557303.0, 148.9], [201168.0, 557303.0, 148.9], [201169.0, 557303.0, 148.9], [201170.0, 557303.0, 148.9], [201171.0, 557303.0, 148.9], [201171.0, 557302.0, 148.9], [201171.0, 557301.0, 148.9], [201172.0, 557301.0, 148.9], [201173.0, 557301.0, 148.9], [201174.0, 557301.0, 148.9], [201175.0, 557301.0, 148.9], [201175.0, 557300.0, 148.9], [201175.0, 557299.0, 148.9], [201176.0, 557299.0, 148.9], [201177.0, 557299.0, 148.9], [201178.0, 557299.0, 148.9], [201179.0, 557299.0, 148.9], [201179.0, 557298.0, 148.9], [201179.0, 557297.0, 148.9], [201179.0, 557296.0, 148.9], [201179.0, 557295.0, 148.9], [201180.0, 557295.0, 148.9], [201181.0, 557295.0, 148.9], [201181.0, 557294.0, 148.9], [201181.0, 557293.0, 148.9], [201182.0, 557293.0, 148.9], [201183.0, 557293.0, 148.9], [201184.0, 557293.0, 148.9], [201185.0, 557293.0, 148.9], [201186.0, 557293.0, 148.9], [201187.0, 557293.0, 148.9], [201187.0, 557294.0, 148.9], [201187.0, 557295.0, 148.9], [201188.0, 557295.0, 148.9], [201189.0, 557295.0, 148.9], [201189.0, 557294.0, 148.9], [201189.0, 557293.0, 148.9], [201190.0, 557293.0, 148.9], [201191.0, 557293.0, 148.9], [201192.0, 557293.0, 148.9], [201193.0, 557293.0, 148.9], [201193.0, 557292.0, 148.9], [201193.0, 557291.0, 148.9], [201194.0, 557291.0, 148.9], [201195.0, 557291.0, 148.9], [201196.0, 557291.0, 148.9], [201197.0, 557291.0, 148.9], [201197.0, 557290.0, 148.9], [201197.0, 557289.0, 148.9], [201198.0, 557289.0, 148.9], [201199.0, 557289.0, 148.9], [201200.0, 557289.0, 148.9], [201201.0, 557289.0, 148.9], [201202.0, 557289.0, 148.9], [201203.0, 557289.0, 148.9], [201203.0, 557288.0, 148.9], [201203.0, 557287.0, 148.9], [201204.0, 557287.0, 148.9], [201205.0, 557287.0, 148.9], [201206.0, 557287.0, 148.9], [201207.0, 557287.0, 148.9], [201207.0, 557286.0, 148.9], [201207.0, 557285.0, 148.9], [201208.0, 557285.0, 148.9], [201209.0, 557285.0, 148.9], [201209.0, 557284.0, 148.9], [201209.0, 557283.0, 148.9], [201210.0, 557283.0, 148.9], [201211.0, 557283.0, 148.9], [201211.0, 557282.0, 148.9], [201211.0, 557281.0, 148.9], [201212.0, 557281.0, 148.9], [201213.0, 557281.0, 148.9], [201214.0, 557281.0, 148.9], [201215.0, 557281.0, 148.9], [201215.0, 557280.0, 148.9], [201215.0, 557279.0, 148.9], [201216.0, 557279.0, 148.9], [201217.0, 557279.0, 148.9], [201217.0, 557278.0, 148.9], [201217.0, 557277.0, 148.9], [201218.0, 557277.0, 148.9], [201219.0, 557277.0, 148.9], [201220.0, 557277.0, 148.9], [201221.0, 557277.0, 148.9], [201221.0, 557276.0, 148.9], [201221.0, 557275.0, 148.9], [201222.0, 557275.0, 148.9], [201223.0, 557275.0, 148.9], [201223.0, 557274.0, 148.9], [201223.0, 557273.0, 148.9], [201224.0, 557273.0, 148.9], [201225.0, 557273.0, 148.9], [201226.0, 557273.0, 148.9], [201227.0, 557273.0, 148.9], [201227.0, 557272.0, 148.9], [201227.0, 557271.0, 148.9], [201228.0, 557271.0, 148.9], [201229.0, 557271.0, 148.9], [201229.0, 557270.0, 148.9], [201229.0, 557269.0, 148.9], [201230.0, 557269.0, 148.9], [201231.0, 557269.0, 148.9], [201231.0, 557268.0, 148.9], [201231.0, 557267.0, 148.9], [201232.0, 557267.0, 148.9], [201233.0, 557267.0, 148.9], [201233.0, 557266.0, 148.9], [201233.0, 557265.0, 148.9], [201234.0, 557265.0, 148.9], [201235.0, 557265.0, 148.9], [201235.0, 557264.0, 148.9], [201235.0, 557263.0, 148.9], [201236.0, 557263.0, 148.9], [201237.0, 557263.0, 148.9], [201237.0, 557262.0, 148.9], [201237.0, 557261.0, 148.9], [201238.0, 557261.0, 148.9], [201239.0, 557261.0, 148.9], [201240.0, 557261.0, 148.9], [201241.0, 557261.0, 148.9], [201241.0, 557260.0, 148.9], [201241.0, 557259.0, 148.9], [201241.0, 557258.0, 148.9], [201241.0, 557257.0, 148.9], [201241.0, 557256.0, 148.9], [201241.0, 557255.0, 148.9], [201241.0, 557254.0, 148.9], [201241.0, 557253.0, 148.9], [201240.0, 557253.0, 148.9], [201239.0, 557253.0, 148.9], [201239.0, 557252.0, 148.9], [201239.0, 557251.0, 148.9], [201239.0, 557250.0, 148.9], [201239.0, 557249.0, 148.9], [201238.0, 557249.0, 148.9], [201237.0, 557249.0, 148.9], [201237.0, 557248.0, 148.9], [201237.0, 557247.0, 148.9], [201236.0, 557247.0, 148.9], [201235.0, 557247.0, 148.9], [201235.0, 557246.0, 148.9], [201235.0, 557245.0, 148.9], [201235.0, 557244.0, 148.9], [201235.0, 557243.0, 148.9], [201234.0, 557243.0, 148.9], [201233.0, 557243.0, 148.9], [201233.0, 557242.0, 148.9], [201233.0, 557241.0, 148.9], [201233.0, 557240.0, 148.9], [201233.0, 557239.0, 148.9], [201232.0, 557239.0, 148.9], [201231.0, 557239.0, 148.9], [201231.0, 557238.0, 148.9], [201231.0, 557237.0, 148.9], [201230.0, 557237.0, 148.9], [201229.0, 557237.0, 148.9], [201229.0, 557236.0, 148.9], [201229.0, 557235.0, 148.9], [201229.0, 557234.0, 148.9], [201229.0, 557233.0, 148.9], [201228.0, 557233.0, 148.9], [201227.0, 557233.0, 148.9], [201226.0, 557233.0, 148.9], [201225.0, 557233.0, 148.9], [201225.0, 557232.0, 148.9], [201225.0, 557231.0, 148.9], [201225.0, 557230.0, 148.9], [201225.0, 557229.0, 148.9], [201224.0, 557229.0, 148.9], [201223.0, 557229.0, 148.9], [201223.0, 557228.0, 148.9], [201223.0, 557227.0, 148.9], [201223.0, 557226.0, 148.9], [201223.0, 557225.0, 148.9], [201222.0, 557225.0, 148.9], [201221.0, 557225.0, 148.9], [201221.0, 557224.0, 148.9], [201221.0, 557223.0, 148.9], [201221.0, 557222.0, 148.9], [201221.0, 557221.0, 148.9], [201220.0, 557221.0, 148.9], [201219.0, 557221.0, 148.9], [201219.0, 557220.0, 148.9], [201219.0, 557219.0, 148.9], [201219.0, 557218.0, 148.9], [201219.0, 557217.0, 148.9], [201218.0, 557217.0, 148.9], [201217.0, 557217.0, 148.9], [201217.0, 557216.0, 148.9], [201217.0, 557215.0, 148.9], [201216.0, 557215.0, 148.9], [201215.0, 557215.0, 148.9], [201215.0, 557214.0, 148.9], [201215.0, 557213.0, 148.9], [201214.0, 557213.0, 148.9], [201213.0, 557213.0, 148.9], [201213.0, 557212.0, 148.9], [201213.0, 557211.0, 148.9], [201213.0, 557210.0, 148.9], [201213.0, 557209.0, 148.9], [201213.0, 557208.0, 148.9], [201213.0, 557207.0, 148.9], [201212.0, 557207.0, 148.9], [201211.0, 557207.0, 148.9], [201211.0, 557206.0, 148.9], [201211.0, 557205.0, 148.9], [201211.0, 557204.0, 148.9], [201211.0, 557203.0, 148.9], [201210.0, 557203.0, 148.9], [201209.0, 557203.0, 148.9], [201209.0, 557202.0, 148.9], [201209.0, 557201.0, 148.9], [201209.0, 557200.0, 148.9], [201209.0, 557199.0, 148.9], [201208.0, 557199.0, 148.9], [201207.0, 557199.0, 148.9], [201207.0, 557198.0, 148.9], [201207.0, 557197.0, 148.9], [201207.0, 557196.0, 148.9], [201207.0, 557195.0, 148.9], [201206.0, 557195.0, 148.9], [201205.0, 557195.0, 148.9], [201205.0, 557194.0, 148.9], [201205.0, 557193.0, 148.9], [201205.0, 557192.0, 148.9], [201205.0, 557191.0, 148.9], [201204.0, 557191.0, 148.9], [201203.0, 557191.0, 148.9], [201203.0, 557190.0, 148.9], [201203.0, 557189.0, 148.9], [201202.0, 557189.0, 148.9], [201201.0, 557189.0, 148.9], [201201.0, 557188.0, 148.9], [201201.0, 557187.0, 148.9], [201201.0, 557186.0, 148.9], [201201.0, 557185.0, 148.9], [201200.0, 557185.0, 148.9], [201199.0, 557185.0, 148.9], [201199.0, 557184.0, 148.9], [201199.0, 557183.0, 148.9], [201199.0, 557182.0, 148.9], [201199.0, 557181.0, 148.9], [201200.0, 557181.0, 148.9], [201201.0, 557181.0, 148.9], [201201.0, 557180.0, 148.9], [201201.0, 557179.0, 148.9], [201200.0, 557179.0, 148.9], [201199.0, 557179.0, 148.9], [201198.0, 557179.0, 148.9], [201197.0, 557179.0, 148.9], [201197.0, 557178.0, 148.9], [201197.0, 557177.0, 148.9], [201197.0, 557176.0, 148.9], [201197.0, 557175.0, 148.9], [201196.0, 557175.0, 148.9], [201195.0, 557175.0, 148.9], [201195.0, 557176.0, 148.9], [201195.0, 557177.0, 148.9], [201195.0, 557178.0, 148.9], [201195.0, 557179.0, 148.9], [201194.0, 557179.0, 148.9], [201193.0, 557179.0, 148.9], [201193.0, 557180.0, 148.9], [201193.0, 557181.0, 148.9], [201192.0, 557181.0, 148.9], [201191.0, 557181.0, 148.9], [201191.0, 557182.0, 148.9], [201191.0, 557183.0, 148.9], [201190.0, 557183.0, 148.9], [201189.0, 557183.0, 148.9], [201189.0, 557184.0, 148.9], [201189.0, 557185.0, 148.9], [201188.0, 557185.0, 148.9], [201187.0, 557185.0, 148.9], [201187.0, 557186.0, 148.9], [201187.0, 557187.0, 148.9], [201186.0, 557187.0, 148.9], [201185.0, 557187.0, 148.9], [201185.0, 557188.0, 148.9], [201185.0, 557189.0, 148.9], [201184.0, 557189.0, 148.9], [201183.0, 557189.0, 148.9], [201183.0, 557190.0, 148.9], [201183.0, 557191.0, 148.9], [201183.0, 557192.0, 148.9], [201183.0, 557193.0, 148.9], [201182.0, 557193.0, 148.9], [201181.0, 557193.0, 148.9], [201180.0, 557193.0, 148.9], [201179.0, 557193.0, 148.9], [201178.0, 557193.0, 148.9], [201177.0, 557193.0, 148.9], [201177.0, 557194.0, 148.9], [201177.0, 557195.0, 148.9], [201176.0, 557195.0, 148.9], [201175.0, 557195.0, 148.9], [201175.0, 557196.0, 148.9], [201175.0, 557197.0, 148.9], [201175.0, 557198.0, 148.9], [201175.0, 557199.0, 148.9], [201174.0, 557199.0, 148.9], [201173.0, 557199.0, 148.9], [201172.0, 557199.0, 148.9], [201171.0, 557199.0, 148.9], [201171.0, 557200.0, 148.9], [201171.0, 557201.0, 148.9], [201170.0, 557201.0, 148.9], [201169.0, 557201.0, 148.9], [201169.0, 557202.0, 148.9], [201169.0, 557203.0, 148.9], [201168.0, 557203.0, 148.9], [201167.0, 557203.0, 148.9], [201167.0, 557204.0, 148.9], [201167.0, 557205.0, 148.9], [201166.0, 557205.0, 148.9], [201165.0, 557205.0, 148.9], [201165.0, 557206.0, 148.9], [201165.0, 557207.0, 148.9], [201164.0, 557207.0, 148.9], [201163.0, 557207.0, 148.9], [201163.0, 557208.0, 148.9], [201163.0, 557209.0, 148.9], [201162.0, 557209.0, 148.9], [201161.0, 557209.0, 148.9], [201161.0, 557210.0, 148.9], [201161.0, 557211.0, 148.9], [201160.0, 557211.0, 148.9], [201159.0, 557211.0, 148.9], [201158.0, 557211.0, 148.9], [201157.0, 557211.0, 148.9], [201157.0, 557212.0, 148.9], [201157.0, 557213.0, 148.9], [201156.0, 557213.0, 148.9], [201155.0, 557213.0, 148.9], [201155.0, 557214.0, 148.9], [201155.0, 557215.0, 148.9], [201154.0, 557215.0, 148.9], [201153.0, 557215.0, 148.9], [201153.0, 557216.0, 148.9], [201153.0, 557217.0, 148.9], [201153.0, 557218.0, 148.9], [201153.0, 557219.0, 148.9], [201152.0, 557219.0, 148.9], [201151.0, 557219.0, 148.9], [201150.0, 557219.0, 148.9], [201149.0, 557219.0, 148.9], [201149.0, 557220.0, 148.9], [201149.0, 557221.0, 148.9], [201148.0, 557221.0, 148.9], [201147.0, 557221.0, 148.9], [201147.0, 557222.0, 148.9], [201147.0, 557223.0, 148.9], [201146.0, 557223.0, 148.9], [201145.0, 557223.0, 148.9], [201144.0, 557223.0, 148.9], [201143.0, 557223.0, 148.9], [201143.0, 557224.0, 148.9], [201143.0, 557225.0, 148.9], [201142.0, 557225.0, 148.9], [201141.0, 557225.0, 148.9], [201141.0, 557226.0, 148.9], [201141.0, 557227.0, 148.9]]}}, {"type": "Feature", "properties": {"id": "CLIP-SF-CORRIDOR", "type": "terrain_clip", "kind": "clip", "estimated": true, "assumption": "SF-CORRIDOR 경계 안 렌더 지형을 잘라 보정 면만 보이게 함(표시 전용, DEM 파일·운영 DB 불변)", "source": "field-surfaces-v3.geojson SF-CORRIDOR 경계(S-MAP 메시)"}, "geometry": {"type": "Polygon", "coordinates": [[[201099.0, 557335.0], [201101.0, 557335.0], [201101.0, 557333.0], [201107.0, 557333.0], [201107.0, 557331.0], [201109.0, 557331.0], [201109.0, 557335.0], [201111.0, 557335.0], [201111.0, 557337.0], [201111.05, 557337.0], [201113.0, 557336.15], [201113.0, 557335.0], [201115.62, 557335.0], [201118.17, 557333.89], [201118.69, 557335.0], [201119.0, 557335.0], [201119.0, 557335.66], [201119.62, 557337.0], [201121.0, 557337.0], [201121.0, 557333.8], [201120.66, 557333.0], [201119.0, 557333.0], [201119.0, 557331.0], [201119.79, 557331.0], [201119.73, 557330.87], [201123.0, 557329.39], [201123.0, 557329.0], [201123.87, 557329.0], [201127.0, 557327.58], [201127.0, 557327.0], [201128.29, 557327.0], [201131.0, 557325.78], [201131.0, 557325.0], [201132.72, 557325.0], [201137.0, 557323.07], [201137.0, 557323.0], [201137.15, 557323.0], [201141.0, 557321.26], [201141.0, 557321.0], [201141.58, 557321.0], [201143.38, 557320.19], [201142.71, 557318.23], [201143.0, 557318.11], [201143.0, 557317.0], [201145.63, 557317.0], [201149.0, 557315.59], [201149.0, 557315.0], [201150.4, 557315.0], [201151.0, 557314.75], [201151.0, 557309.0], [201149.0, 557309.0], [201149.0, 557307.0], [201151.0, 557307.0], [201151.0, 557305.0], [201149.0, 557305.0], [201149.0, 557301.0], [201147.0, 557301.0], [201147.0, 557299.0], [201143.0, 557299.0], [201143.0, 557301.0], [201131.0, 557301.0], [201131.0, 557299.0], [201128.69, 557299.0], [201127.14, 557303.42], [201123.15, 557307.15], [201118.23, 557309.37], [201112.82, 557310.06], [201109.65, 557309.0], [201107.0, 557309.0], [201107.0, 557308.12], [201106.93, 557308.1], [201105.57, 557307.0], [201103.0, 557307.0], [201103.0, 557305.0], [201101.0, 557305.0], [201101.0, 557308.21], [201101.37, 557309.0], [201103.0, 557309.0], [201103.0, 557312.42], [201103.28, 557313.0], [201105.0, 557313.0], [201105.0, 557315.0], [201104.09, 557315.0], [201103.0, 557315.54], [201103.0, 557317.0], [201100.03, 557317.0], [201099.0, 557317.5], [201099.0, 557335.0]]]}}, {"type": "Feature", "properties": {"id": "SKIRT-SF-CORRIDOR", "type": "skirt", "kind": "skirt", "estimated": true, "otherZ": [140.691, 140.686, 140.684, 140.656, 140.624, 140.612, 140.606, 140.6, 140.592, 140.584, 140.564, 140.509, 140.418, 140.394, 140.335, 140.463, 140.524, 140.585, 140.652, 140.644, 140.68, 140.787, 140.809, 140.81, 140.823, 140.818, 140.78, 140.767, 140.756, 140.792, 140.718, 140.625, 140.286, 139.439, 138.949, 139.792, 140.196, 140.39, 139.972, 139.342, 138.933, 139.081, 140.375, 139.882, 140.578, 141.67, 142.511, 142.916, 143.107, 141.032, 141.04, 141.781, 142.36, 142.244, 141.914, 141.632, 141.595, 141.52, 141.497, 141.441, 141.395, 141.363, 141.34, 141.321, 141.314, 141.3, 141.29, 141.275, 141.262, 141.254, 141.253, 141.245, 141.24, 141.235, 141.231, 141.23, 141.239, 141.262, 141.263, 141.266, 141.285, 141.323, 141.353, 141.399, 141.439, 141.444, 141.459, 141.479, 141.492, 141.509, 141.545, 141.584, 141.59, 141.626, 141.664, 141.654, 141.645, 141.636, 141.648, 141.657, 141.662, 141.667, 141.694, 141.684, 141.678, 141.683, 141.715, 141.752, 141.789, 141.823, 141.858, 141.889, 141.913, 141.941, 141.977, 142.008, 141.977, 141.95, 141.979, 142.003, 142.032, 142.065, 142.09, 142.114, 142.137, 142.16, 142.195, 142.233, 142.257, 142.244, 142.283, 142.327, 142.37, 142.417, 142.428, 142.406, 142.454, 142.506, 142.558, 142.617, 142.676, 142.745, 142.814, 142.898, 142.981, 143.085, 143.188, 143.318, 143.329, 143.34, 143.439, 143.558, 143.686, 143.732, 143.779, 143.739, 143.701, 143.726, 143.77, 143.741, 143.699, 143.747, 143.615, 143.515, 143.598, 143.724, 143.677, 143.55, 143.447, 143.527, 143.578, 143.607, 143.462, 143.138, 142.88, 142.841, 142.686, 142.386, 142.098, 141.765, 141.378, 140.985, 140.553, 140.571, 140.543, 140.316, 140.143, 139.874, 139.587, 139.214, 139.201, 139.418, 139.13, 138.963, 138.822, 138.886, 139.018, 139.112, 138.978, 138.807, 138.992, 138.791, 138.885, 139.039, 139.115, 138.993, 138.78, 139.316, 139.309, 139.238, 139.182, 139.394, 139.578, 139.74, 139.794, 139.926, 140.033, 140.14, 140.205, 140.263, 140.333, 140.385, 140.429, 140.461, 140.494, 140.53, 140.554, 140.553, 140.556, 140.569, 140.582, 140.588, 140.596, 140.613, 140.629, 140.65, 140.671, 140.691], "assumption": "경계선 ≤1 m 간격마다 표면 z와 DEM(쌍선형) z 사이 세로 면 — 실제 사면·옹벽 형상 미측정, 틈 메움용", "source": "field-surfaces-v3.geojson SF-CORRIDOR z(S-MAP) + DEM 스냅샷 terrain-grid.f32"}, "geometry": {"type": "LineString", "coordinates": [[201099.0, 557335.0, 141.8], [201100.0, 557335.0, 141.773], [201101.0, 557335.0, 141.8], [201101.0, 557334.0, 141.443], [201101.0, 557333.0, 140.7], [201102.0, 557333.0, 141.25], [201103.0, 557333.0, 141.821], [201104.0, 557333.0, 142.232], [201105.0, 557333.0, 142.517], [201106.0, 557333.0, 142.648], [201107.0, 557333.0, 142.6], [201107.0, 557332.0, 142.563], [201107.0, 557331.0, 142.3], [201108.0, 557331.0, 142.537], [201109.0, 557331.0, 142.5], [201109.0, 557332.0, 142.802], [201109.0, 557333.0, 143.212], [201109.0, 557334.0, 143.686], [201109.0, 557335.0, 144.1], [201110.0, 557335.0, 143.963], [201111.0, 557335.0, 144.1], [201111.0, 557336.0, 144.092], [201111.0, 557337.0, 144.2], [201111.05, 557337.0, 144.2], [201111.7, 557336.717, 144.15], [201112.35, 557336.433, 144.151], [201113.0, 557336.15, 144.2], [201113.0, 557335.575, 144.18], [201113.0, 557335.0, 144.2], [201113.873, 557335.0, 144.197], [201114.747, 557335.0, 144.293], [201115.62, 557335.0, 144.3], [201116.47, 557334.63, 144.529], [201117.32, 557334.26, 144.801], [201118.17, 557333.89, 144.9], [201118.43, 557334.445, 144.912], [201118.69, 557335.0, 144.9], [201119.0, 557335.0, 144.9], [201119.0, 557335.66, 145.3], [201119.31, 557336.33, 145.136], [201119.62, 557337.0, 145.3], [201120.31, 557337.0, 145.196], [201121.0, 557337.0, 145.3], [201121.0, 557336.2, 145.135], [201121.0, 557335.4, 145.064], [201121.0, 557334.6, 145.167], [201121.0, 557333.8, 145.4], [201120.66, 557333.0, 145.4], [201119.83, 557333.0, 145.11], [201119.0, 557333.0, 145.0], [201119.0, 557332.0, 145.062], [201119.0, 557331.0, 145.2], [201119.79, 557331.0, 145.3], [201119.73, 557330.87, 145.3], [201120.548, 557330.5, 145.158], [201121.365, 557330.13, 145.072], [201122.182, 557329.76, 145.166], [201123.0, 557329.39, 145.3], [201123.0, 557329.0, 145.3], [201123.87, 557329.0, 145.3], [201124.652, 557328.645, 145.186], [201125.435, 557328.29, 145.151], [201126.217, 557327.935, 145.275], [201127.0, 557327.58, 145.4], [201127.0, 557327.0, 145.4], [201127.645, 557327.0, 145.356], [201128.29, 557327.0, 145.4], [201129.193, 557326.593, 145.3], [201130.097, 557326.187, 145.334], [201131.0, 557325.78, 145.4], [201131.0, 557325.0, 145.5], [201131.86, 557325.0, 145.407], [201132.72, 557325.0, 145.4], [201133.576, 557324.614, 145.421], [201134.432, 557324.228, 145.54], [201135.288, 557323.842, 145.691], [201136.144, 557323.456, 145.764], [201137.0, 557323.07, 145.7], [201137.0, 557323.0, 145.7], [201137.15, 557323.0, 145.9], [201137.92, 557322.652, 145.881], [201138.69, 557322.304, 146.212], [201139.46, 557321.956, 146.659], [201140.23, 557321.608, 146.931], [201141.0, 557321.26, 146.7], [201141.0, 557321.0, 147.0], [201141.58, 557321.0, 147.9], [201142.48, 557320.595, 147.796], [201143.38, 557320.19, 148.6], [201143.157, 557319.537, 148.248], [201142.933, 557318.883, 148.198], [201142.71, 557318.23, 148.3], [201143.0, 557318.11, 148.3], [201143.0, 557317.555, 148.328], [201143.0, 557317.0, 148.5], [201143.877, 557317.0, 148.4], [201144.753, 557317.0, 148.936], [201145.63, 557317.0, 149.7], [201146.473, 557316.647, 149.255], [201147.315, 557316.295, 149.349], [201148.158, 557315.943, 149.997], [201149.0, 557315.59, 150.7], [201149.0, 557315.0, 150.0], [201149.7, 557315.0, 150.251], [201150.4, 557315.0, 150.6], [201151.0, 557314.75, 150.6], [201151.0, 557313.792, 150.121], [201151.0, 557312.833, 149.494], [201151.0, 557311.875, 148.994], [201151.0, 557310.917, 148.714], [201151.0, 557309.958, 148.683], [201151.0, 557309.0, 148.8], [201150.0, 557309.0, 148.625], [201149.0, 557309.0, 148.6], [201149.0, 557308.0, 148.545], [201149.0, 557307.0, 148.6], [201150.0, 557307.0, 148.611], [201151.0, 557307.0, 148.8], [201151.0, 557306.0, 148.663], [201151.0, 557305.0, 148.8], [201150.0, 557305.0, 148.621], [201149.0, 557305.0, 148.7], [201149.0, 557304.0, 148.52], [201149.0, 557303.0, 148.406], [201149.0, 557302.0, 148.55], [201149.0, 557301.0, 148.8], [201148.0, 557301.0, 148.586], [201147.0, 557301.0, 148.7], [201147.0, 557300.0, 148.541], [201147.0, 557299.0, 148.7], [201146.0, 557299.0, 148.428], [201145.0, 557299.0, 148.194], [201144.0, 557299.0, 148.362], [201143.0, 557299.0, 148.7], [201143.0, 557300.0, 148.441], [201143.0, 557301.0, 148.7], [201142.0, 557301.0, 148.242], [201141.0, 557301.0, 147.47], [201140.0, 557301.0, 146.603], [201139.0, 557301.0, 145.652], [201138.0, 557301.0, 144.617], [201137.0, 557301.0, 143.486], [201136.0, 557301.0, 142.241], [201135.0, 557301.0, 140.873], [201134.0, 557301.0, 139.395], [201133.0, 557301.0, 137.869], [201132.0, 557301.0, 136.399], [201131.0, 557301.0, 135.5], [201131.0, 557300.0, 135.985], [201131.0, 557299.0, 135.5], [201130.23, 557299.0, 135.869], [201129.46, 557299.0, 135.652], [201128.69, 557299.0, 135.1], [201128.38, 557299.884, 135.871], [201128.07, 557300.768, 136.826], [201127.76, 557301.652, 137.18], [201127.45, 557302.536, 136.697], [201127.14, 557303.42, 136.1], [201126.475, 557304.042, 136.791], [201125.81, 557304.663, 137.979], [201125.145, 557305.285, 138.8], [201124.48, 557305.907, 139.121], [201123.815, 557306.528, 139.04], [201123.15, 557307.15, 138.9], [201122.33, 557307.52, 139.044], [201121.51, 557307.89, 139.18], [201120.69, 557308.26, 139.046], [201119.87, 557308.63, 138.635], [201119.05, 557309.0, 138.083], [201118.23, 557309.37, 137.8], [201117.328, 557309.485, 137.958], [201116.427, 557309.6, 137.926], [201115.525, 557309.715, 137.473], [201114.623, 557309.83, 136.689], [201113.722, 557309.945, 135.696], [201112.82, 557310.06, 135.1], [201112.027, 557309.795, 135.46], [201111.235, 557309.53, 135.54], [201110.443, 557309.265, 135.1], [201109.65, 557309.0, 134.8], [201108.767, 557309.0, 134.705], [201107.883, 557309.0, 134.095], [201107.0, 557309.0, 133.6], [201107.0, 557308.12, 133.6], [201106.93, 557308.1, 133.6], [201106.25, 557307.55, 133.802], [201105.57, 557307.0, 133.6], [201104.713, 557307.0, 133.661], [201103.857, 557307.0, 133.036], [201103.0, 557307.0, 132.1], [201103.0, 557306.0, 132.717], [201103.0, 557305.0, 132.1], [201102.0, 557305.0, 132.376], [201101.0, 557305.0, 131.3], [201101.0, 557305.802, 132.259], [201101.0, 557306.605, 133.06], [201101.0, 557307.407, 133.121], [201101.0, 557308.21, 132.8], [201101.37, 557309.0, 132.8], [201102.185, 557309.0, 133.203], [201103.0, 557309.0, 132.8], [201103.0, 557309.855, 133.696], [201103.0, 557310.71, 134.725], [201103.0, 557311.565, 135.298], [201103.0, 557312.42, 135.2], [201103.28, 557313.0, 135.2], [201104.14, 557313.0, 135.709], [201105.0, 557313.0, 135.2], [201105.0, 557314.0, 136.722], [201105.0, 557315.0, 137.4], [201104.09, 557315.0, 138.7], [201103.545, 557315.27, 138.332], [201103.0, 557315.54, 138.7], [201103.0, 557316.27, 138.468], [201103.0, 557317.0, 138.7], [201102.01, 557317.0, 138.549], [201101.02, 557317.0, 139.1], [201100.03, 557317.0, 139.9], [201099.515, 557317.25, 139.747], [201099.0, 557317.5, 139.9], [201099.0, 557318.472, 139.529], [201099.0, 557319.444, 139.255], [201099.0, 557320.417, 139.229], [201099.0, 557321.389, 139.364], [201099.0, 557322.361, 139.594], [201099.0, 557323.333, 139.874], [201099.0, 557324.306, 140.175], [201099.0, 557325.278, 140.476], [201099.0, 557326.25, 140.759], [201099.0, 557327.222, 141.01], [201099.0, 557328.194, 141.219], [201099.0, 557329.167, 141.375], [201099.0, 557330.139, 141.471], [201099.0, 557331.111, 141.507], [201099.0, 557332.083, 141.519], [201099.0, 557333.056, 141.598], [201099.0, 557334.028, 141.747], [201099.0, 557335.0, 141.8]]}}, {"type": "Feature", "properties": {"id": "CLIP-SF-ENJU2-UPPER", "type": "terrain_clip", "kind": "clip", "estimated": true, "assumption": "SF-ENJU2-UPPER 경계 안 렌더 지형을 잘라 보정 면만 보이게 함(표시 전용, DEM 파일·운영 DB 불변)", "source": "field-surfaces-v3.geojson SF-ENJU2-UPPER 경계(S-MAP 메시)"}, "geometry": {"type": "Polygon", "coordinates": [[[201110.0, 557186.0], [201118.0, 557170.0], [201142.0, 557130.0], [201150.0, 557122.0], [201168.0, 557122.0], [201178.0, 557130.0], [201186.0, 557138.0], [201186.0, 557142.0], [201168.0, 557164.0], [201134.0, 557196.0], [201130.0, 557198.0], [201126.0, 557198.0], [201120.0, 557196.0], [201110.0, 557190.0], [201110.0, 557186.0]]]}}, {"type": "Feature", "properties": {"id": "SKIRT-SF-ENJU2-UPPER", "type": "skirt", "kind": "skirt", "estimated": true, "otherZ": [111.001, 117.359, 120.759, 121.189, 121.233, 121.001, 119.028, 115.219, 112.301, 111.351, 114.619, 117.929, 120.186, 121.213, 121.249, 120.296, 118.414, 116.966, 116.51, 115.994, 114.391, 112.442, 111.632, 111.665, 111.696, 111.731, 116.056, 120.593, 121.817, 121.844, 121.869, 121.892, 121.918, 121.941, 121.962, 121.584, 120.037, 117.702, 117.037, 117.053, 117.068, 117.082, 117.095, 117.107, 116.915, 114.942, 113.942, 118.294, 121.487, 122.322, 122.341, 122.343, 122.307, 122.271, 122.262, 122.262, 121.665, 119.41, 117.262, 117.261, 117.261, 117.26, 117.259, 117.258, 117.257, 117.256, 115.589, 113.921, 112.254, 112.253, 112.252, 112.251, 115.048, 116.733, 117.305, 117.857, 119.48, 122.176, 127.165, 132.154, 132.157, 132.159, 132.185, 132.212, 132.22, 132.228, 132.218, 132.208, 132.207, 132.207, 132.206, 132.205, 132.204, 132.203, 132.201, 132.2, 132.098, 131.998, 131.879, 131.779, 131.726, 131.622, 131.414, 131.234, 131.131, 131.249, 130.816, 130.227, 129.695, 129.984, 129.982, 129.69, 130.235, 130.224, 129.658, 130.488, 131.318, 132.149, 132.978, 133.808, 134.638, 134.638, 134.638, 137.138, 139.637, 138.68, 138.907, 140.337, 141.054, 141.401, 141.479, 142.095, 142.315, 142.182, 143.24, 142.586, 141.75, 142.096, 142.916, 142.993, 142.626, 142.979, 142.883, 142.671, 142.879, 142.739, 142.684, 142.801, 142.703, 142.687, 142.764, 142.69, 142.681, 142.767, 142.618, 142.456, 142.327, 142.408, 142.455, 142.494, 142.538, 142.512, 142.507, 142.54, 142.504, 142.518, 142.54, 142.501, 142.526, 142.537, 142.5, 142.532, 142.533, 142.499, 142.547, 142.589, 142.669, 142.765, 142.785, 142.73, 142.695, 142.617, 142.46, 142.307, 142.235, 142.164, 142.123, 142.141, 142.097, 142.062, 142.083, 142.034, 142.017, 142.019, 141.955, 141.949, 141.931, 141.844, 141.864, 141.846, 141.758, 141.657, 141.577, 141.573, 141.616, 141.637, 141.747, 141.858, 141.766, 141.675, 142.408, 142.275, 140.12, 137.24, 134.361, 131.485, 128.608, 128.81, 129.444, 130.225, 130.536, 130.555, 130.634, 130.683, 130.685, 130.678, 130.677, 130.678, 130.676, 123.33, 115.983, 113.492, 111.001], "assumption": "경계선 ≤1 m 간격마다 표면 z와 DEM(쌍선형) z 사이 세로 면 — 실제 사면·옹벽 형상 미측정, 틈 메움용", "source": "field-surfaces-v3.geojson SF-ENJU2-UPPER z(S-MAP) + DEM 스냅샷 terrain-grid.f32"}, "geometry": {"type": "LineString", "coordinates": [[201110.0, 557186.0, 132.1], [201110.444, 557185.111, 132.1], [201110.889, 557184.222, 132.1], [201111.333, 557183.333, 132.1], [201111.778, 557182.444, 132.1], [201112.222, 557181.556, 132.1], [201112.667, 557180.667, 132.1], [201113.111, 557179.778, 132.1], [201113.556, 557178.889, 132.1], [201114.0, 557178.0, 132.1], [201114.444, 557177.111, 132.1], [201114.889, 557176.222, 132.1], [201115.333, 557175.333, 132.1], [201115.778, 557174.444, 132.1], [201116.222, 557173.556, 132.1], [201116.667, 557172.667, 132.1], [201117.111, 557171.778, 132.1], [201117.556, 557170.889, 132.1], [201118.0, 557170.0, 132.1], [201118.511, 557169.149, 132.1], [201119.021, 557168.298, 132.1], [201119.532, 557167.447, 132.1], [201120.043, 557166.596, 132.1], [201120.553, 557165.745, 132.1], [201121.064, 557164.894, 132.1], [201121.574, 557164.043, 132.1], [201122.085, 557163.191, 132.1], [201122.596, 557162.34, 132.1], [201123.106, 557161.489, 132.1], [201123.617, 557160.638, 132.1], [201124.128, 557159.787, 132.1], [201124.638, 557158.936, 132.1], [201125.149, 557158.085, 132.1], [201125.66, 557157.234, 132.1], [201126.17, 557156.383, 132.1], [201126.681, 557155.532, 132.1], [201127.191, 557154.681, 132.1], [201127.702, 557153.83, 132.1], [201128.213, 557152.979, 132.1], [201128.723, 557152.128, 132.1], [201129.234, 557151.277, 132.1], [201129.745, 557150.426, 132.1], [201130.255, 557149.574, 132.1], [201130.766, 557148.723, 132.1], [201131.277, 557147.872, 132.1], [201131.787, 557147.021, 132.1], [201132.298, 557146.17, 132.1], [201132.809, 557145.319, 132.1], [201133.319, 557144.468, 132.1], [201133.83, 557143.617, 132.1], [201134.34, 557142.766, 132.1], [201134.851, 557141.915, 132.1], [201135.362, 557141.064, 132.1], [201135.872, 557140.213, 132.1], [201136.383, 557139.362, 132.1], [201136.894, 557138.511, 132.1], [201137.404, 557137.66, 132.1], [201137.915, 557136.809, 132.1], [201138.426, 557135.957, 132.1], [201138.936, 557135.106, 132.1], [201139.447, 557134.255, 132.1], [201139.957, 557133.404, 132.1], [201140.468, 557132.553, 132.1], [201140.979, 557131.702, 132.1], [201141.489, 557130.851, 132.1], [201142.0, 557130.0, 132.1], [201142.667, 557129.333, 132.1], [201143.333, 557128.667, 132.1], [201144.0, 557128.0, 132.1], [201144.667, 557127.333, 132.1], [201145.333, 557126.667, 132.1], [201146.0, 557126.0, 132.1], [201146.667, 557125.333, 132.1], [201147.333, 557124.667, 132.1], [201148.0, 557124.0, 132.1], [201148.667, 557123.333, 132.1], [201149.333, 557122.667, 132.1], [201150.0, 557122.0, 132.1], [201151.0, 557122.0, 132.1], [201152.0, 557122.0, 132.1], [201153.0, 557122.0, 132.1], [201154.0, 557122.0, 132.1], [201155.0, 557122.0, 132.1], [201156.0, 557122.0, 132.1], [201157.0, 557122.0, 132.1], [201158.0, 557122.0, 132.1], [201159.0, 557122.0, 132.1], [201160.0, 557122.0, 132.1], [201161.0, 557122.0, 132.1], [201162.0, 557122.0, 132.1], [201163.0, 557122.0, 132.1], [201164.0, 557122.0, 132.1], [201165.0, 557122.0, 132.1], [201166.0, 557122.0, 132.1], [201167.0, 557122.0, 132.1], [201168.0, 557122.0, 132.1], [201168.769, 557122.615, 132.1], [201169.538, 557123.231, 132.1], [201170.308, 557123.846, 132.1], [201171.077, 557124.462, 132.1], [201171.846, 557125.077, 132.1], [201172.615, 557125.692, 132.1], [201173.385, 557126.308, 132.1], [201174.154, 557126.923, 132.1], [201174.923, 557127.538, 132.1], [201175.692, 557128.154, 132.1], [201176.462, 557128.769, 132.1], [201177.231, 557129.385, 132.1], [201178.0, 557130.0, 132.1], [201178.667, 557130.667, 132.1], [201179.333, 557131.333, 132.1], [201180.0, 557132.0, 132.1], [201180.667, 557132.667, 132.1], [201181.333, 557133.333, 132.1], [201182.0, 557134.0, 132.1], [201182.667, 557134.667, 132.1], [201183.333, 557135.333, 132.1], [201184.0, 557136.0, 132.1], [201184.667, 557136.667, 132.1], [201185.333, 557137.333, 132.1], [201186.0, 557138.0, 132.1], [201186.0, 557139.0, 132.1], [201186.0, 557140.0, 132.1], [201186.0, 557141.0, 132.1], [201186.0, 557142.0, 132.1], [201185.379, 557142.759, 132.1], [201184.759, 557143.517, 132.1], [201184.138, 557144.276, 132.1], [201183.517, 557145.034, 132.1], [201182.897, 557145.793, 132.1], [201182.276, 557146.552, 132.1], [201181.655, 557147.31, 132.1], [201181.034, 557148.069, 132.1], [201180.414, 557148.828, 132.1], [201179.793, 557149.586, 132.1], [201179.172, 557150.345, 132.1], [201178.552, 557151.103, 132.1], [201177.931, 557151.862, 132.1], [201177.31, 557152.621, 132.1], [201176.69, 557153.379, 132.1], [201176.069, 557154.138, 132.1], [201175.448, 557154.897, 132.1], [201174.828, 557155.655, 132.1], [201174.207, 557156.414, 132.1], [201173.586, 557157.172, 132.1], [201172.966, 557157.931, 132.1], [201172.345, 557158.69, 132.1], [201171.724, 557159.448, 132.1], [201171.103, 557160.207, 132.1], [201170.483, 557160.966, 132.1], [201169.862, 557161.724, 132.1], [201169.241, 557162.483, 132.1], [201168.621, 557163.241, 132.1], [201168.0, 557164.0, 132.1], [201167.277, 557164.681, 132.1], [201166.553, 557165.362, 132.1], [201165.83, 557166.043, 132.1], [201165.106, 557166.723, 132.1], [201164.383, 557167.404, 132.1], [201163.66, 557168.085, 132.1], [201162.936, 557168.766, 132.1], [201162.213, 557169.447, 132.1], [201161.489, 557170.128, 132.1], [201160.766, 557170.809, 132.1], [201160.043, 557171.489, 132.1], [201159.319, 557172.17, 132.1], [201158.596, 557172.851, 132.1], [201157.872, 557173.532, 132.1], [201157.149, 557174.213, 132.1], [201156.426, 557174.894, 132.1], [201155.702, 557175.574, 132.1], [201154.979, 557176.255, 132.1], [201154.255, 557176.936, 132.1], [201153.532, 557177.617, 132.1], [201152.809, 557178.298, 132.1], [201152.085, 557178.979, 132.1], [201151.362, 557179.66, 132.1], [201150.638, 557180.34, 132.1], [201149.915, 557181.021, 132.1], [201149.191, 557181.702, 132.1], [201148.468, 557182.383, 132.1], [201147.745, 557183.064, 132.1], [201147.021, 557183.745, 132.1], [201146.298, 557184.426, 132.1], [201145.574, 557185.106, 132.1], [201144.851, 557185.787, 132.1], [201144.128, 557186.468, 132.1], [201143.404, 557187.149, 132.1], [201142.681, 557187.83, 132.1], [201141.957, 557188.511, 132.1], [201141.234, 557189.191, 132.1], [201140.511, 557189.872, 132.1], [201139.787, 557190.553, 132.1], [201139.064, 557191.234, 132.1], [201138.34, 557191.915, 132.1], [201137.617, 557192.596, 132.1], [201136.894, 557193.277, 132.1], [201136.17, 557193.957, 132.1], [201135.447, 557194.638, 132.1], [201134.723, 557195.319, 132.1], [201134.0, 557196.0, 132.1], [201133.2, 557196.4, 132.1], [201132.4, 557196.8, 132.1], [201131.6, 557197.2, 132.1], [201130.8, 557197.6, 132.1], [201130.0, 557198.0, 132.1], [201129.0, 557198.0, 132.1], [201128.0, 557198.0, 132.1], [201127.0, 557198.0, 132.1], [201126.0, 557198.0, 132.1], [201125.143, 557197.714, 132.1], [201124.286, 557197.429, 132.1], [201123.429, 557197.143, 132.1], [201122.571, 557196.857, 132.1], [201121.714, 557196.571, 132.1], [201120.857, 557196.286, 132.1], [201120.0, 557196.0, 132.1], [201119.167, 557195.5, 132.1], [201118.333, 557195.0, 132.1], [201117.5, 557194.5, 132.1], [201116.667, 557194.0, 132.1], [201115.833, 557193.5, 132.1], [201115.0, 557193.0, 132.1], [201114.167, 557192.5, 132.1], [201113.333, 557192.0, 132.1], [201112.5, 557191.5, 132.1], [201111.667, 557191.0, 132.1], [201110.833, 557190.5, 132.1], [201110.0, 557190.0, 132.1], [201110.0, 557189.0, 132.1], [201110.0, 557188.0, 132.1], [201110.0, 557187.0, 132.1], [201110.0, 557186.0, 132.1]]}}, {"type": "Feature", "properties": {"id": "CLIP-SF-ENJU2-LOWER-0", "type": "terrain_clip", "kind": "clip", "estimated": true, "assumption": "SF-ENJU2-LOWER-0 경계 안 렌더 지형을 잘라 보정 면만 보이게 함(표시 전용, DEM 파일·운영 DB 불변)", "source": "field-surfaces-v3.geojson SF-ENJU2-LOWER-0 경계(S-MAP 메시)"}, "geometry": {"type": "Polygon", "coordinates": [[[201096.0, 557170.0], [201098.0, 557164.0], [201104.0, 557160.0], [201106.0, 557160.0], [201106.0, 557166.0], [201098.0, 557188.0], [201096.0, 557190.0], [201096.0, 557170.0]]]}}, {"type": "Feature", "properties": {"id": "SKIRT-SF-ENJU2-LOWER-0", "type": "skirt", "kind": "skirt", "estimated": true, "otherZ": [110.761, 110.847, 110.914, 110.96, 111.008, 111.059, 111.108, 111.158, 111.178, 111.199, 111.22, 111.243, 111.267, 111.291, 111.317, 111.343, 111.366, 111.389, 111.369, 111.348, 111.328, 111.309, 111.29, 111.27, 111.247, 111.223, 110.732, 110.484, 110.129, 109.248, 108.96, 109.368, 109.659, 109.243, 108.638, 108.519, 108.919, 108.98, 108.638, 109.86, 112.089, 113.444, 113.293, 113.657, 114.133, 114.169, 113.751, 113.332, 113.886, 113.885, 113.328, 113.329, 113.33, 114.581, 115.832, 115.834, 115.836, 113.353, 110.871, 110.457, 110.043, 109.247, 108.452, 109.113, 109.774, 110.022, 110.27, 110.405, 110.541, 110.651, 110.761], "assumption": "경계선 ≤1 m 간격마다 표면 z와 DEM(쌍선형) z 사이 세로 면 — 실제 사면·옹벽 형상 미측정, 틈 메움용", "source": "field-surfaces-v3.geojson SF-ENJU2-LOWER-0 z(S-MAP) + DEM 스냅샷 terrain-grid.f32"}, "geometry": {"type": "LineString", "coordinates": [[201096.0, 557170.0, 109.1], [201096.286, 557169.143, 109.1], [201096.571, 557168.286, 109.1], [201096.857, 557167.429, 109.1], [201097.143, 557166.571, 109.1], [201097.429, 557165.714, 109.1], [201097.714, 557164.857, 109.1], [201098.0, 557164.0, 109.1], [201098.75, 557163.5, 109.1], [201099.5, 557163.0, 109.1], [201100.25, 557162.5, 109.1], [201101.0, 557162.0, 109.1], [201101.75, 557161.5, 109.1], [201102.5, 557161.0, 109.1], [201103.25, 557160.5, 109.1], [201104.0, 557160.0, 109.1], [201105.0, 557160.0, 109.1], [201106.0, 557160.0, 109.1], [201106.0, 557161.0, 109.1], [201106.0, 557162.0, 109.1], [201106.0, 557163.0, 109.1], [201106.0, 557164.0, 109.1], [201106.0, 557165.0, 109.1], [201106.0, 557166.0, 109.1], [201105.667, 557166.917, 109.1], [201105.333, 557167.833, 109.1], [201105.0, 557168.75, 109.1], [201104.667, 557169.667, 109.1], [201104.333, 557170.583, 109.1], [201104.0, 557171.5, 109.1], [201103.667, 557172.417, 109.1], [201103.333, 557173.333, 109.1], [201103.0, 557174.25, 109.1], [201102.667, 557175.167, 109.1], [201102.333, 557176.083, 109.1], [201102.0, 557177.0, 109.1], [201101.667, 557177.917, 109.1], [201101.333, 557178.833, 109.1], [201101.0, 557179.75, 109.1], [201100.667, 557180.667, 109.1], [201100.333, 557181.583, 109.1], [201100.0, 557182.5, 109.1], [201099.667, 557183.417, 109.1], [201099.333, 557184.333, 109.1], [201099.0, 557185.25, 109.1], [201098.667, 557186.167, 109.1], [201098.333, 557187.083, 109.1], [201098.0, 557188.0, 109.1], [201097.333, 557188.667, 109.1], [201096.667, 557189.333, 109.1], [201096.0, 557190.0, 109.1], [201096.0, 557189.0, 109.1], [201096.0, 557188.0, 109.1], [201096.0, 557187.0, 109.1], [201096.0, 557186.0, 109.1], [201096.0, 557185.0, 109.1], [201096.0, 557184.0, 109.1], [201096.0, 557183.0, 109.1], [201096.0, 557182.0, 109.1], [201096.0, 557181.0, 109.1], [201096.0, 557180.0, 109.1], [201096.0, 557179.0, 109.1], [201096.0, 557178.0, 109.1], [201096.0, 557177.0, 109.1], [201096.0, 557176.0, 109.1], [201096.0, 557175.0, 109.1], [201096.0, 557174.0, 109.1], [201096.0, 557173.0, 109.1], [201096.0, 557172.0, 109.1], [201096.0, 557171.0, 109.1], [201096.0, 557170.0, 109.1]]}}, {"type": "Feature", "properties": {"id": "CLIP-SF-ENJU2-LOWER-1", "type": "terrain_clip", "kind": "clip", "estimated": true, "assumption": "SF-ENJU2-LOWER-1 경계 안 렌더 지형을 잘라 보정 면만 보이게 함(표시 전용, DEM 파일·운영 DB 불변)", "source": "field-surfaces-v3.geojson SF-ENJU2-LOWER-1 경계(S-MAP 메시)"}, "geometry": {"type": "Polygon", "coordinates": [[[201156.0, 557092.0], [201158.0, 557090.0], [201162.0, 557090.0], [201162.0, 557094.0], [201158.0, 557094.0], [201156.0, 557092.0]]]}}, {"type": "Feature", "properties": {"id": "SKIRT-SF-ENJU2-LOWER-1", "type": "skirt", "kind": "skirt", "estimated": true, "otherZ": [109.534, 110.097, 110.758, 111.518, 110.486, 109.453, 109.456, 109.459, 112.002, 114.544, 119.55, 124.556, 119.554, 114.553, 112.052, 109.55, 110.005, 110.0, 109.534], "assumption": "경계선 ≤1 m 간격마다 표면 z와 DEM(쌍선형) z 사이 세로 면 — 실제 사면·옹벽 형상 미측정, 틈 메움용", "source": "field-surfaces-v3.geojson SF-ENJU2-LOWER-1 z(S-MAP) + DEM 스냅샷 terrain-grid.f32"}, "geometry": {"type": "LineString", "coordinates": [[201156.0, 557092.0, 110.1], [201156.667, 557091.333, 110.1], [201157.333, 557090.667, 110.1], [201158.0, 557090.0, 110.1], [201159.0, 557090.0, 110.1], [201160.0, 557090.0, 110.1], [201161.0, 557090.0, 110.1], [201162.0, 557090.0, 110.1], [201162.0, 557091.0, 110.1], [201162.0, 557092.0, 110.1], [201162.0, 557093.0, 110.1], [201162.0, 557094.0, 110.1], [201161.0, 557094.0, 110.1], [201160.0, 557094.0, 110.1], [201159.0, 557094.0, 110.1], [201158.0, 557094.0, 110.1], [201157.333, 557093.333, 110.1], [201156.667, 557092.667, 110.1], [201156.0, 557092.0, 110.1]]}}]}