{
 "type": "FeatureCollection",
 "crs": {
  "type": "name",
  "properties": {
   "name": "urn:ogc:def:crs:EPSG::5186"
  }
 },
 "features": [
  {
   "type": "Feature",
   "properties": {
    "id": "AP-DAEIL-FRONT",
    "name": "대일관 현관 앞 계단 아래 (= 사잇길 쪽 길 45682ee7이 닿는 곳)",
    "node": "561a12b4",
    "leadsTo": "계단 13단쯤 → 대일관 1층 로비(151.0 m 추정). 서쪽 길 45682ee7 → 사잇길",
    "grade": "위치 추정(운영 노드 자리, 길 이름에 \"추정\") / 높이 측정(E06, E07의 이동값 148.958)",
    "note": "운영 노드 재사용. 저장 높이 141.73 m라 D04(지형+도로 이동) 뒤에만 접근점이 된다. 학교 표지 대일관 입구(1) (201155.2, 557310.0)에서 8.9 m 남쪽. S-MAP 1 m 격자에서 땅이 오르기 시작하는 곳은 노드에서 4.9 m 북쪽(면 경계 201157.4, 557306.2)",
    "stair": {
     "lowerXY": [
      201157.4,
      557306.2
     ],
     "lowerM": 148.9,
     "upperXY": [
      201155.2,
      557310
     ],
     "upperM": 151,
     "risers": "13단(건물 노트: 사진에서 센 값 ±1)",
     "grade": "아래 끝 = S-MAP 지면이 148.9에서 오르기 시작하는 면 경계(추정 ±2 m) / 위 끝 = 학교 표지 대일관 입구(1)(원천) / 1층 151.0 m = 148.9 + 13단 약 2.1 m(추정 ±0.3)",
     "lengthM": 4.4
    },
    "placed": true,
    "insideArea": true,
    "distanceToBoundaryM": 2.4,
    "side": "북",
    "terrainOldM": 141.97,
    "terrainFieldCandidateM": 148.92,
    "markerXY": [
     201157.33,
     557301.3
    ],
    "elevationM": 148.9
   },
   "geometry": {
    "type": "Point",
    "coordinates": [
     201157.33,
     557301.3
    ]
   }
  },
  {
   "type": "Feature",
   "properties": {
    "id": "AP-SANGSEUNG-STAIR-L",
    "name": "상승관으로 올라가는 왼쪽 계단 아래 (사용자 그림. 2차 주석 A2 = 대일관 화단 벽 동쪽 끝 계단과 같은 곳으로 봄)",
    "leadsTo": "화단 사이 단 → 상승관 입구(학교 표지 150.9 m, S-MAP), 대일관 입구(2) 1층 복도 151.7 m, 안쪽 마당 153.1 m",
    "grade": "확정(사용자: 운동장에서 좌우 두 계단 중 하나로 올라간다) / 위치 추정 ±3 m(사용자 그림을 카카오 항공사진에 맞춤, 맞춤 오차 0.07 m, 항공사진 자체의 어긋남은 확인 못 함)",
    "note": "운영 노드 없음. 옛 제안 A2 (201207.5, 557288.4)에서 2.4 m",
    "stair": {
     "lowerXY": [
      201204.98,
      557287.4
     ],
     "lowerM": 148.9,
     "upperXY": [
      201205.4,
      557294.5
     ],
     "upperM": 150.9,
     "risers": "모름",
     "grade": "아래·위 끝 = 사용자 그림의 계단 뭉치 양 끝(추정 ±3 m) / 위 높이 150.9 m = 4.9 m 서쪽 학교 입구 표지 자리의 S-MAP 값(추정. 위 끝 옆 지면은 151.0~151.2 m)",
     "lengthM": 7.1
    },
    "placed": true,
    "insideArea": false,
    "distanceToBoundaryM": 2.1,
    "side": "북",
    "terrainOldM": 141.56,
    "terrainFieldCandidateM": 148.95,
    "markerXY": [
     201205.4,
     557289.5
    ],
    "elevationM": 148.9
   },
   "geometry": {
    "type": "Point",
    "coordinates": [
     201204.98,
     557287.4
    ]
   }
  },
  {
   "type": "Feature",
   "properties": {
    "id": "AP-SANGSEUNG-STAIR-R",
    "name": "상승관으로 올라가는 오른쪽 계단 아래 (사용자 그림, 청운관 서쪽 벽 쪽)",
    "leadsTo": "화단 사이 단 → 안쪽 마당 153.1 m(S-MAP) → 상승관",
    "grade": "확정(사용자: 좌우 두 계단) / 위치 추정 ±4 m: 그림의 뭉치(201210.7~201213.9, 557290.2~557294.2)는 계단 위쪽에 그려져 있어, 운동장에 닿는 끝은 S-MAP에서 청운관 서쪽 벽을 따라 153.0 → 149.0 m로 내려오는 비탈(S-MAP x 201211~201213, 항공사진의 포장 띠 x 201215.5~201217)의 아래 끝으로 잡았다",
    "note": "운영 노드 없음. 청운관 1층 입구 표지에서 4 m 안팎이라 같은 문 앞일 수 있다(추정)",
    "stair": {
     "lowerXY": [
      201212.6,
      557280.2
     ],
     "lowerM": 148.9,
     "upperXY": [
      201210.8,
      557294.2
     ],
     "upperM": [
      152,
      153.1
     ],
     "risers": "모름",
     "grade": "아래 끝 = S-MAP 비탈의 아래 끝(추정 ±4 m) / 위 끝 = 사용자 그림의 뭉치 위 끝(추정 ±3 m) / 위 높이 = 그 자리 S-MAP 지면 152.0 m ~ 안쪽 마당 153.1 m(S-MAP 면이 뭉개져 단 높이는 추정)",
     "lengthM": 14.1
    },
    "placed": true,
    "insideArea": false,
    "distanceToBoundaryM": 3.1,
    "side": "북",
    "terrainOldM": 142.94,
    "terrainFieldCandidateM": 148.61,
    "markerXY": [
     201214,
     557283
    ],
    "elevationM": 148.9
   },
   "geometry": {
    "type": "Point",
    "coordinates": [
     201212.6,
     557280.2
    ]
   }
  },
  {
   "type": "Feature",
   "properties": {
    "id": "AP-CHEONGUN-1F",
    "name": "청운관 1층 입구",
    "leadsTo": "청운관 1층(148.9 m)",
    "grade": "원천(학교 표지: 위치·층) / 측정(높이). 문의 정확한 자리는 모름(현장 요청 F5 ①)",
    "note": "운영 노드 없음. 가까운 62a3ac5d(150.8 m)는 높이가 달라 같은 점으로 보지 않는다",
    "placed": true,
    "insideArea": false,
    "distanceToBoundaryM": 1.4,
    "side": "동",
    "terrainOldM": 145.95,
    "terrainFieldCandidateM": 149.7,
    "markerXY": [
     201216.5,
     557279.8
    ],
    "elevationM": 148.9
   },
   "geometry": {
    "type": "Point",
    "coordinates": [
     201215.88,
     557278.56
    ]
   }
  },
  {
   "type": "Feature",
   "properties": {
    "id": "AP-HYEIN-B1",
    "name": "혜인관 입구(1): 운동장 높이 문 = B1, 오른쪽 계단 위가 1층 로비",
    "leadsTo": "혜인관 B1(149.3 m, S-MAP) → 계단 → 1층 로비(153.4 m 추정)",
    "grade": "원천(학교 표지: 위치) / 확정(사용자: 운동장 높이 문 = B1) / S-MAP(높이)",
    "note": "운영 길 3910b4a5가 5.0 m 서쪽 (201213.72, 557213.9)을 지나 B1 노드 435187c0(150.26 m)로 간다. 그 꼭짓점에서 길을 자르면 생기는 노드를 접근점으로 쓴다(제안)",
    "placed": true,
    "insideArea": false,
    "distanceToBoundaryM": 2.6,
    "side": "동",
    "terrainOldM": 149.48,
    "terrainFieldCandidateM": 148.85,
    "markerXY": [
     201218.7,
     557213.7
    ],
    "elevationM": 148.9
   },
   "geometry": {
    "type": "Point",
    "coordinates": [
     201217.27,
     557215.85
    ]
   }
  },
  {
   "type": "Feature",
   "properties": {
    "id": "AP-HYEIN-B1-2",
    "name": "혜인관 입구(2) B1층",
    "leadsTo": "혜인관 B1(149.6 m, S-MAP)",
    "grade": "원천(학교 표지: 위치·층) / S-MAP(높이)",
    "note": "운영 노드 없음",
    "placed": true,
    "insideArea": false,
    "distanceToBoundaryM": 7.5,
    "side": "동",
    "terrainOldM": 150.56,
    "terrainFieldCandidateM": 148.94,
    "markerXY": [
     201247.7,
     557255.8
    ],
    "elevationM": 148.9
   },
   "geometry": {
    "type": "Point",
    "coordinates": [
     201240.34,
     557257.03
    ]
   }
  },
  {
   "type": "Feature",
   "properties": {
    "id": "AP-EUNJU1-5F",
    "name": "은주1관 입구(2) 5층",
    "leadsTo": "은주1관 5층(148.9 m)",
    "grade": "원천(학교 표지: 위치·층) / 확정(사용자: 운동장에서 바로 들어가는 문 = 5층) / 측정(높이)",
    "note": "운영 노드 없음. 은주관 실내 길 0개",
    "placed": true,
    "insideArea": false,
    "distanceToBoundaryM": 0.5,
    "side": "서",
    "terrainOldM": 141.8,
    "terrainFieldCandidateM": 148.93,
    "markerXY": [
     201135.8,
     557250.2
    ],
    "elevationM": 148.9
   },
   "geometry": {
    "type": "Point",
    "coordinates": [
     201136.09,
     557249.82
    ]
   }
  },
  {
   "type": "Feature",
   "properties": {
    "id": "AP-EUNJU2-5F",
    "name": "은주2관 입구(2) 5층",
    "leadsTo": "은주2관 5층(148.9 m)",
    "grade": "원천(학교 표지: 위치·층) / 확정(사용자) / 측정(높이)",
    "note": "운영 노드 없음",
    "placed": true,
    "insideArea": false,
    "distanceToBoundaryM": 8.2,
    "side": "남",
    "terrainOldM": 142.03,
    "terrainFieldCandidateM": 148.94,
    "markerXY": [
     201201.8,
     557168.3
    ],
    "elevationM": 148.9
   },
   "geometry": {
    "type": "Point",
    "coordinates": [
     201197,
     557175
    ]
   }
  },
  {
   "type": "Feature",
   "properties": {
    "id": "AP-HANLIM-6F",
    "name": "한림관 6층에서 올라오는 계단 6칸쯤의 위 끝 (한림관·은주1관 모퉁이, 운동장 쪽)",
    "leadsTo": "계단 6칸쯤 아래 → 한림관 6층(147.9 m)·은주1관 5층 연결통로",
    "grade": "확정(사용자: 6층에서 계단 6칸쯤을 올라와 운동장 높이 길, 위 끝은 운동장 쪽) / 위치 추정 ±3 m(S-MAP 1 m 격자: 은주1관 북쪽 끝 바로 북쪽에 147.0~148.0 m 자리, x 201150부터 148.9 m)",
    "note": "운영 노드 없음. S-MAP 면에는 한림관으로 건너가는 통로가 없다(x 201128~201136에서 땅이 132~146 m로 꺼짐). 학교 표지 한림관–은주관 연결통로 (201131.7, 557297.5)에서 17.5 m",
    "stair": {
     "lowerXY": [
      201140,
      557304
     ],
     "lowerM": 147.9,
     "upperXY": [
      201149,
      557304
     ],
     "upperM": 148.9,
     "risers": "6칸쯤(사용자)",
     "grade": "높이차 약 1 m 확정(사용자) / 아래 끝 = S-MAP 147.6~148.1 m 칸의 가운데(추정 ±3 m). S-MAP은 1 m 계단을 9 m 비탈로 뭉갠다",
     "lengthM": 9
    },
    "placed": true,
    "insideArea": false,
    "distanceToBoundaryM": 1,
    "side": "북",
    "terrainOldM": 142.15,
    "terrainFieldCandidateM": 148.79,
    "markerXY": [
     201148,
     557304
    ],
    "elevationM": 148.9
   },
   "geometry": {
    "type": "Point",
    "coordinates": [
     201149,
     557304
    ]
   }
  }
 ]
}