{
 "type": "FeatureCollection",
 "crs": {
  "type": "name",
  "properties": {
   "name": "urn:ogc:def:crs:EPSG::5186"
  }
 },
 "features": [
  {
   "type": "Feature",
   "properties": {
    "name": "운동장",
    "kind": "other",
    "elevationM": 148.9,
    "buildingId": null,
    "floor": null,
    "note": "E10 제안. 경계 = S-MAP 평지 칸 윤곽(field-surfaces-v3 SF-FIELD)을 2 m(한 칸) 허용으로 단순화. 바닥 148.9 m = E06 측정.",
    "areaM2": 8012,
    "applied": false
   },
   "geometry": {
    "type": "Polygon",
    "coordinates": [
     [
      [
       201141,
       557227
      ],
      [
       201135,
       557227
      ],
      [
       201139,
       557237
      ],
      [
       201135,
       557249
      ],
      [
       201143,
       557255
      ],
      [
       201143,
       557271
      ],
      [
       201147,
       557281
      ],
      [
       201147,
       557297
      ],
      [
       201143,
       557295
      ],
      [
       201143,
       557299
      ],
      [
       201149,
       557301
      ],
      [
       201149,
       557309
      ],
      [
       201157,
       557307
      ],
      [
       201159,
       557303
      ],
      [
       201167,
       557305
      ],
      [
       201179,
       557299
      ],
      [
       201181,
       557293
      ],
      [
       201189,
       557295
      ],
      [
       201197,
       557289
      ],
      [
       201207,
       557287
      ],
      [
       201211,
       557281
      ],
      [
       201227,
       557273
      ],
      [
       201237,
       557261
      ],
      [
       201241,
       557261
      ],
      [
       201239,
       557249
      ],
      [
       201235,
       557247
      ],
      [
       201229,
       557233
      ],
      [
       201225,
       557233
      ],
      [
       201219,
       557217
      ],
      [
       201213,
       557213
      ],
      [
       201213,
       557207
      ],
      [
       201205,
       557191
      ],
      [
       201201,
       557189
      ],
      [
       201201,
       557179
      ],
      [
       201197,
       557179
      ],
      [
       201197,
       557175
      ],
      [
       201183,
       557189
      ],
      [
       201183,
       557193
      ],
      [
       201177,
       557193
      ],
      [
       201175,
       557199
      ],
      [
       201171,
       557199
      ],
      [
       201161,
       557211
      ],
      [
       201153,
       557215
      ],
      [
       201153,
       557219
      ],
      [
       201143,
       557223
      ],
      [
       201141,
       557227
      ]
     ]
    ]
   }
  }
 ]
}