{
 "type": "FeatureCollection",
 "crs": {
  "type": "name",
  "properties": {
   "name": "urn:ogc:def:crs:EPSG::5186"
  }
 },
 "features": [
  {
   "type": "Feature",
   "properties": {
    "name": "운동장",
    "kind": "other",
    "elevationM": 148.9,
    "buildingId": null,
    "floor": null,
    "note": "F05. 경계 = S-MAP 평지(148.9 ± 0.5 m) 가장자리와 건물 원천 외곽에 맞춘 곧은 변 22개(화단 발치·벽·트인 모서리). 바닥 148.9 m = E06 측정. 옛 경계(E10, 45점 8,012㎡)는 docs/audit/e10/field-area.geojson.",
    "areaM2": 8455
   },
   "geometry": {
    "type": "Polygon",
    "coordinates": [
     [
      [
       201197.68,
       557175.65
      ],
      [
       201135.95,
       557230.72
      ],
      [
       201137.27,
       557243.5
      ],
      [
       201134.79,
       557243.5
      ],
      [
       201136.75,
       557255.5
      ],
      [
       201140.1,
       557255.5
      ],
      [
       201146.24,
       557293.5
      ],
      [
       201143.2,
       557293.5
      ],
      [
       201145.05,
       557311.01
      ],
      [
       201178.11,
       557300.1
      ],
      [
       201179.43,
       557296.96
      ],
      [
       201206.06,
       557288.63
      ],
      [
       201213.32,
       557280.0
      ],
      [
       201221.2,
       557275.0
      ],
      [
       201227.21,
       557273.8
      ],
      [
       201237.3,
       557262.9
      ],
      [
       201244.16,
       557257.31
      ],
      [
       201228.26,
       557229.99
      ],
      [
       201229.84,
       557229.09
      ],
      [
       201219.73,
       557212.37
      ],
      [
       201217.86,
       557213.44
      ],
      [
       201201.71,
       557185.81
      ],
      [
       201197.68,
       557175.65
      ]
     ]
    ]
   }
  }
 ]
}