{"type": "FeatureCollection", "name": "munye-massing-candidate", "crs": {"type": "name", "properties": {"name": "urn:ogc:def:crs:EPSG::5186"}}, "properties": {"status": "미리보기 후보 전용, 운영·원본 반영 금지", "accuracyVerified": false, "created": "2026-10-10", "source": "S-MAP 3D 메시 표면 z·모델 id 2m 격자(2026-10-10, 고층부식별/smap-grid-2m.txt), 모델 W=174587905 (추정 문예관)", "original": {"scene_live": {"baseM": 130.013, "roofM": 153.238}, "gpkg_buildings_3d": {"height_m": 14.0, "height_source": "ESTIMATE", "ground_floors": 4, "base_m": 134.422, "roof_m": 151.881}}, "not_used": "55m 단일 extrusion, H59.2+DEM 지붕, 저층 날개 189.4 상향 — 모두 사용 안 함", "base_floors_indoor_roads": "원본 유지, 미확정"}, "features": [{"type": "Feature", "properties": {"id": "MY-T", "part": "고층부 후보", "area_m2": 824.5, "topZ": 189.4, "top_source": "S-MAP 고층 지붕 표본 z 중앙값(추정)", "baseM": 130.013, "base_status": "미확정(원본 baseM)", "ground_floors": 4, "floors_status": "미확정(원본 값)", "indoor_roads": "변경 없음·미확정", "roof_diff_vs_scene_roofM": 36.16, "roof_diff_vs_gpkg_roof_m": 37.52, "accuracyVerified": false}, "geometry": {"type": "Polygon", "coordinates": [[[201085.0, 557347.0], [201084.9759810502, 557347.0], [201083.0, 557347.8978370053], [201083.0, 557349.0], [201083.0, 557349.5804504709], [201084.6232605679, 557353.0], [201085.0, 557353.0], [201085.0, 557353.7936366922], [201086.52206104333, 557357.0], [201087.0, 557357.0], [201087.0, 557358.0068229134], [201088.42086151874, 557361.0], [201089.0, 557361.0], [201089.0, 557362.2200091347], [201090.31966199417, 557365.0], [201091.0, 557365.0], [201091.0, 557366.433195356], [201092.173855123, 557368.906030471], [201095.0, 557367.6012075554], [201095.0, 557367.0], [201096.30216877122, 557367.0], [201099.0, 557365.7544191247], [201099.0, 557365.0], [201100.6340131054, 557365.0], [201103.0, 557363.907630694], [201103.0, 557363.0], [201104.96585743956, 557363.0], [201107.0, 557362.0608422633], [201107.0, 557361.0], [201109.0, 557361.0], [201109.29770177373, 557361.0], [201111.0, 557360.2140538326], [201111.0, 557359.0], [201113.0, 557359.0], [201113.6295461079, 557359.0], [201115.0, 557358.3672654018], [201115.0, 557357.0], [201117.0, 557357.0], [201117.96139044207, 557357.0], [201119.0, 557356.520476971], [201119.0, 557355.0], [201120.5627352479, 557355.0], [201123.0, 557353.845721304], [201123.0, 557353.0], [201124.7857444056, 557353.0], [201126.65282812403, 557352.1157567276], [201126.13379522576, 557351.0], [201125.0, 557351.0], [201125.0, 557349.0], [201125.0, 557348.5626985204], [201124.27305664212, 557347.0], [201123.0, 557347.0], [201123.0, 557345.0], [201123.0, 557344.2633304789], [201122.41231805852, 557343.0], [201121.0, 557343.0], [201121.0, 557341.0], [201121.0, 557339.9639624375], [201119.62121018308, 557337.0], [201119.0, 557337.0], [201119.0, 557335.6645943959], [201118.69084089124, 557335.0], [201117.0, 557335.0], [201115.6246300225, 557335.0], [201113.0, 557336.147829007], [201113.0, 557337.0], [201111.05142267814, 557337.0], [201110.51298817707, 557337.23547347], [201109.9225456542, 557335.6648969359], [201109.0, 557336.0840789049], [201109.0, 557337.0], [201107.0, 557337.0], [201106.98421905472, 557337.0], [201105.0, 557337.9015801512], [201105.0, 557339.0], [201103.0, 557339.0], [201102.58257145382, 557339.0], [201101.0, 557339.7190813974], [201101.0, 557341.0], [201099.0, 557341.0], [201098.18092385292, 557341.0], [201097.0, 557341.5365826436], [201097.0, 557343.0], [201095.0, 557343.0], [201093.779276252, 557343.0], [201093.0, 557343.3540838897], [201093.0, 557345.0], [201091.0, 557345.0], [201089.3776286511, 557345.0], [201089.0, 557345.171585136], [201089.0, 557347.0], [201087.0, 557347.0], [201085.0, 557347.0]]]}}, {"type": "Feature", "properties": {"id": "MY-R", "part": "불명확 나머지", "area_m2": 31.4, "topZ": 153.238, "top_source": "원본 roofM 유지(경계·벽·지면 표본, 미확정)", "baseM": 130.013, "base_status": "미확정(원본 baseM)", "ground_floors": 4, "floors_status": "미확정(원본 값)", "indoor_roads": "변경 없음·미확정", "roof_diff_vs_scene_roofM": 0.0, "roof_diff_vs_gpkg_roof_m": 1.36, "accuracyVerified": false}, "geometry": {"type": "MultiPolygon", "coordinates": [[[[201125.0, 557349.0], [201125.0, 557351.0], [201126.13379522576, 557351.0], [201125.0, 557348.5626985204], [201125.0, 557349.0]]], [[[201123.0, 557345.0], [201123.0, 557347.0], [201124.27305664212, 557347.0], [201123.0, 557344.2633304789], [201123.0, 557345.0]]], [[[201121.0, 557341.0], [201121.0, 557343.0], [201122.41231805852, 557343.0], [201121.0, 557339.9639624375], [201121.0, 557341.0]]], [[[201119.0, 557337.0], [201119.62121018308, 557337.0], [201119.0, 557335.6645943959], [201119.0, 557337.0]]], [[[201115.6246300225, 557335.0], [201117.0, 557335.0], [201118.69084089124, 557335.0], [201118.1725037038, 557333.8857388308], [201115.6246300225, 557335.0]]], [[[201113.0, 557337.0], [201113.0, 557336.147829007], [201111.05142267814, 557337.0], [201113.0, 557337.0]]], [[[201107.0, 557337.0], [201109.0, 557337.0], [201109.0, 557336.0840789049], [201106.98421905472, 557337.0], [201107.0, 557337.0]]], [[[201103.0, 557339.0], [201105.0, 557339.0], [201105.0, 557337.9015801512], [201102.58257145382, 557339.0], [201103.0, 557339.0]]], [[[201099.0, 557341.0], [201101.0, 557341.0], [201101.0, 557339.7190813974], [201098.18092385292, 557341.0], [201099.0, 557341.0]]], [[[201095.0, 557343.0], [201097.0, 557343.0], [201097.0, 557341.5365826436], [201093.779276252, 557343.0], [201095.0, 557343.0]]], [[[201091.0, 557345.0], [201093.0, 557345.0], [201093.0, 557343.3540838897], [201089.3776286511, 557345.0], [201091.0, 557345.0]]], [[[201085.0, 557347.0], [201087.0, 557347.0], [201089.0, 557347.0], [201089.0, 557345.171585136], [201084.9759810502, 557347.0], [201085.0, 557347.0]]], [[[201083.0, 557349.5804504709], [201083.0, 557349.0], [201083.0, 557347.8978370053], [201082.34297765992, 557348.1963717358], [201083.0, 557349.5804504709]]], [[[201085.0, 557353.0], [201084.6232605679, 557353.0], [201085.0, 557353.7936366922], [201085.0, 557353.0]]], [[[201087.0, 557357.0], [201086.52206104333, 557357.0], [201087.0, 557358.0068229134], [201087.0, 557357.0]]], [[[201089.0, 557361.0], [201088.42086151874, 557361.0], [201089.0, 557362.2200091347], [201089.0, 557361.0]]], [[[201091.0, 557365.0], [201090.31966199417, 557365.0], [201091.0, 557366.433195356], [201091.0, 557365.0]]], [[[201095.0, 557367.0], [201095.0, 557367.6012075554], [201096.30216877122, 557367.0], [201095.0, 557367.0]]], [[[201099.0, 557365.0], [201099.0, 557365.7544191247], [201100.6340131054, 557365.0], [201099.0, 557365.0]]], [[[201103.0, 557363.0], [201103.0, 557363.907630694], [201104.96585743956, 557363.0], [201103.0, 557363.0]]], [[[201109.0, 557361.0], [201107.0, 557361.0], [201107.0, 557362.0608422633], [201109.29770177373, 557361.0], [201109.0, 557361.0]]], [[[201113.0, 557359.0], [201111.0, 557359.0], [201111.0, 557360.2140538326], [201113.6295461079, 557359.0], [201113.0, 557359.0]]], [[[201117.0, 557357.0], [201115.0, 557357.0], [201115.0, 557358.3672654018], [201117.96139044207, 557357.0], [201117.0, 557357.0]]], [[[201119.0736363781, 557355.7052311819], [201120.5627352479, 557355.0], [201119.0, 557355.0], [201119.0, 557356.520476971], [201119.44348365808, 557356.3157218489], [201119.0736363781, 557355.7052311819]]], [[[201123.0, 557353.0], [201123.0, 557353.845721304], [201124.7857444056, 557353.0], [201123.0, 557353.0]]]]}}]}