{"type": "FeatureCollection", "name": "munye-roof-surface", "crs": {"type": "name", "properties": {"name": "urn:ogc:def:crs:EPSG::5186"}}, "properties": {"status": "미리보기 후보 전용, 운영·원본 반영 금지", "accuracyVerified": false, "created": "2026-10-10", "source": "S-MAP 3D 메시 표면 z·모델 id 2m 격자(2026-10-10, 고층부식별/smap-grid-2m.txt), 모델 W=174587905 (추정 문예관)", "rule": "고층 지붕 표본만 정점(x,y,z 원값), 2x2 블록 삼각형, 세 변 |dz|<=3.0m, 저층·불명확 셀 너머 연결·외삽 없음", "walls_base_floors": "미확정(그리지 않음)"}, "features": [{"type": "Feature", "properties": {"id": "MY-T-surface", "triangles": 235, "vertices": 145, "accuracyVerified": false}, "geometry": {"type": "MultiPolygon", "coordinates": [[[[201084, 557348, 190.8], [201086, 557348, 190.8], [201086, 557350, 190.8], [201084, 557348, 190.8]]], [[[201086, 557348, 190.8], [201088, 557350, 190.8], [201086, 557350, 190.8], [201086, 557348, 190.8]]], [[[201086, 557350, 190.8], [201088, 557350, 190.8], [201088, 557352, 189.1], [201086, 557350, 190.8]]], [[[201086, 557350, 190.8], [201088, 557352, 189.1], [201086, 557352, 190.8], [201086, 557350, 190.8]]], [[[201086, 557352, 190.8], [201088, 557352, 189.1], [201088, 557354, 190.8], [201086, 557352, 190.8]]], [[[201088, 557350, 190.8], [201090, 557350, 189.0], [201090, 557352, 189.2], [201088, 557350, 190.8]]], [[[201088, 557350, 190.8], [201090, 557352, 189.2], [201088, 557352, 189.1], [201088, 557350, 190.8]]], [[[201088, 557352, 189.1], [201090, 557352, 189.2], [201090, 557354, 189.3], [201088, 557352, 189.1]]], [[[201088, 557352, 189.1], [201090, 557354, 189.3], [201088, 557354, 190.8], [201088, 557352, 189.1]]], [[[201088, 557354, 190.8], [201090, 557354, 189.3], [201090, 557356, 189.5], [201088, 557354, 190.8]]], [[[201088, 557354, 190.8], [201090, 557356, 189.5], [201088, 557356, 190.8], [201088, 557354, 190.8]]], [[[201088, 557356, 190.8], [201090, 557356, 189.5], [201090, 557358, 190.8], [201088, 557356, 190.8]]], [[[201090, 557348, 190.8], [201092, 557348, 190.8], [201092, 557350, 189.1], [201090, 557348, 190.8]]], [[[201090, 557348, 190.8], [201092, 557350, 189.1], [201090, 557350, 189.0], [201090, 557348, 190.8]]], [[[201090, 557350, 189.0], [201092, 557350, 189.1], [201092, 557352, 189.3], [201090, 557350, 189.0]]], [[[201090, 557350, 189.0], [201092, 557352, 189.3], [201090, 557352, 189.2], [201090, 557350, 189.0]]], [[[201090, 557352, 189.2], [201092, 557352, 189.3], [201092, 557354, 189.4], [201090, 557352, 189.2]]], [[[201090, 557352, 189.2], [201092, 557354, 189.4], [201090, 557354, 189.3], [201090, 557352, 189.2]]], [[[201090, 557354, 189.3], [201092, 557354, 189.4], [201092, 557356, 189.5], [201090, 557354, 189.3]]], [[[201090, 557354, 189.3], [201092, 557356, 189.5], [201090, 557356, 189.5], [201090, 557354, 189.3]]], [[[201090, 557356, 189.5], [201092, 557356, 189.5], [201092, 557358, 189.5], [201090, 557356, 189.5]]], [[[201090, 557356, 189.5], [201092, 557358, 189.5], [201090, 557358, 190.8], [201090, 557356, 189.5]]], [[[201090, 557358, 190.8], [201092, 557358, 189.5], [201092, 557360, 189.3], [201090, 557358, 190.8]]], [[[201090, 557358, 190.8], [201092, 557360, 189.3], [201090, 557360, 190.8], [201090, 557358, 190.8]]], [[[201090, 557360, 190.8], [201092, 557360, 189.3], [201092, 557362, 190.8], [201090, 557360, 190.8]]], [[[201092, 557348, 190.8], [201094, 557348, 189.0], [201094, 557350, 189.2], [201092, 557348, 190.8]]], [[[201092, 557348, 190.8], [201094, 557350, 189.2], [201092, 557350, 189.1], [201092, 557348, 190.8]]], [[[201092, 557350, 189.1], [201094, 557350, 189.2], [201094, 557352, 189.3], [201092, 557350, 189.1]]], [[[201092, 557350, 189.1], [201094, 557352, 189.3], [201092, 557352, 189.3], [201092, 557350, 189.1]]], [[[201092, 557352, 189.3], [201094, 557352, 189.3], [201094, 557354, 189.4], [201092, 557352, 189.3]]], [[[201092, 557352, 189.3], [201094, 557354, 189.4], [201092, 557354, 189.4], [201092, 557352, 189.3]]], [[[201092, 557354, 189.4], [201094, 557354, 189.4], [201094, 557356, 189.6], [201092, 557354, 189.4]]], [[[201092, 557354, 189.4], [201094, 557356, 189.6], [201092, 557356, 189.5], [201092, 557354, 189.4]]], [[[201092, 557356, 189.5], [201094, 557356, 189.6], [201094, 557358, 189.4], [201092, 557356, 189.5]]], [[[201092, 557356, 189.5], [201094, 557358, 189.4], [201092, 557358, 189.5], [201092, 557356, 189.5]]], [[[201092, 557358, 189.5], [201094, 557358, 189.4], [201094, 557360, 189.2], [201092, 557358, 189.5]]], [[[201092, 557358, 189.5], [201094, 557360, 189.2], [201092, 557360, 189.3], [201092, 557358, 189.5]]], [[[201092, 557360, 189.3], [201094, 557360, 189.2], [201094, 557362, 189.0], [201092, 557360, 189.3]]], [[[201092, 557360, 189.3], [201094, 557362, 189.0], [201092, 557362, 190.8], [201092, 557360, 189.3]]], [[[201092, 557362, 190.8], [201094, 557362, 189.0], [201094, 557364, 188.8], [201092, 557362, 190.8]]], [[[201092, 557362, 190.8], [201094, 557364, 188.8], [201092, 557364, 190.8], [201092, 557362, 190.8]]], [[[201092, 557364, 190.8], [201094, 557364, 188.8], [201094, 557366, 190.8], [201092, 557364, 190.8]]], [[[201094, 557346, 190.8], [201096, 557348, 189.1], [201094, 557348, 189.0], [201094, 557346, 190.8]]], [[[201094, 557348, 189.0], [201096, 557348, 189.1], [201096, 557350, 189.2], [201094, 557348, 189.0]]], [[[201094, 557348, 189.0], [201096, 557350, 189.2], [201094, 557350, 189.2], [201094, 557348, 189.0]]], [[[201094, 557350, 189.2], [201096, 557350, 189.2], [201096, 557352, 189.4], [201094, 557350, 189.2]]], [[[201094, 557350, 189.2], [201096, 557352, 189.4], [201094, 557352, 189.3], [201094, 557350, 189.2]]], [[[201094, 557352, 189.3], [201096, 557352, 189.4], [201096, 557354, 189.5], [201094, 557352, 189.3]]], [[[201094, 557352, 189.3], [201096, 557354, 189.5], [201094, 557354, 189.4], [201094, 557352, 189.3]]], [[[201094, 557354, 189.4], [201096, 557354, 189.5], [201096, 557356, 189.5], [201094, 557354, 189.4]]], [[[201094, 557354, 189.4], [201096, 557356, 189.5], [201094, 557356, 189.6], [201094, 557354, 189.4]]], [[[201094, 557356, 189.6], [201096, 557356, 189.5], [201096, 557358, 189.3], [201094, 557356, 189.6]]], [[[201094, 557356, 189.6], [201096, 557358, 189.3], [201094, 557358, 189.4], [201094, 557356, 189.6]]], [[[201094, 557358, 189.4], [201096, 557358, 189.3], [201096, 557360, 189.1], [201094, 557358, 189.4]]], [[[201094, 557358, 189.4], [201096, 557360, 189.1], [201094, 557360, 189.2], [201094, 557358, 189.4]]], [[[201094, 557360, 189.2], [201096, 557360, 189.1], [201096, 557362, 188.9], [201094, 557360, 189.2]]], [[[201094, 557360, 189.2], [201096, 557362, 188.9], [201094, 557362, 189.0], [201094, 557360, 189.2]]], [[[201094, 557362, 189.0], [201096, 557362, 188.9], [201096, 557364, 190.8], [201094, 557362, 189.0]]], [[[201094, 557362, 189.0], [201096, 557364, 190.8], [201094, 557364, 188.8], [201094, 557362, 189.0]]], [[[201094, 557364, 188.8], [201096, 557364, 190.8], [201094, 557366, 190.8], [201094, 557364, 188.8]]], [[[201096, 557348, 189.1], [201098, 557348, 189.2], [201098, 557350, 189.3], [201096, 557348, 189.1]]], [[[201096, 557348, 189.1], [201098, 557350, 189.3], [201096, 557350, 189.2], [201096, 557348, 189.1]]], [[[201096, 557350, 189.2], [201098, 557350, 189.3], [201098, 557352, 189.4], [201096, 557350, 189.2]]], [[[201096, 557350, 189.2], [201098, 557352, 189.4], [201096, 557352, 189.4], [201096, 557350, 189.2]]], [[[201096, 557352, 189.4], [201098, 557352, 189.4], [201098, 557354, 189.6], [201096, 557352, 189.4]]], [[[201096, 557352, 189.4], [201098, 557354, 189.6], [201096, 557354, 189.5], [201096, 557352, 189.4]]], [[[201096, 557354, 189.5], [201098, 557354, 189.6], [201098, 557356, 189.4], [201096, 557354, 189.5]]], [[[201096, 557354, 189.5], [201098, 557356, 189.4], [201096, 557356, 189.5], [201096, 557354, 189.5]]], [[[201096, 557356, 189.5], [201098, 557356, 189.4], [201098, 557358, 189.2], [201096, 557356, 189.5]]], [[[201096, 557356, 189.5], [201098, 557358, 189.2], [201096, 557358, 189.3], [201096, 557356, 189.5]]], [[[201096, 557358, 189.3], [201098, 557358, 189.2], [201098, 557360, 189.0], [201096, 557358, 189.3]]], [[[201096, 557358, 189.3], [201098, 557360, 189.0], [201096, 557360, 189.1], [201096, 557358, 189.3]]], [[[201096, 557360, 189.1], [201098, 557360, 189.0], [201098, 557362, 188.8], [201096, 557360, 189.1]]], [[[201096, 557360, 189.1], [201098, 557362, 188.8], [201096, 557362, 188.9], [201096, 557360, 189.1]]], [[[201096, 557362, 188.9], [201098, 557362, 188.8], [201098, 557364, 190.8], [201096, 557362, 188.9]]], [[[201096, 557362, 188.9], [201098, 557364, 190.8], [201096, 557364, 190.8], [201096, 557362, 188.9]]], [[[201098, 557348, 189.2], [201100, 557348, 189.2], [201100, 557350, 189.4], [201098, 557348, 189.2]]], [[[201098, 557348, 189.2], [201100, 557350, 189.4], [201098, 557350, 189.3], [201098, 557348, 189.2]]], [[[201098, 557350, 189.3], [201100, 557350, 189.4], [201100, 557352, 189.5], [201098, 557350, 189.3]]], [[[201098, 557350, 189.3], [201100, 557352, 189.5], [201098, 557352, 189.4], [201098, 557350, 189.3]]], [[[201098, 557352, 189.4], [201100, 557352, 189.5], [201100, 557354, 189.5], [201098, 557352, 189.4]]], [[[201098, 557352, 189.4], [201100, 557354, 189.5], [201098, 557354, 189.6], [201098, 557352, 189.4]]], [[[201098, 557354, 189.6], [201100, 557354, 189.5], [201100, 557356, 189.3], [201098, 557354, 189.6]]], [[[201098, 557354, 189.6], [201100, 557356, 189.3], [201098, 557356, 189.4], [201098, 557354, 189.6]]], [[[201098, 557356, 189.4], [201100, 557356, 189.3], [201100, 557358, 189.1], [201098, 557356, 189.4]]], [[[201098, 557356, 189.4], [201100, 557358, 189.1], [201098, 557358, 189.2], [201098, 557356, 189.4]]], [[[201098, 557358, 189.2], [201100, 557358, 189.1], [201100, 557360, 188.9], [201098, 557358, 189.2]]], [[[201098, 557358, 189.2], [201100, 557360, 188.9], [201098, 557360, 189.0], [201098, 557358, 189.2]]], [[[201098, 557360, 189.0], [201100, 557360, 188.9], [201100, 557362, 190.8], [201098, 557360, 189.0]]], [[[201098, 557360, 189.0], [201100, 557362, 190.8], [201098, 557362, 188.8], [201098, 557360, 189.0]]], [[[201098, 557362, 188.8], [201100, 557362, 190.8], [201098, 557364, 190.8], [201098, 557362, 188.8]]], [[[201100, 557346, 189.1], [201102, 557346, 189.1], [201102, 557348, 189.3], [201100, 557346, 189.1]]], [[[201100, 557346, 189.1], [201102, 557348, 189.3], [201100, 557348, 189.2], [201100, 557346, 189.1]]], [[[201100, 557348, 189.2], [201102, 557348, 189.3], [201102, 557350, 189.4], [201100, 557348, 189.2]]], [[[201100, 557348, 189.2], [201102, 557350, 189.4], [201100, 557350, 189.4], [201100, 557348, 189.2]]], [[[201100, 557350, 189.4], [201102, 557350, 189.4], [201102, 557352, 189.6], [201100, 557350, 189.4]]], [[[201100, 557350, 189.4], [201102, 557352, 189.6], [201100, 557352, 189.5], [201100, 557350, 189.4]]], [[[201100, 557352, 189.5], [201102, 557352, 189.6], [201102, 557354, 189.4], [201100, 557352, 189.5]]], [[[201100, 557352, 189.5], [201102, 557354, 189.4], [201100, 557354, 189.5], [201100, 557352, 189.5]]], [[[201100, 557354, 189.5], [201102, 557354, 189.4], [201102, 557356, 189.2], [201100, 557354, 189.5]]], [[[201100, 557354, 189.5], [201102, 557356, 189.2], [201100, 557356, 189.3], [201100, 557354, 189.5]]], [[[201100, 557356, 189.3], [201102, 557356, 189.2], [201102, 557358, 189.0], [201100, 557356, 189.3]]], [[[201100, 557356, 189.3], [201102, 557358, 189.0], [201100, 557358, 189.1], [201100, 557356, 189.3]]], [[[201100, 557358, 189.1], [201102, 557358, 189.0], [201102, 557360, 188.8], [201100, 557358, 189.1]]], [[[201100, 557358, 189.1], [201102, 557360, 188.8], [201100, 557360, 188.9], [201100, 557358, 189.1]]], [[[201100, 557360, 188.9], [201102, 557360, 188.8], [201102, 557362, 190.8], [201100, 557360, 188.9]]], [[[201100, 557360, 188.9], [201102, 557362, 190.8], [201100, 557362, 190.8], [201100, 557360, 188.9]]], [[[201102, 557346, 189.1], [201104, 557346, 189.2], [201104, 557348, 189.4], [201102, 557346, 189.1]]], [[[201102, 557346, 189.1], [201104, 557348, 189.4], [201102, 557348, 189.3], [201102, 557346, 189.1]]], [[[201102, 557348, 189.3], [201104, 557348, 189.4], [201104, 557350, 189.5], [201102, 557348, 189.3]]], [[[201102, 557348, 189.3], [201104, 557350, 189.5], [201102, 557350, 189.4], [201102, 557348, 189.3]]], [[[201102, 557350, 189.4], [201104, 557350, 189.5], [201104, 557352, 189.6], [201102, 557350, 189.4]]], [[[201102, 557350, 189.4], [201104, 557352, 189.6], [201102, 557352, 189.6], [201102, 557350, 189.4]]], [[[201102, 557352, 189.6], [201104, 557352, 189.6], [201104, 557354, 189.3], [201102, 557352, 189.6]]], [[[201102, 557352, 189.6], [201104, 557354, 189.3], [201102, 557354, 189.4], [201102, 557352, 189.6]]], [[[201102, 557354, 189.4], [201104, 557354, 189.3], [201104, 557356, 189.1], [201102, 557354, 189.4]]], [[[201102, 557354, 189.4], [201104, 557356, 189.1], [201102, 557356, 189.2], [201102, 557354, 189.4]]], [[[201102, 557356, 189.2], [201104, 557356, 189.1], [201104, 557358, 188.9], [201102, 557356, 189.2]]], [[[201102, 557356, 189.2], [201104, 557358, 188.9], [201102, 557358, 189.0], [201102, 557356, 189.2]]], [[[201102, 557358, 189.0], [201104, 557358, 188.9], [201104, 557360, 190.8], [201102, 557358, 189.0]]], [[[201102, 557358, 189.0], [201104, 557360, 190.8], [201102, 557360, 188.8], [201102, 557358, 189.0]]], [[[201102, 557360, 188.8], [201104, 557360, 190.8], [201102, 557362, 190.8], [201102, 557360, 188.8]]], [[[201104, 557344, 189.1], [201106, 557344, 189.1], [201106, 557346, 189.3], [201104, 557344, 189.1]]], [[[201104, 557344, 189.1], [201106, 557346, 189.3], [201104, 557346, 189.2], [201104, 557344, 189.1]]], [[[201104, 557346, 189.2], [201106, 557346, 189.3], [201106, 557348, 189.4], [201104, 557346, 189.2]]], [[[201104, 557346, 189.2], [201106, 557348, 189.4], [201104, 557348, 189.4], [201104, 557346, 189.2]]], [[[201104, 557348, 189.4], [201106, 557348, 189.4], [201106, 557350, 189.6], [201104, 557348, 189.4]]], [[[201104, 557348, 189.4], [201106, 557350, 189.6], [201104, 557350, 189.5], [201104, 557348, 189.4]]], [[[201104, 557350, 189.5], [201106, 557350, 189.6], [201106, 557352, 189.5], [201104, 557350, 189.5]]], [[[201104, 557350, 189.5], [201106, 557352, 189.5], [201104, 557352, 189.6], [201104, 557350, 189.5]]], [[[201104, 557352, 189.6], [201106, 557352, 189.5], [201106, 557354, 189.2], [201104, 557352, 189.6]]], [[[201104, 557352, 189.6], [201106, 557354, 189.2], [201104, 557354, 189.3], [201104, 557352, 189.6]]], [[[201104, 557354, 189.3], [201106, 557354, 189.2], [201106, 557356, 189.0], [201104, 557354, 189.3]]], [[[201104, 557354, 189.3], [201106, 557356, 189.0], [201104, 557356, 189.1], [201104, 557354, 189.3]]], [[[201104, 557356, 189.1], [201106, 557356, 189.0], [201106, 557358, 188.8], [201104, 557356, 189.1]]], [[[201104, 557356, 189.1], [201106, 557358, 188.8], [201104, 557358, 188.9], [201104, 557356, 189.1]]], [[[201104, 557358, 188.9], [201106, 557358, 188.8], [201106, 557360, 190.8], [201104, 557358, 188.9]]], [[[201104, 557358, 188.9], [201106, 557360, 190.8], [201104, 557360, 190.8], [201104, 557358, 188.9]]], [[[201106, 557344, 189.1], [201108, 557344, 189.2], [201108, 557346, 189.3], [201106, 557344, 189.1]]], [[[201106, 557344, 189.1], [201108, 557346, 189.3], [201106, 557346, 189.3], [201106, 557344, 189.1]]], [[[201106, 557346, 189.3], [201108, 557346, 189.3], [201108, 557348, 189.5], [201106, 557346, 189.3]]], [[[201106, 557346, 189.3], [201108, 557348, 189.5], [201106, 557348, 189.4], [201106, 557346, 189.3]]], [[[201106, 557348, 189.4], [201108, 557348, 189.5], [201108, 557350, 189.6], [201106, 557348, 189.4]]], [[[201106, 557348, 189.4], [201108, 557350, 189.6], [201106, 557350, 189.6], [201106, 557348, 189.4]]], [[[201106, 557350, 189.6], [201108, 557350, 189.6], [201108, 557352, 189.4], [201106, 557350, 189.6]]], [[[201106, 557350, 189.6], [201108, 557352, 189.4], [201106, 557352, 189.5], [201106, 557350, 189.6]]], [[[201106, 557352, 189.5], [201108, 557352, 189.4], [201108, 557354, 189.2], [201106, 557352, 189.5]]], [[[201106, 557352, 189.5], [201108, 557354, 189.2], [201106, 557354, 189.2], [201106, 557352, 189.5]]], [[[201106, 557354, 189.2], [201108, 557354, 189.2], [201108, 557356, 189.0], [201106, 557354, 189.2]]], [[[201106, 557354, 189.2], [201108, 557356, 189.0], [201106, 557356, 189.0], [201106, 557354, 189.2]]], [[[201106, 557356, 189.0], [201108, 557356, 189.0], [201108, 557358, 190.2], [201106, 557356, 189.0]]], [[[201106, 557356, 189.0], [201108, 557358, 190.2], [201106, 557358, 188.8], [201106, 557356, 189.0]]], [[[201106, 557358, 188.8], [201108, 557358, 190.2], [201106, 557360, 190.8], [201106, 557358, 188.8]]], [[[201108, 557340, 190.8], [201110, 557340, 191.5], [201110, 557342, 189.1], [201108, 557340, 190.8]]], [[[201108, 557340, 190.8], [201110, 557342, 189.1], [201108, 557342, 189.1], [201108, 557340, 190.8]]], [[[201108, 557342, 189.1], [201110, 557342, 189.1], [201110, 557344, 189.3], [201108, 557342, 189.1]]], [[[201108, 557342, 189.1], [201110, 557344, 189.3], [201108, 557344, 189.2], [201108, 557342, 189.1]]], [[[201108, 557344, 189.2], [201110, 557344, 189.3], [201110, 557346, 189.4], [201108, 557344, 189.2]]], [[[201108, 557344, 189.2], [201110, 557346, 189.4], [201108, 557346, 189.3], [201108, 557344, 189.2]]], [[[201108, 557346, 189.3], [201110, 557346, 189.4], [201110, 557348, 189.5], [201108, 557346, 189.3]]], [[[201108, 557346, 189.3], [201110, 557348, 189.5], [201108, 557348, 189.5], [201108, 557346, 189.3]]], [[[201108, 557348, 189.5], [201110, 557348, 189.5], [201110, 557350, 189.5], [201108, 557348, 189.5]]], [[[201108, 557348, 189.5], [201110, 557350, 189.5], [201108, 557350, 189.6], [201108, 557348, 189.5]]], [[[201108, 557350, 189.6], [201110, 557350, 189.5], [201110, 557352, 189.3], [201108, 557350, 189.6]]], [[[201108, 557350, 189.6], [201110, 557352, 189.3], [201108, 557352, 189.4], [201108, 557350, 189.6]]], [[[201108, 557352, 189.4], [201110, 557352, 189.3], [201110, 557354, 189.1], [201108, 557352, 189.4]]], [[[201108, 557352, 189.4], [201110, 557354, 189.1], [201108, 557354, 189.2], [201108, 557352, 189.4]]], [[[201108, 557354, 189.2], [201110, 557354, 189.1], [201110, 557356, 188.9], [201108, 557354, 189.2]]], [[[201108, 557354, 189.2], [201110, 557356, 188.9], [201108, 557356, 189.0], [201108, 557354, 189.2]]], [[[201108, 557356, 189.0], [201110, 557356, 188.9], [201110, 557358, 190.8], [201108, 557356, 189.0]]], [[[201108, 557356, 189.0], [201110, 557358, 190.8], [201108, 557358, 190.2], [201108, 557356, 189.0]]], [[[201110, 557340, 191.5], [201112, 557340, 190.1], [201112, 557342, 191.1], [201110, 557340, 191.5]]], [[[201110, 557340, 191.5], [201112, 557342, 191.1], [201110, 557342, 189.1], [201110, 557340, 191.5]]], [[[201110, 557342, 189.1], [201112, 557342, 191.1], [201112, 557344, 191.9], [201110, 557342, 189.1]]], [[[201110, 557342, 189.1], [201112, 557344, 191.9], [201110, 557344, 189.3], [201110, 557342, 189.1]]], [[[201110, 557344, 189.3], [201112, 557344, 191.9], [201112, 557346, 189.5], [201110, 557344, 189.3]]], [[[201110, 557344, 189.3], [201112, 557346, 189.5], [201110, 557346, 189.4], [201110, 557344, 189.3]]], [[[201110, 557346, 189.4], [201112, 557346, 189.5], [201112, 557348, 189.6], [201110, 557346, 189.4]]], [[[201110, 557346, 189.4], [201112, 557348, 189.6], [201110, 557348, 189.5], [201110, 557346, 189.4]]], [[[201110, 557348, 189.5], [201112, 557348, 189.6], [201112, 557350, 189.4], [201110, 557348, 189.5]]], [[[201110, 557348, 189.5], [201112, 557350, 189.4], [201110, 557350, 189.5], [201110, 557348, 189.5]]], [[[201110, 557350, 189.5], [201112, 557350, 189.4], [201112, 557352, 189.2], [201110, 557350, 189.5]]], [[[201110, 557350, 189.5], [201112, 557352, 189.2], [201110, 557352, 189.3], [201110, 557350, 189.5]]], [[[201110, 557352, 189.3], [201112, 557352, 189.2], [201112, 557354, 189.0], [201110, 557352, 189.3]]], [[[201110, 557352, 189.3], [201112, 557354, 189.0], [201110, 557354, 189.1], [201110, 557352, 189.3]]], [[[201110, 557354, 189.1], [201112, 557354, 189.0], [201112, 557356, 188.8], [201110, 557354, 189.1]]], [[[201110, 557354, 189.1], [201112, 557356, 188.8], [201110, 557356, 188.9], [201110, 557354, 189.1]]], [[[201110, 557356, 188.9], [201112, 557356, 188.8], [201110, 557358, 190.8], [201110, 557356, 188.9]]], [[[201112, 557340, 190.1], [201114, 557340, 191.0], [201114, 557342, 191.2], [201112, 557340, 190.1]]], [[[201112, 557340, 190.1], [201114, 557342, 191.2], [201112, 557342, 191.1], [201112, 557340, 190.1]]], [[[201112, 557342, 191.1], [201114, 557342, 191.2], [201114, 557344, 191.4], [201112, 557342, 191.1]]], [[[201112, 557342, 191.1], [201114, 557344, 191.4], [201112, 557344, 191.9], [201112, 557342, 191.1]]], [[[201112, 557344, 191.9], [201114, 557344, 191.4], [201114, 557346, 191.7], [201112, 557344, 191.9]]], [[[201112, 557344, 191.9], [201114, 557346, 191.7], [201112, 557346, 189.5], [201112, 557344, 191.9]]], [[[201112, 557346, 189.5], [201114, 557346, 191.7], [201114, 557348, 191.6], [201112, 557346, 189.5]]], [[[201112, 557346, 189.5], [201114, 557348, 191.6], [201112, 557348, 189.6], [201112, 557346, 189.5]]], [[[201112, 557348, 189.6], [201114, 557348, 191.6], [201114, 557350, 189.3], [201112, 557348, 189.6]]], [[[201112, 557348, 189.6], [201114, 557350, 189.3], [201112, 557350, 189.4], [201112, 557348, 189.6]]], [[[201112, 557350, 189.4], [201114, 557350, 189.3], [201114, 557352, 189.1], [201112, 557350, 189.4]]], [[[201112, 557350, 189.4], [201114, 557352, 189.1], [201112, 557352, 189.2], [201112, 557350, 189.4]]], [[[201112, 557352, 189.2], [201114, 557352, 189.1], [201114, 557354, 188.9], [201112, 557352, 189.2]]], [[[201112, 557352, 189.2], [201114, 557354, 188.9], [201112, 557354, 189.0], [201112, 557352, 189.2]]], [[[201112, 557354, 189.0], [201114, 557354, 188.9], [201114, 557356, 190.8], [201112, 557354, 189.0]]], [[[201112, 557354, 189.0], [201114, 557356, 190.8], [201112, 557356, 188.8], [201112, 557354, 189.0]]], [[[201114, 557340, 191.0], [201116, 557340, 191.1], [201116, 557342, 191.3], [201114, 557340, 191.0]]], [[[201114, 557340, 191.0], [201116, 557342, 191.3], [201114, 557342, 191.2], [201114, 557340, 191.0]]], [[[201114, 557342, 191.2], [201116, 557342, 191.3], [201116, 557344, 191.5], [201114, 557342, 191.2]]], [[[201114, 557342, 191.2], [201116, 557344, 191.5], [201114, 557344, 191.4], [201114, 557342, 191.2]]], [[[201114, 557344, 191.4], [201116, 557344, 191.5], [201116, 557346, 191.7], [201114, 557344, 191.4]]], [[[201114, 557344, 191.4], [201116, 557346, 191.7], [201114, 557346, 191.7], [201114, 557344, 191.4]]], [[[201114, 557346, 191.7], [201116, 557346, 191.7], [201116, 557348, 191.5], [201114, 557346, 191.7]]], [[[201114, 557346, 191.7], [201116, 557348, 191.5], [201114, 557348, 191.6], [201114, 557346, 191.7]]], [[[201114, 557348, 191.6], [201116, 557348, 191.5], [201116, 557350, 191.3], [201114, 557348, 191.6]]], [[[201114, 557348, 191.6], [201116, 557350, 191.3], [201114, 557350, 189.3], [201114, 557348, 191.6]]], [[[201114, 557350, 189.3], [201116, 557350, 191.3], [201114, 557352, 189.1], [201114, 557350, 189.3]]], [[[201114, 557352, 189.1], [201116, 557354, 188.8], [201114, 557354, 188.9], [201114, 557352, 189.1]]], [[[201114, 557354, 188.9], [201116, 557354, 188.8], [201114, 557356, 190.8], [201114, 557354, 188.9]]], [[[201116, 557340, 191.1], [201118, 557342, 191.4], [201116, 557342, 191.3], [201116, 557340, 191.1]]], [[[201116, 557342, 191.3], [201118, 557342, 191.4], [201118, 557344, 191.6], [201116, 557342, 191.3]]], [[[201116, 557342, 191.3], [201118, 557344, 191.6], [201116, 557344, 191.5], [201116, 557342, 191.3]]], [[[201116, 557344, 191.5], [201118, 557344, 191.6], [201118, 557346, 191.6], [201116, 557344, 191.5]]], [[[201116, 557344, 191.5], [201118, 557346, 191.6], [201116, 557346, 191.7], [201116, 557344, 191.5]]], [[[201116, 557346, 191.7], [201118, 557346, 191.6], [201118, 557348, 191.4], [201116, 557346, 191.7]]], [[[201116, 557346, 191.7], [201118, 557348, 191.4], [201116, 557348, 191.5], [201116, 557346, 191.7]]], [[[201116, 557348, 191.5], [201118, 557348, 191.4], [201116, 557350, 191.3], [201116, 557348, 191.5]]], [[[201118, 557342, 191.4], [201120, 557344, 191.7], [201118, 557344, 191.6], [201118, 557342, 191.4]]], [[[201118, 557344, 191.6], [201120, 557344, 191.7], [201120, 557346, 191.6], [201118, 557344, 191.6]]], [[[201118, 557344, 191.6], [201120, 557346, 191.6], [201118, 557346, 191.6], [201118, 557344, 191.6]]], [[[201118, 557346, 191.6], [201120, 557346, 191.6], [201120, 557348, 191.3], [201118, 557346, 191.6]]], [[[201118, 557346, 191.6], [201120, 557348, 191.3], [201118, 557348, 191.4], [201118, 557346, 191.6]]], [[[201118, 557348, 191.4], [201120, 557348, 191.3], [201120, 557350, 191.1], [201118, 557348, 191.4]]], [[[201120, 557346, 191.6], [201122, 557348, 191.3], [201120, 557348, 191.3], [201120, 557346, 191.6]]], [[[201120, 557348, 191.3], [201122, 557348, 191.3], [201122, 557350, 191.1], [201120, 557348, 191.3]]], [[[201120, 557348, 191.3], [201122, 557350, 191.1], [201120, 557350, 191.1], [201120, 557348, 191.3]]], [[[201120, 557350, 191.1], [201122, 557350, 191.1], [201122, 557352, 190.5], [201120, 557350, 191.1]]]]}}]}