{"type": "FeatureCollection", "name": "yudam-roof-surface", "crs": {"type": "name", "properties": {"name": "urn:ogc:def:crs:EPSG::5186"}}, "properties": {"status": "미리보기 후보 전용, 운영·원본 반영 금지", "accuracyVerified": false, "created": "2026-10-09", "rule": "지붕 표본만 정점, 삼각형 세 변 |dz|<=3m, 판독불가·측벽·미취득 너머 연결·외삽 없음", "excluded_roof_samples_not_in_any_triangle": [{"x": 201014, "y": 557272, "z": 180.4}], "excluded_other_classes": {"측벽·아래 표면": 5, "판독불가": 36}}, "features": [{"type": "Feature", "properties": {"id": "Y-A-surface-0", "kind": "Y-A 상단 표면 후보(지붕 표본만)", "accuracyVerified": false, "triangles": 845, "vertices": 475, "area_m2": 1690.0, "holes": 1, "source": "S-MAP 3D 메시 표면 z (2026-10-09, getCoordinate3dFromPixel), tower-sample-class.json 지붕 분류", "err_xy_m_assumed": 2.0, "err_z_m_assumed": 1.0, "continuity_threshold_m": 3.0, "lower_floors_walls_base": "미확정"}, "geometry": {"type": "MultiPolygon", "coordinates": [[[[201016, 557270, 179.8], [201018, 557270, 179.5], [201018, 557272, 179.7], [201016, 557270, 179.8]]], [[[201016, 557270, 179.8], [201018, 557272, 179.7], [201016, 557272, 180.1], [201016, 557270, 179.8]]], [[[201016, 557272, 180.1], [201018, 557272, 179.7], [201018, 557274, 182.5], [201016, 557272, 180.1]]], [[[201018, 557268, 179.3], [201020, 557268, 178.9], [201020, 557270, 179.2], [201018, 557268, 179.3]]], [[[201018, 557268, 179.3], [201020, 557270, 179.2], [201018, 557270, 179.5], [201018, 557268, 179.3]]], [[[201018, 557270, 179.5], [201020, 557270, 179.2], [201020, 557272, 179.4], [201018, 557270, 179.5]]], [[[201018, 557270, 179.5], [201020, 557272, 179.4], [201018, 557272, 179.7], [201018, 557270, 179.5]]], [[[201018, 557272, 179.7], [201020, 557272, 179.4], [201020, 557274, 179.6], [201018, 557272, 179.7]]], [[[201018, 557272, 179.7], [201020, 557274, 179.6], [201018, 557274, 182.5], [201018, 557272, 179.7]]], [[[201018, 557274, 182.5], [201020, 557274, 179.6], [201020, 557276, 182.4], [201018, 557274, 182.5]]], [[[201018, 557274, 182.5], [201020, 557276, 182.4], [201018, 557276, 182.7], [201018, 557274, 182.5]]], [[[201018, 557276, 182.7], [201020, 557276, 182.4], [201020, 557278, 180.1], [201018, 557276, 182.7]]], [[[201020, 557264, 178.5], [201022, 557264, 178.1], [201022, 557266, 178.4], [201020, 557264, 178.5]]], [[[201020, 557264, 178.5], [201022, 557266, 178.4], [201020, 557266, 178.7], [201020, 557264, 178.5]]], [[[201020, 557266, 178.7], [201022, 557266, 178.4], [201022, 557268, 178.6], [201020, 557266, 178.7]]], [[[201020, 557266, 178.7], [201022, 557268, 178.6], [201020, 557268, 178.9], [201020, 557266, 178.7]]], [[[201020, 557268, 178.9], [201022, 557268, 178.6], [201022, 557270, 178.8], [201020, 557268, 178.9]]], [[[201020, 557268, 178.9], [201022, 557270, 178.8], [201020, 557270, 179.2], [201020, 557268, 178.9]]], [[[201020, 557270, 179.2], [201022, 557270, 178.8], [201022, 557272, 179.0], [201020, 557270, 179.2]]], [[[201020, 557270, 179.2], [201022, 557272, 179.0], [201020, 557272, 179.4], [201020, 557270, 179.2]]], [[[201020, 557272, 179.4], [201022, 557272, 179.0], [201022, 557274, 179.3], [201020, 557272, 179.4]]], [[[201020, 557272, 179.4], [201022, 557274, 179.3], [201020, 557274, 179.6], [201020, 557272, 179.4]]], [[[201020, 557274, 179.6], [201022, 557274, 179.3], [201022, 557276, 179.5], [201020, 557274, 179.6]]], [[[201020, 557274, 179.6], [201022, 557276, 179.5], [201020, 557276, 182.4], [201020, 557274, 179.6]]], [[[201020, 557276, 182.4], [201022, 557276, 179.5], [201022, 557278, 179.7], [201020, 557276, 182.4]]], [[[201020, 557276, 182.4], [201022, 557278, 179.7], [201020, 557278, 180.1], [201020, 557276, 182.4]]], [[[201022, 557260, 177.6], [201024, 557260, 177.3], [201024, 557262, 177.5], [201022, 557260, 177.6]]], [[[201022, 557260, 177.6], [201024, 557262, 177.5], [201022, 557262, 177.9], [201022, 557260, 177.6]]], [[[201022, 557262, 177.9], [201024, 557262, 177.5], [201024, 557264, 177.8], [201022, 557262, 177.9]]], [[[201022, 557262, 177.9], [201024, 557264, 177.8], [201022, 557264, 178.1], [201022, 557262, 177.9]]], [[[201022, 557264, 178.1], [201024, 557264, 177.8], [201024, 557266, 178.0], [201022, 557264, 178.1]]], [[[201022, 557264, 178.1], [201024, 557266, 178.0], [201022, 557266, 178.4], [201022, 557264, 178.1]]], [[[201022, 557266, 178.4], [201024, 557266, 178.0], [201024, 557268, 178.2], [201022, 557266, 178.4]]], [[[201022, 557266, 178.4], [201024, 557268, 178.2], [201022, 557268, 178.6], [201022, 557266, 178.4]]], [[[201022, 557268, 178.6], [201024, 557268, 178.2], [201024, 557270, 178.4], [201022, 557268, 178.6]]], [[[201022, 557268, 178.6], [201024, 557270, 178.4], [201022, 557270, 178.8], [201022, 557268, 178.6]]], [[[201022, 557270, 178.8], [201024, 557270, 178.4], [201024, 557272, 178.7], [201022, 557270, 178.8]]], [[[201022, 557270, 178.8], [201024, 557272, 178.7], [201022, 557272, 179.0], [201022, 557270, 178.8]]], [[[201022, 557272, 179.0], [201024, 557272, 178.7], [201024, 557274, 178.9], [201022, 557272, 179.0]]], [[[201022, 557272, 179.0], [201024, 557274, 178.9], [201022, 557274, 179.3], [201022, 557272, 179.0]]], [[[201022, 557274, 179.3], [201024, 557274, 178.9], [201024, 557276, 179.1], [201022, 557274, 179.3]]], [[[201022, 557274, 179.3], [201024, 557276, 179.1], [201022, 557276, 179.5], [201022, 557274, 179.3]]], [[[201022, 557276, 179.5], [201024, 557276, 179.1], [201024, 557278, 179.4], [201022, 557276, 179.5]]], [[[201022, 557276, 179.5], [201024, 557278, 179.4], [201022, 557278, 179.7], [201022, 557276, 179.5]]], [[[201022, 557278, 179.7], [201024, 557278, 179.4], [201024, 557280, 182.1], [201022, 557278, 179.7]]], [[[201024, 557256, 179.4], [201026, 557256, 176.5], [201026, 557258, 176.7], [201024, 557256, 179.4]]], [[[201024, 557256, 179.4], [201026, 557258, 176.7], [201024, 557258, 177.0], [201024, 557256, 179.4]]], [[[201024, 557258, 177.0], [201026, 557258, 176.7], [201026, 557260, 176.9], [201024, 557258, 177.0]]], [[[201024, 557258, 177.0], [201026, 557260, 176.9], [201024, 557260, 177.3], [201024, 557258, 177.0]]], [[[201024, 557260, 177.3], [201026, 557260, 176.9], [201026, 557262, 179.4], [201024, 557260, 177.3]]], [[[201024, 557260, 177.3], [201026, 557262, 179.4], [201024, 557262, 177.5], [201024, 557260, 177.3]]], [[[201024, 557262, 177.5], [201026, 557262, 179.4], [201026, 557264, 179.7], [201024, 557262, 177.5]]], [[[201024, 557262, 177.5], [201026, 557264, 179.7], [201024, 557264, 177.8], [201024, 557262, 177.5]]], [[[201024, 557264, 177.8], [201026, 557264, 179.7], [201026, 557266, 177.6], [201024, 557264, 177.8]]], [[[201024, 557264, 177.8], [201026, 557266, 177.6], [201024, 557266, 178.0], [201024, 557264, 177.8]]], [[[201024, 557266, 178.0], [201026, 557266, 177.6], [201026, 557268, 177.8], [201024, 557266, 178.0]]], [[[201024, 557266, 178.0], [201026, 557268, 177.8], [201024, 557268, 178.2], [201024, 557266, 178.0]]], [[[201024, 557268, 178.2], [201026, 557268, 177.8], [201026, 557270, 178.1], [201024, 557268, 178.2]]], [[[201024, 557268, 178.2], [201026, 557270, 178.1], [201024, 557270, 178.4], [201024, 557268, 178.2]]], [[[201024, 557270, 178.4], [201026, 557270, 178.1], [201026, 557272, 178.3], [201024, 557270, 178.4]]], [[[201024, 557270, 178.4], [201026, 557272, 178.3], [201024, 557272, 178.7], [201024, 557270, 178.4]]], [[[201024, 557272, 178.7], [201026, 557272, 178.3], [201026, 557274, 178.5], [201024, 557272, 178.7]]], [[[201024, 557272, 178.7], [201026, 557274, 178.5], [201024, 557274, 178.9], [201024, 557272, 178.7]]], [[[201024, 557274, 178.9], [201026, 557274, 178.5], [201026, 557276, 178.7], [201024, 557274, 178.9]]], [[[201024, 557274, 178.9], [201026, 557276, 178.7], [201024, 557276, 179.1], [201024, 557274, 178.9]]], [[[201024, 557276, 179.1], [201026, 557276, 178.7], [201026, 557278, 179.0], [201024, 557276, 179.1]]], [[[201024, 557276, 179.1], [201026, 557278, 179.0], [201024, 557278, 179.4], [201024, 557276, 179.1]]], [[[201024, 557278, 179.4], [201026, 557278, 179.0], [201026, 557280, 179.2], [201024, 557278, 179.4]]], [[[201024, 557278, 179.4], [201026, 557280, 179.2], [201024, 557280, 182.1], [201024, 557278, 179.4]]], [[[201024, 557280, 182.1], [201026, 557280, 179.2], [201026, 557282, 179.4], [201024, 557280, 182.1]]], [[[201024, 557280, 182.1], [201026, 557282, 179.4], [201024, 557282, 179.8], [201024, 557280, 182.1]]], [[[201024, 557282, 179.8], [201026, 557282, 179.4], [201026, 557284, 179.6], [201024, 557282, 179.8]]], [[[201024, 557282, 179.8], [201026, 557284, 179.6], [201024, 557284, 180.0], [201024, 557282, 179.8]]], [[[201024, 557284, 180.0], [201026, 557284, 179.6], [201026, 557286, 179.9], [201024, 557284, 180.0]]], [[[201024, 557284, 180.0], [201026, 557286, 179.9], [201024, 557286, 180.2], [201024, 557284, 180.0]]], [[[201026, 557254, 178.8], [201028, 557254, 175.9], [201028, 557256, 176.1], [201026, 557254, 178.8]]], [[[201026, 557254, 178.8], [201028, 557256, 176.1], [201026, 557256, 176.5], [201026, 557254, 178.8]]], [[[201026, 557256, 176.5], [201028, 557256, 176.1], [201028, 557258, 176.3], [201026, 557256, 176.5]]], [[[201026, 557256, 176.5], [201028, 557258, 176.3], [201026, 557258, 176.7], [201026, 557256, 176.5]]], [[[201026, 557258, 176.7], [201028, 557258, 176.3], [201028, 557260, 178.7], [201026, 557258, 176.7]]], [[[201026, 557258, 176.7], [201028, 557260, 178.7], [201026, 557260, 176.9], [201026, 557258, 176.7]]], [[[201026, 557260, 176.9], [201028, 557260, 178.7], [201028, 557262, 179.0], [201026, 557260, 176.9]]], [[[201026, 557260, 176.9], [201028, 557262, 179.0], [201026, 557262, 179.4], [201026, 557260, 176.9]]], [[[201026, 557262, 179.4], [201028, 557262, 179.0], [201028, 557264, 179.2], [201026, 557262, 179.4]]], [[[201026, 557262, 179.4], [201028, 557264, 179.2], [201026, 557264, 179.7], [201026, 557262, 179.4]]], [[[201026, 557264, 179.7], [201028, 557264, 179.2], [201028, 557266, 179.5], [201026, 557264, 179.7]]], [[[201026, 557264, 179.7], [201028, 557266, 179.5], [201026, 557266, 177.6], [201026, 557264, 179.7]]], [[[201026, 557266, 177.6], [201028, 557266, 179.5], [201028, 557268, 177.5], [201026, 557266, 177.6]]], [[[201026, 557266, 177.6], [201028, 557268, 177.5], [201026, 557268, 177.8], [201026, 557266, 177.6]]], [[[201026, 557268, 177.8], [201028, 557268, 177.5], [201028, 557270, 177.7], [201026, 557268, 177.8]]], [[[201026, 557268, 177.8], [201028, 557270, 177.7], [201026, 557270, 178.1], [201026, 557268, 177.8]]], [[[201026, 557270, 178.1], [201028, 557270, 177.7], [201028, 557272, 177.9], [201026, 557270, 178.1]]], [[[201026, 557270, 178.1], [201028, 557272, 177.9], [201026, 557272, 178.3], [201026, 557270, 178.1]]], [[[201026, 557272, 178.3], [201028, 557272, 177.9], [201028, 557274, 178.1], [201026, 557272, 178.3]]], [[[201026, 557272, 178.3], [201028, 557274, 178.1], [201026, 557274, 178.5], [201026, 557272, 178.3]]], [[[201026, 557274, 178.5], [201028, 557274, 178.1], [201028, 557276, 178.4], [201026, 557274, 178.5]]], [[[201026, 557274, 178.5], [201028, 557276, 178.4], [201026, 557276, 178.7], [201026, 557274, 178.5]]], [[[201026, 557276, 178.7], [201028, 557276, 178.4], [201028, 557278, 178.6], [201026, 557276, 178.7]]], [[[201026, 557276, 178.7], [201028, 557278, 178.6], [201026, 557278, 179.0], [201026, 557276, 178.7]]], [[[201026, 557278, 179.0], [201028, 557278, 178.6], [201028, 557280, 178.8], [201026, 557278, 179.0]]], [[[201026, 557278, 179.0], [201028, 557280, 178.8], [201026, 557280, 179.2], [201026, 557278, 179.0]]], [[[201026, 557280, 179.2], [201028, 557280, 178.8], [201028, 557282, 179.0], [201026, 557280, 179.2]]], [[[201026, 557280, 179.2], [201028, 557282, 179.0], [201026, 557282, 179.4], [201026, 557280, 179.2]]], [[[201026, 557282, 179.4], [201028, 557282, 179.0], [201028, 557284, 179.3], [201026, 557282, 179.4]]], [[[201026, 557282, 179.4], [201028, 557284, 179.3], [201026, 557284, 179.6], [201026, 557282, 179.4]]], [[[201026, 557284, 179.6], [201028, 557284, 179.3], [201028, 557286, 179.5], [201026, 557284, 179.6]]], [[[201026, 557284, 179.6], [201028, 557286, 179.5], [201026, 557286, 179.9], [201026, 557284, 179.6]]], [[[201028, 557252, 178.1], [201030, 557252, 175.3], [201030, 557254, 175.5], [201028, 557252, 178.1]]], [[[201028, 557252, 178.1], [201030, 557254, 175.5], [201028, 557254, 175.9], [201028, 557252, 178.1]]], [[[201028, 557254, 175.9], [201030, 557254, 175.5], [201030, 557256, 175.7], [201028, 557254, 175.9]]], [[[201028, 557254, 175.9], [201030, 557256, 175.7], [201028, 557256, 176.1], [201028, 557254, 175.9]]], [[[201028, 557256, 176.1], [201030, 557256, 175.7], [201030, 557258, 176.0], [201028, 557256, 176.1]]], [[[201028, 557256, 176.1], [201030, 557258, 176.0], [201028, 557258, 176.3], [201028, 557256, 176.1]]], [[[201028, 557258, 176.3], [201030, 557258, 176.0], [201030, 557260, 176.2], [201028, 557258, 176.3]]], [[[201028, 557258, 176.3], [201030, 557260, 176.2], [201028, 557260, 178.7], [201028, 557258, 176.3]]], [[[201028, 557260, 178.7], [201030, 557260, 176.2], [201030, 557262, 176.4], [201028, 557260, 178.7]]], [[[201028, 557260, 178.7], [201030, 557262, 176.4], [201028, 557262, 179.0], [201028, 557260, 178.7]]], [[[201028, 557262, 179.0], [201030, 557262, 176.4], [201030, 557264, 178.8], [201028, 557262, 179.0]]], [[[201028, 557262, 179.0], [201030, 557264, 178.8], [201028, 557264, 179.2], [201028, 557262, 179.0]]], [[[201028, 557264, 179.2], [201030, 557264, 178.8], [201030, 557266, 179.1], [201028, 557264, 179.2]]], [[[201028, 557264, 179.2], [201030, 557266, 179.1], [201028, 557266, 179.5], [201028, 557264, 179.2]]], [[[201028, 557266, 179.5], [201030, 557266, 179.1], [201030, 557268, 179.4], [201028, 557266, 179.5]]], [[[201028, 557266, 179.5], [201030, 557268, 179.4], [201028, 557268, 177.5], [201028, 557266, 179.5]]], [[[201028, 557268, 177.5], [201030, 557268, 179.4], [201030, 557270, 179.7], [201028, 557268, 177.5]]], [[[201028, 557268, 177.5], [201030, 557270, 179.7], [201028, 557270, 177.7], [201028, 557268, 177.5]]], [[[201028, 557270, 177.7], [201030, 557270, 179.7], [201030, 557272, 177.5], [201028, 557270, 177.7]]], [[[201028, 557270, 177.7], [201030, 557272, 177.5], [201028, 557272, 177.9], [201028, 557270, 177.7]]], [[[201028, 557272, 177.9], [201030, 557272, 177.5], [201030, 557274, 177.8], [201028, 557272, 177.9]]], [[[201028, 557272, 177.9], [201030, 557274, 177.8], [201028, 557274, 178.1], [201028, 557272, 177.9]]], [[[201028, 557274, 178.1], [201030, 557274, 177.8], [201030, 557276, 178.0], [201028, 557274, 178.1]]], [[[201028, 557274, 178.1], [201030, 557276, 178.0], [201028, 557276, 178.4], [201028, 557274, 178.1]]], [[[201028, 557276, 178.4], [201030, 557276, 178.0], [201030, 557278, 178.2], [201028, 557276, 178.4]]], [[[201028, 557276, 178.4], [201030, 557278, 178.2], [201028, 557278, 178.6], [201028, 557276, 178.4]]], [[[201028, 557278, 178.6], [201030, 557278, 178.2], [201030, 557280, 178.4], [201028, 557278, 178.6]]], [[[201028, 557278, 178.6], [201030, 557280, 178.4], [201028, 557280, 178.8], [201028, 557278, 178.6]]], [[[201028, 557280, 178.8], [201030, 557280, 178.4], [201030, 557282, 178.7], [201028, 557280, 178.8]]], [[[201028, 557280, 178.8], [201030, 557282, 178.7], [201028, 557282, 179.0], [201028, 557280, 178.8]]], [[[201028, 557282, 179.0], [201030, 557282, 178.7], [201030, 557284, 178.9], [201028, 557282, 179.0]]], [[[201028, 557282, 179.0], [201030, 557284, 178.9], [201028, 557284, 179.3], [201028, 557282, 179.0]]], [[[201028, 557284, 179.3], [201030, 557284, 178.9], [201028, 557286, 179.5], [201028, 557284, 179.3]]], [[[201030, 557252, 175.3], [201032, 557252, 174.9], [201032, 557254, 175.1], [201030, 557252, 175.3]]], [[[201030, 557252, 175.3], [201032, 557254, 175.1], [201030, 557254, 175.5], [201030, 557252, 175.3]]], [[[201030, 557254, 175.5], [201032, 557254, 175.1], [201032, 557256, 175.4], [201030, 557254, 175.5]]], [[[201030, 557254, 175.5], [201032, 557256, 175.4], [201030, 557256, 175.7], [201030, 557254, 175.5]]], [[[201030, 557256, 175.7], [201032, 557256, 175.4], [201032, 557258, 177.8], [201030, 557256, 175.7]]], [[[201030, 557256, 175.7], [201032, 557258, 177.8], [201030, 557258, 176.0], [201030, 557256, 175.7]]], [[[201030, 557258, 176.0], [201032, 557258, 177.8], [201032, 557260, 178.1], [201030, 557258, 176.0]]], [[[201030, 557258, 176.0], [201032, 557260, 178.1], [201030, 557260, 176.2], [201030, 557258, 176.0]]], [[[201030, 557260, 176.2], [201032, 557260, 178.1], [201032, 557262, 176.0], [201030, 557260, 176.2]]], [[[201030, 557260, 176.2], [201032, 557262, 176.0], [201030, 557262, 176.4], [201030, 557260, 176.2]]], [[[201030, 557262, 176.4], [201032, 557262, 176.0], [201032, 557264, 176.3], [201030, 557262, 176.4]]], [[[201030, 557262, 176.4], [201032, 557264, 176.3], [201030, 557264, 178.8], [201030, 557262, 176.4]]], [[[201030, 557264, 178.8], [201032, 557264, 176.3], [201032, 557266, 178.6], [201030, 557264, 178.8]]], [[[201030, 557264, 178.8], [201032, 557266, 178.6], [201030, 557266, 179.1], [201030, 557264, 178.8]]], [[[201030, 557266, 179.1], [201032, 557266, 178.6], [201032, 557268, 178.9], [201030, 557266, 179.1]]], [[[201030, 557266, 179.1], [201032, 557268, 178.9], [201030, 557268, 179.4], [201030, 557266, 179.1]]], [[[201030, 557268, 179.4], [201032, 557268, 178.9], [201032, 557270, 179.2], [201030, 557268, 179.4]]], [[[201030, 557268, 179.4], [201032, 557270, 179.2], [201030, 557270, 179.7], [201030, 557268, 179.4]]], [[[201030, 557270, 179.7], [201032, 557270, 179.2], [201032, 557272, 179.5], [201030, 557270, 179.7]]], [[[201030, 557270, 179.7], [201032, 557272, 179.5], [201030, 557272, 177.5], [201030, 557270, 179.7]]], [[[201030, 557272, 177.5], [201032, 557272, 179.5], [201032, 557274, 178.5], [201030, 557272, 177.5]]], [[[201030, 557272, 177.5], [201032, 557274, 178.5], [201030, 557274, 177.8], [201030, 557272, 177.5]]], [[[201030, 557274, 177.8], [201032, 557274, 178.5], [201032, 557276, 177.6], [201030, 557274, 177.8]]], [[[201030, 557274, 177.8], [201032, 557276, 177.6], [201030, 557276, 178.0], [201030, 557274, 177.8]]], [[[201030, 557276, 178.0], [201032, 557276, 177.6], [201032, 557278, 177.8], [201030, 557276, 178.0]]], [[[201030, 557276, 178.0], [201032, 557278, 177.8], [201030, 557278, 178.2], [201030, 557276, 178.0]]], [[[201030, 557278, 178.2], [201032, 557278, 177.8], [201032, 557280, 178.1], [201030, 557278, 178.2]]], [[[201030, 557278, 178.2], [201032, 557280, 178.1], [201030, 557280, 178.4], [201030, 557278, 178.2]]], [[[201030, 557280, 178.4], [201032, 557280, 178.1], [201032, 557282, 178.3], [201030, 557280, 178.4]]], [[[201030, 557280, 178.4], [201032, 557282, 178.3], [201030, 557282, 178.7], [201030, 557280, 178.4]]], [[[201030, 557282, 178.7], [201032, 557282, 178.3], [201032, 557284, 178.5], [201030, 557282, 178.7]]], [[[201030, 557282, 178.7], [201032, 557284, 178.5], [201030, 557284, 178.9], [201030, 557282, 178.7]]], [[[201032, 557250, 174.7], [201034, 557250, 174.3], [201034, 557252, 174.5], [201032, 557250, 174.7]]], [[[201032, 557250, 174.7], [201034, 557252, 174.5], [201032, 557252, 174.9], [201032, 557250, 174.7]]], [[[201032, 557252, 174.9], [201034, 557252, 174.5], [201034, 557254, 174.8], [201032, 557252, 174.9]]], [[[201032, 557252, 174.9], [201034, 557254, 174.8], [201032, 557254, 175.1], [201032, 557252, 174.9]]], [[[201032, 557254, 175.1], [201034, 557254, 174.8], [201034, 557256, 175.0], [201032, 557254, 175.1]]], [[[201032, 557254, 175.1], [201034, 557256, 175.0], [201032, 557256, 175.4], [201032, 557254, 175.1]]], [[[201032, 557256, 175.4], [201034, 557256, 175.0], [201034, 557258, 177.4], [201032, 557256, 175.4]]], [[[201032, 557256, 175.4], [201034, 557258, 177.4], [201032, 557258, 177.8], [201032, 557256, 175.4]]], [[[201032, 557258, 177.8], [201034, 557258, 177.4], [201034, 557260, 177.7], [201032, 557258, 177.8]]], [[[201032, 557258, 177.8], [201034, 557260, 177.7], [201032, 557260, 178.1], [201032, 557258, 177.8]]], [[[201032, 557260, 178.1], [201034, 557260, 177.7], [201034, 557262, 178.0], [201032, 557260, 178.1]]], [[[201032, 557260, 178.1], [201034, 557262, 178.0], [201032, 557262, 176.0], [201032, 557260, 178.1]]], [[[201032, 557262, 176.0], [201034, 557262, 178.0], [201034, 557264, 178.2], [201032, 557262, 176.0]]], [[[201032, 557262, 176.0], [201034, 557264, 178.2], [201032, 557264, 176.3], [201032, 557262, 176.0]]], [[[201032, 557264, 176.3], [201034, 557264, 178.2], [201034, 557266, 176.1], [201032, 557264, 176.3]]], [[[201032, 557264, 176.3], [201034, 557266, 176.1], [201032, 557266, 178.6], [201032, 557264, 176.3]]], [[[201032, 557266, 178.6], [201034, 557266, 176.1], [201034, 557268, 176.3], [201032, 557266, 178.6]]], [[[201032, 557266, 178.6], [201034, 557268, 176.3], [201032, 557268, 178.9], [201032, 557266, 178.6]]], [[[201032, 557268, 178.9], [201034, 557268, 176.3], [201034, 557270, 178.8], [201032, 557268, 178.9]]], [[[201032, 557268, 178.9], [201034, 557270, 178.8], [201032, 557270, 179.2], [201032, 557268, 178.9]]], [[[201032, 557270, 179.2], [201034, 557270, 178.8], [201034, 557272, 179.0], [201032, 557270, 179.2]]], [[[201032, 557270, 179.2], [201034, 557272, 179.0], [201032, 557272, 179.5], [201032, 557270, 179.2]]], [[[201032, 557272, 179.5], [201034, 557272, 179.0], [201034, 557274, 179.3], [201032, 557272, 179.5]]], [[[201032, 557272, 179.5], [201034, 557274, 179.3], [201032, 557274, 178.5], [201032, 557272, 179.5]]], [[[201032, 557274, 178.5], [201034, 557274, 179.3], [201034, 557276, 179.6], [201032, 557274, 178.5]]], [[[201032, 557274, 178.5], [201034, 557276, 179.6], [201032, 557276, 177.6], [201032, 557274, 178.5]]], [[[201032, 557276, 177.6], [201034, 557276, 179.6], [201034, 557278, 177.4], [201032, 557276, 177.6]]], [[[201032, 557276, 177.6], [201034, 557278, 177.4], [201032, 557278, 177.8], [201032, 557276, 177.6]]], [[[201032, 557278, 177.8], [201034, 557278, 177.4], [201034, 557280, 177.7], [201032, 557278, 177.8]]], [[[201032, 557278, 177.8], [201034, 557280, 177.7], [201032, 557280, 178.1], [201032, 557278, 177.8]]], [[[201032, 557280, 178.1], [201034, 557280, 177.7], [201034, 557282, 177.9], [201032, 557280, 178.1]]], [[[201032, 557280, 178.1], [201034, 557282, 177.9], [201032, 557282, 178.3], [201032, 557280, 178.1]]], [[[201032, 557282, 178.3], [201034, 557282, 177.9], [201034, 557284, 178.1], [201032, 557282, 178.3]]], [[[201032, 557282, 178.3], [201034, 557284, 178.1], [201032, 557284, 178.5], [201032, 557282, 178.3]]], [[[201034, 557248, 174.1], [201036, 557250, 174.0], [201034, 557250, 174.3], [201034, 557248, 174.1]]], [[[201034, 557250, 174.3], [201036, 557250, 174.0], [201036, 557252, 174.2], [201034, 557250, 174.3]]], [[[201034, 557250, 174.3], [201036, 557252, 174.2], [201034, 557252, 174.5], [201034, 557250, 174.3]]], [[[201034, 557252, 174.5], [201036, 557252, 174.2], [201036, 557254, 174.4], [201034, 557252, 174.5]]], [[[201034, 557252, 174.5], [201036, 557254, 174.4], [201034, 557254, 174.8], [201034, 557252, 174.5]]], [[[201034, 557254, 174.8], [201036, 557254, 174.4], [201036, 557256, 176.9], [201034, 557254, 174.8]]], [[[201034, 557254, 174.8], [201036, 557256, 176.9], [201034, 557256, 175.0], [201034, 557254, 174.8]]], [[[201034, 557256, 175.0], [201036, 557256, 176.9], [201036, 557258, 174.8], [201034, 557256, 175.0]]], [[[201034, 557256, 175.0], [201036, 557258, 174.8], [201034, 557258, 177.4], [201034, 557256, 175.0]]], [[[201034, 557258, 177.4], [201036, 557258, 174.8], [201036, 557260, 177.2], [201034, 557258, 177.4]]], [[[201034, 557258, 177.4], [201036, 557260, 177.2], [201034, 557260, 177.7], [201034, 557258, 177.4]]], [[[201034, 557260, 177.7], [201036, 557260, 177.2], [201036, 557262, 177.5], [201034, 557260, 177.7]]], [[[201034, 557260, 177.7], [201036, 557262, 177.5], [201034, 557262, 178.0], [201034, 557260, 177.7]]], [[[201034, 557262, 178.0], [201036, 557262, 177.5], [201036, 557264, 177.8], [201034, 557262, 178.0]]], [[[201034, 557262, 178.0], [201036, 557264, 177.8], [201034, 557264, 178.2], [201034, 557262, 178.0]]], [[[201034, 557264, 178.2], [201036, 557264, 177.8], [201036, 557266, 178.1], [201034, 557264, 178.2]]], [[[201034, 557264, 178.2], [201036, 557266, 178.1], [201034, 557266, 176.1], [201034, 557264, 178.2]]], [[[201034, 557266, 176.1], [201036, 557266, 178.1], [201036, 557268, 178.4], [201034, 557266, 176.1]]], [[[201034, 557266, 176.1], [201036, 557268, 178.4], [201034, 557268, 176.3], [201034, 557266, 176.1]]], [[[201034, 557268, 176.3], [201036, 557268, 178.4], [201036, 557270, 176.2], [201034, 557268, 176.3]]], [[[201034, 557268, 176.3], [201036, 557270, 176.2], [201034, 557270, 178.8], [201034, 557268, 176.3]]], [[[201034, 557270, 178.8], [201036, 557270, 176.2], [201036, 557272, 178.6], [201034, 557270, 178.8]]], [[[201034, 557270, 178.8], [201036, 557272, 178.6], [201034, 557272, 179.0], [201034, 557270, 178.8]]], [[[201034, 557272, 179.0], [201036, 557272, 178.6], [201036, 557274, 178.9], [201034, 557272, 179.0]]], [[[201034, 557272, 179.0], [201036, 557274, 178.9], [201034, 557274, 179.3], [201034, 557272, 179.0]]], [[[201034, 557274, 179.3], [201036, 557274, 178.9], [201036, 557276, 179.2], [201034, 557274, 179.3]]], [[[201034, 557274, 179.3], [201036, 557276, 179.2], [201034, 557276, 179.6], [201034, 557274, 179.3]]], [[[201034, 557276, 179.6], [201036, 557276, 179.2], [201036, 557278, 179.5], [201034, 557276, 179.6]]], [[[201034, 557276, 179.6], [201036, 557278, 179.5], [201034, 557278, 177.4], [201034, 557276, 179.6]]], [[[201034, 557278, 177.4], [201036, 557278, 179.5], [201036, 557280, 179.7], [201034, 557278, 177.4]]], [[[201034, 557278, 177.4], [201036, 557280, 179.7], [201034, 557280, 177.7], [201034, 557278, 177.4]]], [[[201034, 557280, 177.7], [201036, 557280, 179.7], [201036, 557282, 177.5], [201034, 557280, 177.7]]], [[[201034, 557280, 177.7], [201036, 557282, 177.5], [201034, 557282, 177.9], [201034, 557280, 177.7]]], [[[201034, 557282, 177.9], [201036, 557282, 177.5], [201036, 557284, 177.7], [201034, 557282, 177.9]]], [[[201034, 557282, 177.9], [201036, 557284, 177.7], [201034, 557284, 178.1], [201034, 557282, 177.9]]], [[[201036, 557250, 174.0], [201038, 557250, 173.6], [201038, 557252, 173.8], [201036, 557250, 174.0]]], [[[201036, 557250, 174.0], [201038, 557252, 173.8], [201036, 557252, 174.2], [201036, 557250, 174.0]]], [[[201036, 557252, 174.2], [201038, 557252, 173.8], [201038, 557254, 176.1], [201036, 557252, 174.2]]], [[[201036, 557252, 174.2], [201038, 557254, 176.1], [201036, 557254, 174.4], [201036, 557252, 174.2]]], [[[201036, 557254, 174.4], [201038, 557254, 176.1], [201038, 557256, 176.4], [201036, 557254, 174.4]]], [[[201036, 557254, 174.4], [201038, 557256, 176.4], [201036, 557256, 176.9], [201036, 557254, 174.4]]], [[[201036, 557256, 176.9], [201038, 557256, 176.4], [201038, 557258, 176.7], [201036, 557256, 176.9]]], [[[201036, 557256, 176.9], [201038, 557258, 176.7], [201036, 557258, 174.8], [201036, 557256, 176.9]]], [[[201036, 557258, 174.8], [201038, 557258, 176.7], [201038, 557260, 174.7], [201036, 557258, 174.8]]], [[[201036, 557258, 174.8], [201038, 557260, 174.7], [201036, 557260, 177.2], [201036, 557258, 174.8]]], [[[201036, 557260, 177.2], [201038, 557260, 174.7], [201038, 557262, 174.9], [201036, 557260, 177.2]]], [[[201036, 557260, 177.2], [201038, 557262, 174.9], [201036, 557262, 177.5], [201036, 557260, 177.2]]], [[[201036, 557262, 177.5], [201038, 557262, 174.9], [201038, 557264, 177.3], [201036, 557262, 177.5]]], [[[201036, 557262, 177.5], [201038, 557264, 177.3], [201036, 557264, 177.8], [201036, 557262, 177.5]]], [[[201036, 557264, 177.8], [201038, 557264, 177.3], [201038, 557266, 177.6], [201036, 557264, 177.8]]], [[[201036, 557264, 177.8], [201038, 557266, 177.6], [201036, 557266, 178.1], [201036, 557264, 177.8]]], [[[201036, 557266, 178.1], [201038, 557266, 177.6], [201038, 557268, 177.9], [201036, 557266, 178.1]]], [[[201036, 557266, 178.1], [201038, 557268, 177.9], [201036, 557268, 178.4], [201036, 557266, 178.1]]], [[[201036, 557268, 178.4], [201038, 557268, 177.9], [201038, 557270, 178.2], [201036, 557268, 178.4]]], [[[201036, 557268, 178.4], [201038, 557270, 178.2], [201036, 557270, 176.2], [201036, 557268, 178.4]]], [[[201036, 557270, 176.2], [201038, 557270, 178.2], [201038, 557272, 176.0], [201036, 557270, 176.2]]], [[[201036, 557270, 176.2], [201038, 557272, 176.0], [201036, 557272, 178.6], [201036, 557270, 176.2]]], [[[201036, 557272, 178.6], [201038, 557272, 176.0], [201038, 557274, 176.2], [201036, 557272, 178.6]]], [[[201036, 557272, 178.6], [201038, 557274, 176.2], [201036, 557274, 178.9], [201036, 557272, 178.6]]], [[[201036, 557274, 178.9], [201038, 557274, 176.2], [201038, 557276, 178.7], [201036, 557274, 178.9]]], [[[201036, 557274, 178.9], [201038, 557276, 178.7], [201036, 557276, 179.2], [201036, 557274, 178.9]]], [[[201036, 557276, 179.2], [201038, 557276, 178.7], [201038, 557278, 179.0], [201036, 557276, 179.2]]], [[[201036, 557276, 179.2], [201038, 557278, 179.0], [201036, 557278, 179.5], [201036, 557276, 179.2]]], [[[201036, 557278, 179.5], [201038, 557278, 179.0], [201038, 557280, 179.3], [201036, 557278, 179.5]]], [[[201036, 557278, 179.5], [201038, 557280, 179.3], [201036, 557280, 179.7], [201036, 557278, 179.5]]], [[[201036, 557280, 179.7], [201038, 557280, 179.3], [201038, 557282, 177.1], [201036, 557280, 179.7]]], [[[201036, 557280, 179.7], [201038, 557282, 177.1], [201036, 557282, 177.5], [201036, 557280, 179.7]]], [[[201036, 557282, 177.5], [201038, 557282, 177.1], [201036, 557284, 177.7], [201036, 557282, 177.5]]], [[[201038, 557248, 173.4], [201040, 557248, 173.1], [201040, 557250, 173.3], [201038, 557248, 173.4]]], [[[201038, 557248, 173.4], [201040, 557250, 173.3], [201038, 557250, 173.6], [201038, 557248, 173.4]]], [[[201038, 557250, 173.6], [201040, 557250, 173.3], [201040, 557252, 173.5], [201038, 557250, 173.6]]], [[[201038, 557250, 173.6], [201040, 557252, 173.5], [201038, 557252, 173.8], [201038, 557250, 173.6]]], [[[201038, 557252, 173.8], [201040, 557252, 173.5], [201040, 557254, 175.7], [201038, 557252, 173.8]]], [[[201038, 557252, 173.8], [201040, 557254, 175.7], [201038, 557254, 176.1], [201038, 557252, 173.8]]], [[[201038, 557254, 176.1], [201040, 557254, 175.7], [201040, 557256, 176.0], [201038, 557254, 176.1]]], [[[201038, 557254, 176.1], [201040, 557256, 176.0], [201038, 557256, 176.4], [201038, 557254, 176.1]]], [[[201038, 557256, 176.4], [201040, 557256, 176.0], [201040, 557258, 176.3], [201038, 557256, 176.4]]], [[[201038, 557256, 176.4], [201040, 557258, 176.3], [201038, 557258, 176.7], [201038, 557256, 176.4]]], [[[201038, 557258, 176.7], [201040, 557258, 176.3], [201040, 557260, 176.5], [201038, 557258, 176.7]]], [[[201038, 557258, 176.7], [201040, 557260, 176.5], [201038, 557260, 174.7], [201038, 557258, 176.7]]], [[[201038, 557260, 174.7], [201040, 557260, 176.5], [201040, 557262, 176.8], [201038, 557260, 174.7]]], [[[201038, 557260, 174.7], [201040, 557262, 176.8], [201038, 557262, 174.9], [201038, 557260, 174.7]]], [[[201038, 557262, 174.9], [201040, 557262, 176.8], [201040, 557264, 174.7], [201038, 557262, 174.9]]], [[[201038, 557262, 174.9], [201040, 557264, 174.7], [201038, 557264, 177.3], [201038, 557262, 174.9]]], [[[201038, 557264, 177.3], [201040, 557264, 174.7], [201040, 557266, 177.2], [201038, 557264, 177.3]]], [[[201038, 557264, 177.3], [201040, 557266, 177.2], [201038, 557266, 177.6], [201038, 557264, 177.3]]], [[[201038, 557266, 177.6], [201040, 557266, 177.2], [201040, 557268, 177.5], [201038, 557266, 177.6]]], [[[201038, 557266, 177.6], [201040, 557268, 177.5], [201038, 557268, 177.9], [201038, 557266, 177.6]]], [[[201038, 557268, 177.9], [201040, 557268, 177.5], [201040, 557270, 177.8], [201038, 557268, 177.9]]], [[[201038, 557268, 177.9], [201040, 557270, 177.8], [201038, 557270, 178.2], [201038, 557268, 177.9]]], [[[201038, 557270, 178.2], [201040, 557270, 177.8], [201040, 557272, 178.1], [201038, 557270, 178.2]]], [[[201038, 557270, 178.2], [201040, 557272, 178.1], [201038, 557272, 176.0], [201038, 557270, 178.2]]], [[[201038, 557272, 176.0], [201040, 557272, 178.1], [201040, 557274, 178.3], [201038, 557272, 176.0]]], [[[201038, 557272, 176.0], [201040, 557274, 178.3], [201038, 557274, 176.2], [201038, 557272, 176.0]]], [[[201038, 557274, 176.2], [201040, 557274, 178.3], [201040, 557276, 176.1], [201038, 557274, 176.2]]], [[[201038, 557274, 176.2], [201040, 557276, 176.1], [201038, 557276, 178.7], [201038, 557274, 176.2]]], [[[201038, 557276, 178.7], [201040, 557276, 176.1], [201040, 557278, 178.6], [201038, 557276, 178.7]]], [[[201038, 557276, 178.7], [201040, 557278, 178.6], [201038, 557278, 179.0], [201038, 557276, 178.7]]], [[[201038, 557278, 179.0], [201040, 557278, 178.6], [201040, 557280, 177.9], [201038, 557278, 179.0]]], [[[201038, 557278, 179.0], [201040, 557280, 177.9], [201038, 557280, 179.3], [201038, 557278, 179.0]]], [[[201038, 557280, 179.3], [201040, 557280, 177.9], [201040, 557282, 176.8], [201038, 557280, 179.3]]], [[[201038, 557280, 179.3], [201040, 557282, 176.8], [201038, 557282, 177.1], [201038, 557280, 179.3]]], [[[201038, 557282, 177.1], [201040, 557282, 176.8], [201040, 557284, 177.0], [201038, 557282, 177.1]]], [[[201040, 557244, 175.0], [201042, 557244, 172.3], [201042, 557246, 172.5], [201040, 557244, 175.0]]], [[[201040, 557244, 175.0], [201042, 557246, 172.5], [201040, 557246, 172.9], [201040, 557244, 175.0]]], [[[201040, 557246, 172.9], [201042, 557246, 172.5], [201042, 557248, 172.7], [201040, 557246, 172.9]]], [[[201040, 557246, 172.9], [201042, 557248, 172.7], [201040, 557248, 173.1], [201040, 557246, 172.9]]], [[[201040, 557248, 173.1], [201042, 557248, 172.7], [201042, 557250, 172.9], [201040, 557248, 173.1]]], [[[201040, 557248, 173.1], [201042, 557250, 172.9], [201040, 557250, 173.3], [201040, 557248, 173.1]]], [[[201040, 557250, 173.3], [201042, 557250, 172.9], [201042, 557252, 175.4], [201040, 557250, 173.3]]], [[[201040, 557250, 173.3], [201042, 557252, 175.4], [201040, 557252, 173.5], [201040, 557250, 173.3]]], [[[201040, 557252, 173.5], [201042, 557252, 175.4], [201042, 557254, 173.4], [201040, 557252, 173.5]]], [[[201040, 557252, 173.5], [201042, 557254, 173.4], [201040, 557254, 175.7], [201040, 557252, 173.5]]], [[[201040, 557254, 175.7], [201042, 557254, 173.4], [201042, 557256, 173.5], [201040, 557254, 175.7]]], [[[201040, 557254, 175.7], [201042, 557256, 173.5], [201040, 557256, 176.0], [201040, 557254, 175.7]]], [[[201040, 557256, 176.0], [201042, 557256, 173.5], [201042, 557258, 175.8], [201040, 557256, 176.0]]], [[[201040, 557256, 176.0], [201042, 557258, 175.8], [201040, 557258, 176.3], [201040, 557256, 176.0]]], [[[201040, 557258, 176.3], [201042, 557258, 175.8], [201042, 557260, 176.1], [201040, 557258, 176.3]]], [[[201040, 557258, 176.3], [201042, 557260, 176.1], [201040, 557260, 176.5], [201040, 557258, 176.3]]], [[[201040, 557260, 176.5], [201042, 557260, 176.1], [201042, 557262, 176.4], [201040, 557260, 176.5]]], [[[201040, 557260, 176.5], [201042, 557262, 176.4], [201040, 557262, 176.8], [201040, 557260, 176.5]]], [[[201040, 557262, 176.8], [201042, 557262, 176.4], [201042, 557264, 176.7], [201040, 557262, 176.8]]], [[[201040, 557262, 176.8], [201042, 557264, 176.7], [201040, 557264, 174.7], [201040, 557262, 176.8]]], [[[201040, 557264, 174.7], [201042, 557264, 176.7], [201042, 557266, 174.6], [201040, 557264, 174.7]]], [[[201040, 557264, 174.7], [201042, 557266, 174.6], [201040, 557266, 177.2], [201040, 557264, 174.7]]], [[[201040, 557266, 177.2], [201042, 557266, 174.6], [201042, 557268, 174.8], [201040, 557266, 177.2]]], [[[201040, 557266, 177.2], [201042, 557268, 174.8], [201040, 557268, 177.5], [201040, 557266, 177.2]]], [[[201040, 557268, 177.5], [201042, 557268, 174.8], [201042, 557270, 177.3], [201040, 557268, 177.5]]], [[[201040, 557268, 177.5], [201042, 557270, 177.3], [201040, 557270, 177.8], [201040, 557268, 177.5]]], [[[201040, 557270, 177.8], [201042, 557270, 177.3], [201042, 557272, 177.6], [201040, 557270, 177.8]]], [[[201040, 557270, 177.8], [201042, 557272, 177.6], [201040, 557272, 178.1], [201040, 557270, 177.8]]], [[[201040, 557272, 178.1], [201042, 557272, 177.6], [201042, 557274, 177.9], [201040, 557272, 178.1]]], [[[201040, 557272, 178.1], [201042, 557274, 177.9], [201040, 557274, 178.3], [201040, 557272, 178.1]]], [[[201040, 557274, 178.3], [201042, 557274, 177.9], [201042, 557276, 178.2], [201040, 557274, 178.3]]], [[[201040, 557274, 178.3], [201042, 557276, 178.2], [201040, 557276, 176.1], [201040, 557274, 178.3]]], [[[201040, 557276, 176.1], [201042, 557276, 178.2], [201042, 557278, 175.9], [201040, 557276, 176.1]]], [[[201040, 557276, 176.1], [201042, 557278, 175.9], [201040, 557278, 178.6], [201040, 557276, 176.1]]], [[[201040, 557278, 178.6], [201042, 557278, 175.9], [201042, 557280, 176.2], [201040, 557278, 178.6]]], [[[201040, 557278, 178.6], [201042, 557280, 176.2], [201040, 557280, 177.9], [201040, 557278, 178.6]]], [[[201040, 557280, 177.9], [201042, 557280, 176.2], [201042, 557282, 176.4], [201040, 557280, 177.9]]], [[[201040, 557280, 177.9], [201042, 557282, 176.4], [201040, 557282, 176.8], [201040, 557280, 177.9]]], [[[201040, 557282, 176.8], [201042, 557282, 176.4], [201042, 557284, 176.6], [201040, 557282, 176.8]]], [[[201040, 557282, 176.8], [201042, 557284, 176.6], [201040, 557284, 177.0], [201040, 557282, 176.8]]], [[[201042, 557244, 172.3], [201044, 557244, 171.9], [201044, 557246, 172.2], [201042, 557244, 172.3]]], [[[201042, 557244, 172.3], [201044, 557246, 172.2], [201042, 557246, 172.5], [201042, 557244, 172.3]]], [[[201042, 557246, 172.5], [201044, 557246, 172.2], [201044, 557248, 172.4], [201042, 557246, 172.5]]], [[[201042, 557246, 172.5], [201044, 557248, 172.4], [201042, 557248, 172.7], [201042, 557246, 172.5]]], [[[201042, 557248, 172.7], [201044, 557248, 172.4], [201044, 557250, 174.6], [201042, 557248, 172.7]]], [[[201042, 557248, 172.7], [201044, 557250, 174.6], [201042, 557250, 172.9], [201042, 557248, 172.7]]], [[[201042, 557250, 172.9], [201044, 557250, 174.6], [201044, 557252, 174.9], [201042, 557250, 172.9]]], [[[201042, 557250, 172.9], [201044, 557252, 174.9], [201042, 557252, 175.4], [201042, 557250, 172.9]]], [[[201042, 557252, 175.4], [201044, 557252, 174.9], [201044, 557254, 175.2], [201042, 557252, 175.4]]], [[[201042, 557252, 175.4], [201044, 557254, 175.2], [201042, 557254, 173.4], [201042, 557252, 175.4]]], [[[201042, 557254, 173.4], [201044, 557254, 175.2], [201044, 557256, 175.5], [201042, 557254, 173.4]]], [[[201042, 557254, 173.4], [201044, 557256, 175.5], [201042, 557256, 173.5], [201042, 557254, 173.4]]], [[[201042, 557256, 173.5], [201044, 557256, 175.5], [201044, 557258, 173.4], [201042, 557256, 173.5]]], [[[201042, 557256, 173.5], [201044, 557258, 173.4], [201042, 557258, 175.8], [201042, 557256, 173.5]]], [[[201042, 557258, 175.8], [201044, 557258, 173.4], [201044, 557260, 173.6], [201042, 557258, 175.8]]], [[[201042, 557258, 175.8], [201044, 557260, 173.6], [201042, 557260, 176.1], [201042, 557258, 175.8]]], [[[201042, 557260, 176.1], [201044, 557260, 173.6], [201044, 557262, 175.9], [201042, 557260, 176.1]]], [[[201042, 557260, 176.1], [201044, 557262, 175.9], [201042, 557262, 176.4], [201042, 557260, 176.1]]], [[[201042, 557262, 176.4], [201044, 557262, 175.9], [201044, 557264, 176.2], [201042, 557262, 176.4]]], [[[201042, 557262, 176.4], [201044, 557264, 176.2], [201042, 557264, 176.7], [201042, 557262, 176.4]]], [[[201042, 557264, 176.7], [201044, 557264, 176.2], [201044, 557266, 176.5], [201042, 557264, 176.7]]], [[[201042, 557264, 176.7], [201044, 557266, 176.5], [201042, 557266, 174.6], [201042, 557264, 176.7]]], [[[201042, 557266, 174.6], [201044, 557266, 176.5], [201044, 557268, 176.8], [201042, 557266, 174.6]]], [[[201042, 557266, 174.6], [201044, 557268, 176.8], [201042, 557268, 174.8], [201042, 557266, 174.6]]], [[[201042, 557268, 174.8], [201044, 557268, 176.8], [201044, 557270, 174.7], [201042, 557268, 174.8]]], [[[201042, 557268, 174.8], [201044, 557270, 174.7], [201042, 557270, 177.3], [201042, 557268, 174.8]]], [[[201042, 557270, 177.3], [201044, 557270, 174.7], [201044, 557272, 174.9], [201042, 557270, 177.3]]], [[[201042, 557270, 177.3], [201044, 557272, 174.9], [201042, 557272, 177.6], [201042, 557270, 177.3]]], [[[201042, 557272, 177.6], [201044, 557272, 174.9], [201044, 557274, 177.4], [201042, 557272, 177.6]]], [[[201042, 557272, 177.6], [201044, 557274, 177.4], [201042, 557274, 177.9], [201042, 557272, 177.6]]], [[[201042, 557274, 177.9], [201044, 557274, 177.4], [201044, 557276, 177.7], [201042, 557274, 177.9]]], [[[201042, 557274, 177.9], [201044, 557276, 177.7], [201042, 557276, 178.2], [201042, 557274, 177.9]]], [[[201042, 557276, 178.2], [201044, 557276, 177.7], [201044, 557278, 175.6], [201042, 557276, 178.2]]], [[[201042, 557276, 178.2], [201044, 557278, 175.6], [201042, 557278, 175.9], [201042, 557276, 178.2]]], [[[201042, 557278, 175.9], [201044, 557278, 175.6], [201044, 557280, 175.8], [201042, 557278, 175.9]]], [[[201042, 557278, 175.9], [201044, 557280, 175.8], [201042, 557280, 176.2], [201042, 557278, 175.9]]], [[[201042, 557280, 176.2], [201044, 557280, 175.8], [201044, 557282, 176.0], [201042, 557280, 176.2]]], [[[201042, 557280, 176.2], [201044, 557282, 176.0], [201042, 557282, 176.4], [201042, 557280, 176.2]]], [[[201042, 557282, 176.4], [201044, 557282, 176.0], [201044, 557284, 179.0], [201042, 557282, 176.4]]], [[[201042, 557282, 176.4], [201044, 557284, 179.0], [201042, 557284, 176.6], [201042, 557282, 176.4]]], [[[201044, 557242, 174.1], [201046, 557242, 171.4], [201046, 557244, 171.6], [201044, 557242, 174.1]]], [[[201044, 557242, 174.1], [201046, 557244, 171.6], [201044, 557244, 171.9], [201044, 557242, 174.1]]], [[[201044, 557244, 171.9], [201046, 557244, 171.6], [201046, 557246, 171.8], [201044, 557244, 171.9]]], [[[201044, 557244, 171.9], [201046, 557246, 171.8], [201044, 557246, 172.2], [201044, 557244, 171.9]]], [[[201044, 557246, 172.2], [201046, 557246, 171.8], [201046, 557248, 172.0], [201044, 557246, 172.2]]], [[[201044, 557246, 172.2], [201046, 557248, 172.0], [201044, 557248, 172.4], [201044, 557246, 172.2]]], [[[201044, 557248, 172.4], [201046, 557248, 172.0], [201046, 557250, 172.2], [201044, 557248, 172.4]]], [[[201044, 557248, 172.4], [201046, 557250, 172.2], [201044, 557250, 174.6], [201044, 557248, 172.4]]], [[[201044, 557250, 174.6], [201046, 557250, 172.2], [201046, 557252, 174.5], [201044, 557250, 174.6]]], [[[201044, 557250, 174.6], [201046, 557252, 174.5], [201044, 557252, 174.9], [201044, 557250, 174.6]]], [[[201044, 557252, 174.9], [201046, 557252, 174.5], [201046, 557254, 174.8], [201044, 557252, 174.9]]], [[[201044, 557252, 174.9], [201046, 557254, 174.8], [201044, 557254, 175.2], [201044, 557252, 174.9]]], [[[201044, 557254, 175.2], [201046, 557254, 174.8], [201046, 557256, 175.1], [201044, 557254, 175.2]]], [[[201044, 557254, 175.2], [201046, 557256, 175.1], [201044, 557256, 175.5], [201044, 557254, 175.2]]], [[[201044, 557256, 175.5], [201046, 557256, 175.1], [201046, 557258, 175.3], [201044, 557256, 175.5]]], [[[201044, 557256, 175.5], [201046, 557258, 175.3], [201044, 557258, 173.4], [201044, 557256, 175.5]]], [[[201044, 557258, 173.4], [201046, 557258, 175.3], [201046, 557260, 173.2], [201044, 557258, 173.4]]], [[[201044, 557258, 173.4], [201046, 557260, 173.2], [201044, 557260, 173.6], [201044, 557258, 173.4]]], [[[201044, 557260, 173.6], [201046, 557260, 173.2], [201046, 557262, 173.5], [201044, 557260, 173.6]]], [[[201044, 557260, 173.6], [201046, 557262, 173.5], [201044, 557262, 175.9], [201044, 557260, 173.6]]], [[[201044, 557262, 175.9], [201046, 557262, 173.5], [201046, 557264, 175.8], [201044, 557262, 175.9]]], [[[201044, 557262, 175.9], [201046, 557264, 175.8], [201044, 557264, 176.2], [201044, 557262, 175.9]]], [[[201044, 557264, 176.2], [201046, 557264, 175.8], [201046, 557266, 176.1], [201044, 557264, 176.2]]], [[[201044, 557264, 176.2], [201046, 557266, 176.1], [201044, 557266, 176.5], [201044, 557264, 176.2]]], [[[201044, 557266, 176.5], [201046, 557266, 176.1], [201046, 557268, 176.3], [201044, 557266, 176.5]]], [[[201044, 557266, 176.5], [201046, 557268, 176.3], [201044, 557268, 176.8], [201044, 557266, 176.5]]], [[[201044, 557268, 176.8], [201046, 557268, 176.3], [201046, 557270, 176.6], [201044, 557268, 176.8]]], [[[201044, 557268, 176.8], [201046, 557270, 176.6], [201044, 557270, 174.7], [201044, 557268, 176.8]]], [[[201044, 557270, 174.7], [201046, 557270, 176.6], [201046, 557272, 174.5], [201044, 557270, 174.7]]], [[[201044, 557270, 174.7], [201046, 557272, 174.5], [201044, 557272, 174.9], [201044, 557270, 174.7]]], [[[201044, 557272, 174.9], [201046, 557272, 174.5], [201046, 557274, 174.7], [201044, 557272, 174.9]]], [[[201044, 557272, 174.9], [201046, 557274, 174.7], [201044, 557274, 177.4], [201044, 557272, 174.9]]], [[[201044, 557274, 177.4], [201046, 557274, 174.7], [201046, 557276, 177.3], [201044, 557274, 177.4]]], [[[201044, 557274, 177.4], [201046, 557276, 177.3], [201044, 557276, 177.7], [201044, 557274, 177.4]]], [[[201044, 557276, 177.7], [201046, 557276, 177.3], [201046, 557278, 175.2], [201044, 557276, 177.7]]], [[[201044, 557276, 177.7], [201046, 557278, 175.2], [201044, 557278, 175.6], [201044, 557276, 177.7]]], [[[201044, 557278, 175.6], [201046, 557278, 175.2], [201046, 557280, 175.4], [201044, 557278, 175.6]]], [[[201044, 557278, 175.6], [201046, 557280, 175.4], [201044, 557280, 175.8], [201044, 557278, 175.6]]], [[[201044, 557280, 175.8], [201046, 557280, 175.4], [201046, 557282, 175.7], [201044, 557280, 175.8]]], [[[201044, 557280, 175.8], [201046, 557282, 175.7], [201044, 557282, 176.0], [201044, 557280, 175.8]]], [[[201046, 557242, 171.4], [201048, 557242, 171.0], [201048, 557244, 171.2], [201046, 557242, 171.4]]], [[[201046, 557242, 171.4], [201048, 557244, 171.2], [201046, 557244, 171.6], [201046, 557242, 171.4]]], [[[201046, 557244, 171.6], [201048, 557244, 171.2], [201048, 557246, 171.4], [201046, 557244, 171.6]]], [[[201046, 557244, 171.6], [201048, 557246, 171.4], [201046, 557246, 171.8], [201046, 557244, 171.6]]], [[[201046, 557246, 171.8], [201048, 557246, 171.4], [201048, 557248, 174.1], [201046, 557246, 171.8]]], [[[201046, 557246, 171.8], [201048, 557248, 174.1], [201046, 557248, 172.0], [201046, 557246, 171.8]]], [[[201046, 557248, 172.0], [201048, 557248, 174.1], [201048, 557250, 174.4], [201046, 557248, 172.0]]], [[[201046, 557248, 172.0], [201048, 557250, 174.4], [201046, 557250, 172.2], [201046, 557248, 172.0]]], [[[201046, 557250, 172.2], [201048, 557250, 174.4], [201048, 557252, 172.0], [201046, 557250, 172.2]]], [[[201046, 557250, 172.2], [201048, 557252, 172.0], [201046, 557252, 174.5], [201046, 557250, 172.2]]], [[[201046, 557252, 174.5], [201048, 557252, 172.0], [201048, 557254, 172.3], [201046, 557252, 174.5]]], [[[201046, 557252, 174.5], [201048, 557254, 172.3], [201046, 557254, 174.8], [201046, 557252, 174.5]]], [[[201046, 557254, 174.8], [201048, 557254, 172.3], [201048, 557256, 174.6], [201046, 557254, 174.8]]], [[[201046, 557254, 174.8], [201048, 557256, 174.6], [201046, 557256, 175.1], [201046, 557254, 174.8]]], [[[201046, 557256, 175.1], [201048, 557256, 174.6], [201048, 557258, 174.9], [201046, 557256, 175.1]]], [[[201046, 557256, 175.1], [201048, 557258, 174.9], [201046, 557258, 175.3], [201046, 557256, 175.1]]], [[[201046, 557258, 175.3], [201048, 557258, 174.9], [201048, 557260, 175.2], [201046, 557258, 175.3]]], [[[201046, 557258, 175.3], [201048, 557260, 175.2], [201046, 557260, 173.2], [201046, 557258, 175.3]]], [[[201046, 557260, 173.2], [201048, 557260, 175.2], [201048, 557262, 175.5], [201046, 557260, 173.2]]], [[[201046, 557260, 173.2], [201048, 557262, 175.5], [201046, 557262, 173.5], [201046, 557260, 173.2]]], [[[201046, 557262, 173.5], [201048, 557262, 175.5], [201048, 557264, 173.3], [201046, 557262, 173.5]]], [[[201046, 557262, 173.5], [201048, 557264, 173.3], [201046, 557264, 175.8], [201046, 557262, 173.5]]], [[[201046, 557264, 175.8], [201048, 557264, 173.3], [201048, 557266, 173.5], [201046, 557264, 175.8]]], [[[201046, 557264, 175.8], [201048, 557266, 173.5], [201046, 557266, 176.1], [201046, 557264, 175.8]]], [[[201046, 557266, 176.1], [201048, 557266, 173.5], [201048, 557268, 175.9], [201046, 557266, 176.1]]], [[[201046, 557266, 176.1], [201048, 557268, 175.9], [201046, 557268, 176.3], [201046, 557266, 176.1]]], [[[201046, 557268, 176.3], [201048, 557268, 175.9], [201048, 557270, 176.2], [201046, 557268, 176.3]]], [[[201046, 557268, 176.3], [201048, 557270, 176.2], [201046, 557270, 176.6], [201046, 557268, 176.3]]], [[[201046, 557270, 176.6], [201048, 557270, 176.2], [201048, 557272, 176.5], [201046, 557270, 176.6]]], [[[201046, 557270, 176.6], [201048, 557272, 176.5], [201046, 557272, 174.5], [201046, 557270, 176.6]]], [[[201046, 557272, 174.5], [201048, 557272, 176.5], [201048, 557274, 176.8], [201046, 557272, 174.5]]], [[[201046, 557272, 174.5], [201048, 557274, 176.8], [201046, 557274, 174.7], [201046, 557272, 174.5]]], [[[201046, 557274, 174.7], [201048, 557274, 176.8], [201048, 557276, 174.6], [201046, 557274, 174.7]]], [[[201046, 557274, 174.7], [201048, 557276, 174.6], [201046, 557276, 177.3], [201046, 557274, 174.7]]], [[[201046, 557276, 177.3], [201048, 557276, 174.6], [201048, 557278, 174.8], [201046, 557276, 177.3]]], [[[201046, 557276, 177.3], [201048, 557278, 174.8], [201046, 557278, 175.2], [201046, 557276, 177.3]]], [[[201046, 557278, 175.2], [201048, 557278, 174.8], [201048, 557280, 175.0], [201046, 557278, 175.2]]], [[[201046, 557278, 175.2], [201048, 557280, 175.0], [201046, 557280, 175.4], [201046, 557278, 175.2]]], [[[201046, 557280, 175.4], [201048, 557280, 175.0], [201048, 557282, 175.3], [201046, 557280, 175.4]]], [[[201046, 557280, 175.4], [201048, 557282, 175.3], [201046, 557282, 175.7], [201046, 557280, 175.4]]], [[[201048, 557242, 171.0], [201050, 557242, 170.6], [201050, 557244, 170.8], [201048, 557242, 171.0]]], [[[201048, 557242, 171.0], [201050, 557244, 170.8], [201048, 557244, 171.2], [201048, 557242, 171.0]]], [[[201048, 557244, 171.2], [201050, 557244, 170.8], [201050, 557246, 173.4], [201048, 557244, 171.2]]], [[[201048, 557244, 171.2], [201050, 557246, 173.4], [201048, 557246, 171.4], [201048, 557244, 171.2]]], [[[201048, 557246, 171.4], [201050, 557246, 173.4], [201050, 557248, 173.7], [201048, 557246, 171.4]]], [[[201048, 557246, 171.4], [201050, 557248, 173.7], [201048, 557248, 174.1], [201048, 557246, 171.4]]], [[[201048, 557248, 174.1], [201050, 557248, 173.7], [201050, 557250, 174.0], [201048, 557248, 174.1]]], [[[201048, 557248, 174.1], [201050, 557250, 174.0], [201048, 557250, 174.4], [201048, 557248, 174.1]]], [[[201048, 557250, 174.4], [201050, 557250, 174.0], [201050, 557252, 174.2], [201048, 557250, 174.4]]], [[[201048, 557250, 174.4], [201050, 557252, 174.2], [201048, 557252, 172.0], [201048, 557250, 174.4]]], [[[201048, 557252, 172.0], [201050, 557252, 174.2], [201050, 557254, 174.5], [201048, 557252, 172.0]]], [[[201048, 557252, 172.0], [201050, 557254, 174.5], [201048, 557254, 172.3], [201048, 557252, 172.0]]], [[[201048, 557254, 172.3], [201050, 557254, 174.5], [201050, 557256, 172.1], [201048, 557254, 172.3]]], [[[201048, 557254, 172.3], [201050, 557256, 172.1], [201048, 557256, 174.6], [201048, 557254, 172.3]]], [[[201048, 557256, 174.6], [201050, 557256, 172.1], [201050, 557258, 174.5], [201048, 557256, 174.6]]], [[[201048, 557256, 174.6], [201050, 557258, 174.5], [201048, 557258, 174.9], [201048, 557256, 174.6]]], [[[201048, 557258, 174.9], [201050, 557258, 174.5], [201050, 557260, 174.7], [201048, 557258, 174.9]]], [[[201048, 557258, 174.9], [201050, 557260, 174.7], [201048, 557260, 175.2], [201048, 557258, 174.9]]], [[[201048, 557260, 175.2], [201050, 557260, 174.7], [201050, 557262, 175.0], [201048, 557260, 175.2]]], [[[201048, 557260, 175.2], [201050, 557262, 175.0], [201048, 557262, 175.5], [201048, 557260, 175.2]]], [[[201048, 557262, 175.5], [201050, 557262, 175.0], [201050, 557264, 175.3], [201048, 557262, 175.5]]], [[[201048, 557262, 175.5], [201050, 557264, 175.3], [201048, 557264, 173.3], [201048, 557262, 175.5]]], [[[201048, 557264, 173.3], [201050, 557264, 175.3], [201050, 557266, 175.6], [201048, 557264, 173.3]]], [[[201048, 557264, 173.3], [201050, 557266, 175.6], [201048, 557266, 173.5], [201048, 557264, 173.3]]], [[[201048, 557266, 173.5], [201050, 557266, 175.6], [201050, 557268, 173.4], [201048, 557266, 173.5]]], [[[201048, 557266, 173.5], [201050, 557268, 173.4], [201048, 557268, 175.9], [201048, 557266, 173.5]]], [[[201048, 557268, 175.9], [201050, 557268, 173.4], [201050, 557270, 175.7], [201048, 557268, 175.9]]], [[[201048, 557268, 175.9], [201050, 557270, 175.7], [201048, 557270, 176.2], [201048, 557268, 175.9]]], [[[201048, 557270, 176.2], [201050, 557270, 175.7], [201050, 557272, 176.0], [201048, 557270, 176.2]]], [[[201048, 557270, 176.2], [201050, 557272, 176.0], [201048, 557272, 176.5], [201048, 557270, 176.2]]], [[[201048, 557272, 176.5], [201050, 557272, 176.0], [201050, 557274, 174.0], [201048, 557272, 176.5]]], [[[201048, 557272, 176.5], [201050, 557274, 174.0], [201048, 557274, 176.8], [201048, 557272, 176.5]]], [[[201048, 557274, 176.8], [201050, 557274, 174.0], [201050, 557276, 174.2], [201048, 557274, 176.8]]], [[[201048, 557274, 176.8], [201050, 557276, 174.2], [201048, 557276, 174.6], [201048, 557274, 176.8]]], [[[201048, 557276, 174.6], [201050, 557276, 174.2], [201050, 557278, 174.4], [201048, 557276, 174.6]]], [[[201048, 557276, 174.6], [201050, 557278, 174.4], [201048, 557278, 174.8], [201048, 557276, 174.6]]], [[[201048, 557278, 174.8], [201050, 557278, 174.4], [201050, 557280, 174.7], [201048, 557278, 174.8]]], [[[201048, 557278, 174.8], [201050, 557280, 174.7], [201048, 557280, 175.0], [201048, 557278, 174.8]]], [[[201048, 557280, 175.0], [201050, 557280, 174.7], [201048, 557282, 175.3], [201048, 557280, 175.0]]], [[[201050, 557240, 172.7], [201052, 557240, 170.0], [201052, 557242, 170.2], [201050, 557240, 172.7]]], [[[201050, 557240, 172.7], [201052, 557242, 170.2], [201050, 557242, 170.6], [201050, 557240, 172.7]]], [[[201050, 557242, 170.6], [201052, 557242, 170.2], [201052, 557244, 170.4], [201050, 557242, 170.6]]], [[[201050, 557242, 170.6], [201052, 557244, 170.4], [201050, 557244, 170.8], [201050, 557242, 170.6]]], [[[201050, 557244, 170.8], [201052, 557244, 170.4], [201052, 557246, 170.6], [201050, 557244, 170.8]]], [[[201050, 557244, 170.8], [201052, 557246, 170.6], [201050, 557246, 173.4], [201050, 557244, 170.8]]], [[[201050, 557246, 173.4], [201052, 557246, 170.6], [201052, 557248, 170.9], [201050, 557246, 173.4]]], [[[201050, 557246, 173.4], [201052, 557248, 170.9], [201050, 557248, 173.7], [201050, 557246, 173.4]]], [[[201050, 557248, 173.7], [201052, 557248, 170.9], [201052, 557250, 173.5], [201050, 557248, 173.7]]], [[[201050, 557248, 173.7], [201052, 557250, 173.5], [201050, 557250, 174.0], [201050, 557248, 173.7]]], [[[201050, 557250, 174.0], [201052, 557250, 173.5], [201052, 557252, 173.8], [201050, 557250, 174.0]]], [[[201050, 557250, 174.0], [201052, 557252, 173.8], [201050, 557252, 174.2], [201050, 557250, 174.0]]], [[[201050, 557252, 174.2], [201052, 557252, 173.8], [201052, 557254, 174.1], [201050, 557252, 174.2]]], [[[201050, 557252, 174.2], [201052, 557254, 174.1], [201050, 557254, 174.5], [201050, 557252, 174.2]]], [[[201050, 557254, 174.5], [201052, 557254, 174.1], [201052, 557256, 174.3], [201050, 557254, 174.5]]], [[[201050, 557254, 174.5], [201052, 557256, 174.3], [201050, 557256, 172.1], [201050, 557254, 174.5]]], [[[201050, 557256, 172.1], [201052, 557256, 174.3], [201052, 557258, 171.9], [201050, 557256, 172.1]]], [[[201050, 557256, 172.1], [201052, 557258, 171.9], [201050, 557258, 174.5], [201050, 557256, 172.1]]], [[[201050, 557258, 174.5], [201052, 557258, 171.9], [201052, 557260, 172.1], [201050, 557258, 174.5]]], [[[201050, 557258, 174.5], [201052, 557260, 172.1], [201050, 557260, 174.7], [201050, 557258, 174.5]]], [[[201050, 557260, 174.7], [201052, 557260, 172.1], [201052, 557262, 174.6], [201050, 557260, 174.7]]], [[[201050, 557260, 174.7], [201052, 557262, 174.6], [201050, 557262, 175.0], [201050, 557260, 174.7]]], [[[201050, 557262, 175.0], [201052, 557262, 174.6], [201052, 557264, 174.9], [201050, 557262, 175.0]]], [[[201050, 557262, 175.0], [201052, 557264, 174.9], [201050, 557264, 175.3], [201050, 557262, 175.0]]], [[[201050, 557264, 175.3], [201052, 557264, 174.9], [201052, 557266, 175.2], [201050, 557264, 175.3]]], [[[201050, 557264, 175.3], [201052, 557266, 175.2], [201050, 557266, 175.6], [201050, 557264, 175.3]]], [[[201050, 557266, 175.6], [201052, 557266, 175.2], [201052, 557268, 175.5], [201050, 557266, 175.6]]], [[[201050, 557266, 175.6], [201052, 557268, 175.5], [201050, 557268, 173.4], [201050, 557266, 175.6]]], [[[201050, 557268, 173.4], [201052, 557268, 175.5], [201052, 557270, 173.2], [201050, 557268, 173.4]]], [[[201050, 557268, 173.4], [201052, 557270, 173.2], [201050, 557270, 175.7], [201050, 557268, 173.4]]], [[[201050, 557270, 175.7], [201052, 557270, 173.2], [201052, 557272, 173.4], [201050, 557270, 175.7]]], [[[201050, 557270, 175.7], [201052, 557272, 173.4], [201050, 557272, 176.0], [201050, 557270, 175.7]]], [[[201050, 557272, 176.0], [201052, 557272, 173.4], [201052, 557274, 173.6], [201050, 557272, 176.0]]], [[[201050, 557272, 176.0], [201052, 557274, 173.6], [201050, 557274, 174.0], [201050, 557272, 176.0]]], [[[201050, 557274, 174.0], [201052, 557274, 173.6], [201052, 557276, 173.9], [201050, 557274, 174.0]]], [[[201050, 557274, 174.0], [201052, 557276, 173.9], [201050, 557276, 174.2], [201050, 557274, 174.0]]], [[[201050, 557276, 174.2], [201052, 557276, 173.9], [201052, 557278, 174.1], [201050, 557276, 174.2]]], [[[201050, 557276, 174.2], [201052, 557278, 174.1], [201050, 557278, 174.4], [201050, 557276, 174.2]]], [[[201050, 557278, 174.4], [201052, 557278, 174.1], [201052, 557280, 174.3], [201050, 557278, 174.4]]], [[[201050, 557278, 174.4], [201052, 557280, 174.3], [201050, 557280, 174.7], [201050, 557278, 174.4]]], [[[201052, 557240, 170.0], [201054, 557240, 169.6], [201054, 557242, 169.8], [201052, 557240, 170.0]]], [[[201052, 557240, 170.0], [201054, 557242, 169.8], [201052, 557242, 170.2], [201052, 557240, 170.0]]], [[[201052, 557242, 170.2], [201054, 557242, 169.8], [201054, 557244, 172.2], [201052, 557242, 170.2]]], [[[201052, 557242, 170.2], [201054, 557244, 172.2], [201052, 557244, 170.4], [201052, 557242, 170.2]]], [[[201052, 557244, 170.4], [201054, 557244, 172.2], [201054, 557246, 172.5], [201052, 557244, 170.4]]], [[[201052, 557244, 170.4], [201054, 557246, 172.5], [201052, 557246, 170.6], [201052, 557244, 170.4]]], [[[201052, 557246, 170.6], [201054, 557246, 172.5], [201054, 557248, 172.8], [201052, 557246, 170.6]]], [[[201052, 557246, 170.6], [201054, 557248, 172.8], [201052, 557248, 170.9], [201052, 557246, 170.6]]], [[[201052, 557248, 170.9], [201054, 557248, 172.8], [201054, 557250, 170.7], [201052, 557248, 170.9]]], [[[201052, 557248, 170.9], [201054, 557250, 170.7], [201052, 557250, 173.5], [201052, 557248, 170.9]]], [[[201052, 557250, 173.5], [201054, 557250, 170.7], [201054, 557252, 173.3], [201052, 557250, 173.5]]], [[[201052, 557250, 173.5], [201054, 557252, 173.3], [201052, 557252, 173.8], [201052, 557250, 173.5]]], [[[201052, 557252, 173.8], [201054, 557252, 173.3], [201054, 557254, 173.6], [201052, 557252, 173.8]]], [[[201052, 557252, 173.8], [201054, 557254, 173.6], [201052, 557254, 174.1], [201052, 557252, 173.8]]], [[[201052, 557254, 174.1], [201054, 557254, 173.6], [201054, 557256, 173.9], [201052, 557254, 174.1]]], [[[201052, 557254, 174.1], [201054, 557256, 173.9], [201052, 557256, 174.3], [201052, 557254, 174.1]]], [[[201052, 557256, 174.3], [201054, 557256, 173.9], [201054, 557258, 174.2], [201052, 557256, 174.3]]], [[[201052, 557256, 174.3], [201054, 557258, 174.2], [201052, 557258, 171.9], [201052, 557256, 174.3]]], [[[201052, 557258, 171.9], [201054, 557258, 174.2], [201054, 557260, 174.5], [201052, 557258, 171.9]]], [[[201052, 557258, 171.9], [201054, 557260, 174.5], [201052, 557260, 172.1], [201052, 557258, 171.9]]], [[[201052, 557260, 172.1], [201054, 557260, 174.5], [201054, 557262, 172.0], [201052, 557260, 172.1]]], [[[201052, 557260, 172.1], [201054, 557262, 172.0], [201052, 557262, 174.6], [201052, 557260, 172.1]]], [[[201052, 557262, 174.6], [201054, 557262, 172.0], [201054, 557264, 174.4], [201052, 557262, 174.6]]], [[[201052, 557262, 174.6], [201054, 557264, 174.4], [201052, 557264, 174.9], [201052, 557262, 174.6]]], [[[201052, 557264, 174.9], [201054, 557264, 174.4], [201054, 557266, 174.7], [201052, 557264, 174.9]]], [[[201052, 557264, 174.9], [201054, 557266, 174.7], [201052, 557266, 175.2], [201052, 557264, 174.9]]], [[[201052, 557266, 175.2], [201054, 557266, 174.7], [201054, 557268, 175.0], [201052, 557266, 175.2]]], [[[201052, 557266, 175.2], [201054, 557268, 175.0], [201052, 557268, 175.5], [201052, 557266, 175.2]]], [[[201052, 557268, 175.5], [201054, 557268, 175.0], [201054, 557270, 175.3], [201052, 557268, 175.5]]], [[[201052, 557268, 175.5], [201054, 557270, 175.3], [201052, 557270, 173.2], [201052, 557268, 175.5]]], [[[201052, 557270, 173.2], [201054, 557270, 175.3], [201054, 557272, 173.0], [201052, 557270, 173.2]]], [[[201052, 557270, 173.2], [201054, 557272, 173.0], [201052, 557272, 173.4], [201052, 557270, 173.2]]], [[[201052, 557272, 173.4], [201054, 557272, 173.0], [201054, 557274, 173.3], [201052, 557272, 173.4]]], [[[201052, 557272, 173.4], [201054, 557274, 173.3], [201052, 557274, 173.6], [201052, 557272, 173.4]]], [[[201052, 557274, 173.6], [201054, 557274, 173.3], [201054, 557276, 173.5], [201052, 557274, 173.6]]], [[[201052, 557274, 173.6], [201054, 557276, 173.5], [201052, 557276, 173.9], [201052, 557274, 173.6]]], [[[201052, 557276, 173.9], [201054, 557276, 173.5], [201054, 557278, 173.7], [201052, 557276, 173.9]]], [[[201052, 557276, 173.9], [201054, 557278, 173.7], [201052, 557278, 174.1], [201052, 557276, 173.9]]], [[[201052, 557278, 174.1], [201054, 557278, 173.7], [201052, 557280, 174.3], [201052, 557278, 174.1]]], [[[201054, 557240, 169.6], [201056, 557242, 169.4], [201054, 557242, 169.8], [201054, 557240, 169.6]]], [[[201054, 557242, 169.8], [201056, 557242, 169.4], [201056, 557244, 171.8], [201054, 557242, 169.8]]], [[[201054, 557242, 169.8], [201056, 557244, 171.8], [201054, 557244, 172.2], [201054, 557242, 169.8]]], [[[201054, 557244, 172.2], [201056, 557244, 171.8], [201056, 557246, 172.0], [201054, 557244, 172.2]]], [[[201054, 557244, 172.2], [201056, 557246, 172.0], [201054, 557246, 172.5], [201054, 557244, 172.2]]], [[[201054, 557246, 172.5], [201056, 557246, 172.0], [201056, 557248, 172.3], [201054, 557246, 172.5]]], [[[201054, 557246, 172.5], [201056, 557248, 172.3], [201054, 557248, 172.8], [201054, 557246, 172.5]]], [[[201054, 557248, 172.8], [201056, 557248, 172.3], [201056, 557250, 172.6], [201054, 557248, 172.8]]], [[[201054, 557248, 172.8], [201056, 557250, 172.6], [201054, 557250, 170.7], [201054, 557248, 172.8]]], [[[201054, 557250, 170.7], [201056, 557250, 172.6], [201056, 557252, 170.5], [201054, 557250, 170.7]]], [[[201054, 557250, 170.7], [201056, 557252, 170.5], [201054, 557252, 173.3], [201054, 557250, 170.7]]], [[[201054, 557252, 173.3], [201056, 557252, 170.5], [201056, 557254, 170.7], [201054, 557252, 173.3]]], [[[201054, 557252, 173.3], [201056, 557254, 170.7], [201054, 557254, 173.6], [201054, 557252, 173.3]]], [[[201054, 557254, 173.6], [201056, 557254, 170.7], [201056, 557256, 173.5], [201054, 557254, 173.6]]], [[[201054, 557254, 173.6], [201056, 557256, 173.5], [201054, 557256, 173.9], [201054, 557254, 173.6]]], [[[201054, 557256, 173.9], [201056, 557256, 173.5], [201056, 557258, 173.8], [201054, 557256, 173.9]]], [[[201054, 557256, 173.9], [201056, 557258, 173.8], [201054, 557258, 174.2], [201054, 557256, 173.9]]], [[[201054, 557258, 174.2], [201056, 557258, 173.8], [201056, 557260, 174.0], [201054, 557258, 174.2]]], [[[201054, 557258, 174.2], [201056, 557260, 174.0], [201054, 557260, 174.5], [201054, 557258, 174.2]]], [[[201054, 557260, 174.5], [201056, 557260, 174.0], [201056, 557262, 174.3], [201054, 557260, 174.5]]], [[[201054, 557260, 174.5], [201056, 557262, 174.3], [201054, 557262, 172.0], [201054, 557260, 174.5]]], [[[201054, 557262, 172.0], [201056, 557262, 174.3], [201056, 557264, 171.8], [201054, 557262, 172.0]]], [[[201054, 557262, 172.0], [201056, 557264, 171.8], [201054, 557264, 174.4], [201054, 557262, 172.0]]], [[[201054, 557264, 174.4], [201056, 557264, 171.8], [201056, 557266, 172.0], [201054, 557264, 174.4]]], [[[201054, 557264, 174.4], [201056, 557266, 172.0], [201054, 557266, 174.7], [201054, 557264, 174.4]]], [[[201054, 557266, 174.7], [201056, 557266, 172.0], [201056, 557268, 174.5], [201054, 557266, 174.7]]], [[[201054, 557266, 174.7], [201056, 557268, 174.5], [201054, 557268, 175.0], [201054, 557266, 174.7]]], [[[201054, 557268, 175.0], [201056, 557268, 174.5], [201056, 557270, 174.8], [201054, 557268, 175.0]]], [[[201054, 557268, 175.0], [201056, 557270, 174.8], [201054, 557270, 175.3], [201054, 557268, 175.0]]], [[[201054, 557270, 175.3], [201056, 557270, 174.8], [201056, 557272, 172.7], [201054, 557270, 175.3]]], [[[201054, 557270, 175.3], [201056, 557272, 172.7], [201054, 557272, 173.0], [201054, 557270, 175.3]]], [[[201054, 557272, 173.0], [201056, 557272, 172.7], [201056, 557274, 172.9], [201054, 557272, 173.0]]], [[[201054, 557272, 173.0], [201056, 557274, 172.9], [201054, 557274, 173.3], [201054, 557272, 173.0]]], [[[201054, 557274, 173.3], [201056, 557274, 172.9], [201056, 557276, 173.1], [201054, 557274, 173.3]]], [[[201054, 557274, 173.3], [201056, 557276, 173.1], [201054, 557276, 173.5], [201054, 557274, 173.3]]], [[[201054, 557276, 173.5], [201056, 557276, 173.1], [201056, 557278, 173.3], [201054, 557276, 173.5]]], [[[201054, 557276, 173.5], [201056, 557278, 173.3], [201054, 557278, 173.7], [201054, 557276, 173.5]]], [[[201056, 557242, 169.4], [201058, 557242, 169.0], [201058, 557244, 169.3], [201056, 557242, 169.4]]], [[[201056, 557242, 169.4], [201058, 557244, 169.3], [201056, 557244, 171.8], [201056, 557242, 169.4]]], [[[201056, 557244, 171.8], [201058, 557244, 169.3], [201058, 557246, 171.6], [201056, 557244, 171.8]]], [[[201056, 557244, 171.8], [201058, 557246, 171.6], [201056, 557246, 172.0], [201056, 557244, 171.8]]], [[[201056, 557246, 172.0], [201058, 557246, 171.6], [201058, 557248, 171.9], [201056, 557246, 172.0]]], [[[201056, 557246, 172.0], [201058, 557248, 171.9], [201056, 557248, 172.3], [201056, 557246, 172.0]]], [[[201056, 557248, 172.3], [201058, 557248, 171.9], [201058, 557250, 172.2], [201056, 557248, 172.3]]], [[[201056, 557248, 172.3], [201058, 557250, 172.2], [201056, 557250, 172.6], [201056, 557248, 172.3]]], [[[201056, 557250, 172.6], [201058, 557250, 172.2], [201058, 557252, 172.4], [201056, 557250, 172.6]]], [[[201056, 557250, 172.6], [201058, 557252, 172.4], [201056, 557252, 170.5], [201056, 557250, 172.6]]], [[[201056, 557252, 170.5], [201058, 557252, 172.4], [201058, 557254, 172.7], [201056, 557252, 170.5]]], [[[201056, 557252, 170.5], [201058, 557254, 172.7], [201056, 557254, 170.7], [201056, 557252, 170.5]]], [[[201056, 557254, 170.7], [201058, 557254, 172.7], [201058, 557256, 170.6], [201056, 557254, 170.7]]], [[[201056, 557254, 170.7], [201058, 557256, 170.6], [201056, 557256, 173.5], [201056, 557254, 170.7]]], [[[201056, 557256, 173.5], [201058, 557256, 170.6], [201058, 557258, 170.8], [201056, 557256, 173.5]]], [[[201056, 557256, 173.5], [201058, 557258, 170.8], [201056, 557258, 173.8], [201056, 557256, 173.5]]], [[[201056, 557258, 173.8], [201058, 557258, 170.8], [201058, 557260, 173.6], [201056, 557258, 173.8]]], [[[201056, 557258, 173.8], [201058, 557260, 173.6], [201056, 557260, 174.0], [201056, 557258, 173.8]]], [[[201056, 557260, 174.0], [201058, 557260, 173.6], [201058, 557262, 173.9], [201056, 557260, 174.0]]], [[[201056, 557260, 174.0], [201058, 557262, 173.9], [201056, 557262, 174.3], [201056, 557260, 174.0]]], [[[201056, 557262, 174.3], [201058, 557262, 173.9], [201058, 557264, 174.2], [201056, 557262, 174.3]]], [[[201056, 557262, 174.3], [201058, 557264, 174.2], [201056, 557264, 171.8], [201056, 557262, 174.3]]], [[[201056, 557264, 171.8], [201058, 557264, 174.2], [201058, 557266, 174.4], [201056, 557264, 171.8]]], [[[201056, 557264, 171.8], [201058, 557266, 174.4], [201056, 557266, 172.0], [201056, 557264, 171.8]]], [[[201056, 557266, 172.0], [201058, 557266, 174.4], [201058, 557268, 171.9], [201056, 557266, 172.0]]], [[[201056, 557266, 172.0], [201058, 557268, 171.9], [201056, 557268, 174.5], [201056, 557266, 172.0]]], [[[201056, 557268, 174.5], [201058, 557268, 171.9], [201058, 557270, 172.1], [201056, 557268, 174.5]]], [[[201056, 557268, 174.5], [201058, 557270, 172.1], [201056, 557270, 174.8], [201056, 557268, 174.5]]], [[[201056, 557270, 174.8], [201058, 557270, 172.1], [201058, 557272, 172.3], [201056, 557270, 174.8]]], [[[201056, 557270, 174.8], [201058, 557272, 172.3], [201056, 557272, 172.7], [201056, 557270, 174.8]]], [[[201056, 557272, 172.7], [201058, 557272, 172.3], [201058, 557274, 172.5], [201056, 557272, 172.7]]], [[[201056, 557272, 172.7], [201058, 557274, 172.5], [201056, 557274, 172.9], [201056, 557272, 172.7]]], [[[201056, 557274, 172.9], [201058, 557274, 172.5], [201058, 557276, 172.7], [201056, 557274, 172.9]]], [[[201056, 557274, 172.9], [201058, 557276, 172.7], [201056, 557276, 173.1], [201056, 557274, 172.9]]], [[[201056, 557276, 173.1], [201058, 557276, 172.7], [201056, 557278, 173.3], [201056, 557276, 173.1]]], [[[201058, 557240, 168.8], [201060, 557240, 168.4], [201060, 557242, 168.7], [201058, 557240, 168.8]]], [[[201058, 557240, 168.8], [201060, 557242, 168.7], [201058, 557242, 169.0], [201058, 557240, 168.8]]], [[[201058, 557242, 169.0], [201060, 557242, 168.7], [201060, 557244, 168.9], [201058, 557242, 169.0]]], [[[201058, 557242, 169.0], [201060, 557244, 168.9], [201058, 557244, 169.3], [201058, 557242, 169.0]]], [[[201058, 557244, 169.3], [201060, 557244, 168.9], [201060, 557246, 169.1], [201058, 557244, 169.3]]], [[[201058, 557244, 169.3], [201060, 557246, 169.1], [201058, 557246, 171.6], [201058, 557244, 169.3]]], [[[201058, 557246, 171.6], [201060, 557246, 169.1], [201060, 557248, 169.3], [201058, 557246, 171.6]]], [[[201058, 557246, 171.6], [201060, 557248, 169.3], [201058, 557248, 171.9], [201058, 557246, 171.6]]], [[[201058, 557248, 171.9], [201060, 557248, 169.3], [201060, 557250, 171.7], [201058, 557248, 171.9]]], [[[201058, 557248, 171.9], [201060, 557250, 171.7], [201058, 557250, 172.2], [201058, 557248, 171.9]]], [[[201058, 557250, 172.2], [201060, 557250, 171.7], [201060, 557252, 172.0], [201058, 557250, 172.2]]], [[[201058, 557250, 172.2], [201060, 557252, 172.0], [201058, 557252, 172.4], [201058, 557250, 172.2]]], [[[201058, 557252, 172.4], [201060, 557252, 172.0], [201060, 557254, 172.3], [201058, 557252, 172.4]]], [[[201058, 557252, 172.4], [201060, 557254, 172.3], [201058, 557254, 172.7], [201058, 557252, 172.4]]], [[[201058, 557254, 172.7], [201060, 557254, 172.3], [201060, 557256, 172.6], [201058, 557254, 172.7]]], [[[201058, 557254, 172.7], [201060, 557256, 172.6], [201058, 557256, 170.6], [201058, 557254, 172.7]]], [[[201058, 557256, 170.6], [201060, 557256, 172.6], [201060, 557258, 170.4], [201058, 557256, 170.6]]], [[[201058, 557256, 170.6], [201060, 557258, 170.4], [201058, 557258, 170.8], [201058, 557256, 170.6]]], [[[201058, 557258, 170.8], [201060, 557258, 170.4], [201060, 557260, 170.6], [201058, 557258, 170.8]]], [[[201058, 557258, 170.8], [201060, 557260, 170.6], [201058, 557260, 173.6], [201058, 557258, 170.8]]], [[[201058, 557260, 173.6], [201060, 557260, 170.6], [201060, 557262, 173.4], [201058, 557260, 173.6]]], [[[201058, 557260, 173.6], [201060, 557262, 173.4], [201058, 557262, 173.9], [201058, 557260, 173.6]]], [[[201058, 557262, 173.9], [201060, 557262, 173.4], [201060, 557264, 173.7], [201058, 557262, 173.9]]], [[[201058, 557262, 173.9], [201060, 557264, 173.7], [201058, 557264, 174.2], [201058, 557262, 173.9]]], [[[201058, 557264, 174.2], [201060, 557264, 173.7], [201060, 557266, 174.0], [201058, 557264, 174.2]]], [[[201058, 557264, 174.2], [201060, 557266, 174.0], [201058, 557266, 174.4], [201058, 557264, 174.2]]], [[[201058, 557266, 174.4], [201060, 557266, 174.0], [201060, 557268, 171.5], [201058, 557266, 174.4]]], [[[201058, 557266, 174.4], [201060, 557268, 171.5], [201058, 557268, 171.9], [201058, 557266, 174.4]]], [[[201058, 557268, 171.9], [201060, 557268, 171.5], [201060, 557270, 171.7], [201058, 557268, 171.9]]], [[[201058, 557268, 171.9], [201060, 557270, 171.7], [201058, 557270, 172.1], [201058, 557268, 171.9]]], [[[201058, 557270, 172.1], [201060, 557270, 171.7], [201060, 557272, 171.9], [201058, 557270, 172.1]]], [[[201058, 557270, 172.1], [201060, 557272, 171.9], [201058, 557272, 172.3], [201058, 557270, 172.1]]], [[[201058, 557272, 172.3], [201060, 557272, 171.9], [201060, 557274, 172.1], [201058, 557272, 172.3]]], [[[201058, 557272, 172.3], [201060, 557274, 172.1], [201058, 557274, 172.5], [201058, 557272, 172.3]]], [[[201058, 557274, 172.5], [201060, 557274, 172.1], [201058, 557276, 172.7], [201058, 557274, 172.5]]], [[[201060, 557240, 168.4], [201062, 557240, 168.0], [201062, 557242, 168.3], [201060, 557240, 168.4]]], [[[201060, 557240, 168.4], [201062, 557242, 168.3], [201060, 557242, 168.7], [201060, 557240, 168.4]]], [[[201060, 557242, 168.7], [201062, 557242, 168.3], [201062, 557244, 168.5], [201060, 557242, 168.7]]], [[[201060, 557242, 168.7], [201062, 557244, 168.5], [201060, 557244, 168.9], [201060, 557242, 168.7]]], [[[201060, 557244, 168.9], [201062, 557244, 168.5], [201062, 557246, 168.7], [201060, 557244, 168.9]]], [[[201060, 557244, 168.9], [201062, 557246, 168.7], [201060, 557246, 169.1], [201060, 557244, 168.9]]], [[[201060, 557246, 169.1], [201062, 557246, 168.7], [201062, 557248, 168.9], [201060, 557246, 169.1]]], [[[201060, 557246, 169.1], [201062, 557248, 168.9], [201060, 557248, 169.3], [201060, 557246, 169.1]]], [[[201060, 557248, 169.3], [201062, 557248, 168.9], [201062, 557250, 169.1], [201060, 557248, 169.3]]], [[[201060, 557248, 169.3], [201062, 557250, 169.1], [201060, 557250, 171.7], [201060, 557248, 169.3]]], [[[201060, 557250, 171.7], [201062, 557250, 169.1], [201062, 557252, 169.4], [201060, 557250, 171.7]]], [[[201060, 557250, 171.7], [201062, 557252, 169.4], [201060, 557252, 172.0], [201060, 557250, 171.7]]], [[[201060, 557252, 172.0], [201062, 557252, 169.4], [201062, 557254, 171.8], [201060, 557252, 172.0]]], [[[201060, 557252, 172.0], [201062, 557254, 171.8], [201060, 557254, 172.3], [201060, 557252, 172.0]]], [[[201060, 557254, 172.3], [201062, 557254, 171.8], [201062, 557256, 172.1], [201060, 557254, 172.3]]], [[[201060, 557254, 172.3], [201062, 557256, 172.1], [201060, 557256, 172.6], [201060, 557254, 172.3]]], [[[201060, 557256, 172.6], [201062, 557256, 172.1], [201062, 557258, 172.4], [201060, 557256, 172.6]]], [[[201060, 557256, 172.6], [201062, 557258, 172.4], [201060, 557258, 170.4], [201060, 557256, 172.6]]], [[[201060, 557258, 170.4], [201062, 557258, 172.4], [201062, 557260, 172.7], [201060, 557258, 170.4]]], [[[201060, 557258, 170.4], [201062, 557260, 172.7], [201060, 557260, 170.6], [201060, 557258, 170.4]]], [[[201060, 557260, 170.6], [201062, 557260, 172.7], [201062, 557262, 170.5], [201060, 557260, 170.6]]], [[[201060, 557260, 170.6], [201062, 557262, 170.5], [201060, 557262, 173.4], [201060, 557260, 170.6]]], [[[201060, 557262, 173.4], [201062, 557262, 170.5], [201062, 557264, 170.7], [201060, 557262, 173.4]]], [[[201060, 557262, 173.4], [201062, 557264, 170.7], [201060, 557264, 173.7], [201060, 557262, 173.4]]], [[[201060, 557266, 174.0], [201062, 557268, 171.1], [201060, 557268, 171.5], [201060, 557266, 174.0]]], [[[201060, 557268, 171.5], [201062, 557268, 171.1], [201062, 557270, 171.3], [201060, 557268, 171.5]]], [[[201060, 557268, 171.5], [201062, 557270, 171.3], [201060, 557270, 171.7], [201060, 557268, 171.5]]], [[[201060, 557270, 171.7], [201062, 557270, 171.3], [201062, 557272, 171.5], [201060, 557270, 171.7]]], [[[201060, 557270, 171.7], [201062, 557272, 171.5], [201060, 557272, 171.9], [201060, 557270, 171.7]]], [[[201060, 557272, 171.9], [201062, 557272, 171.5], [201062, 557274, 174.5], [201060, 557272, 171.9]]], [[[201060, 557272, 171.9], [201062, 557274, 174.5], [201060, 557274, 172.1], [201060, 557272, 171.9]]], [[[201062, 557240, 168.0], [201064, 557240, 167.7], [201064, 557242, 167.9], [201062, 557240, 168.0]]], [[[201062, 557240, 168.0], [201064, 557242, 167.9], [201062, 557242, 168.3], [201062, 557240, 168.0]]], [[[201062, 557242, 168.3], [201064, 557242, 167.9], [201064, 557244, 168.1], [201062, 557242, 168.3]]], [[[201062, 557242, 168.3], [201064, 557244, 168.1], [201062, 557244, 168.5], [201062, 557242, 168.3]]], [[[201062, 557244, 168.5], [201064, 557244, 168.1], [201064, 557246, 168.3], [201062, 557244, 168.5]]], [[[201062, 557244, 168.5], [201064, 557246, 168.3], [201062, 557246, 168.7], [201062, 557244, 168.5]]], [[[201062, 557246, 168.7], [201064, 557246, 168.3], [201064, 557248, 168.5], [201062, 557246, 168.7]]], [[[201062, 557246, 168.7], [201064, 557248, 168.5], [201062, 557248, 168.9], [201062, 557246, 168.7]]], [[[201062, 557248, 168.9], [201064, 557248, 168.5], [201064, 557250, 168.8], [201062, 557248, 168.9]]], [[[201062, 557248, 168.9], [201064, 557250, 168.8], [201062, 557250, 169.1], [201062, 557248, 168.9]]], [[[201062, 557250, 169.1], [201064, 557250, 168.8], [201064, 557252, 169.0], [201062, 557250, 169.1]]], [[[201062, 557250, 169.1], [201064, 557252, 169.0], [201062, 557252, 169.4], [201062, 557250, 169.1]]], [[[201062, 557252, 169.4], [201064, 557252, 169.0], [201064, 557254, 169.2], [201062, 557252, 169.4]]], [[[201062, 557252, 169.4], [201064, 557254, 169.2], [201062, 557254, 171.8], [201062, 557252, 169.4]]], [[[201062, 557254, 171.8], [201064, 557254, 169.2], [201064, 557256, 171.7], [201062, 557254, 171.8]]], [[[201062, 557254, 171.8], [201064, 557256, 171.7], [201062, 557256, 172.1], [201062, 557254, 171.8]]], [[[201062, 557256, 172.1], [201064, 557256, 171.7], [201064, 557258, 172.0], [201062, 557256, 172.1]]], [[[201062, 557256, 172.1], [201064, 557258, 172.0], [201062, 557258, 172.4], [201062, 557256, 172.1]]], [[[201062, 557258, 172.4], [201064, 557258, 172.0], [201064, 557260, 172.3], [201062, 557258, 172.4]]], [[[201062, 557258, 172.4], [201064, 557260, 172.3], [201062, 557260, 172.7], [201062, 557258, 172.4]]], [[[201062, 557260, 172.7], [201064, 557260, 172.3], [201064, 557262, 172.5], [201062, 557260, 172.7]]], [[[201062, 557260, 172.7], [201064, 557262, 172.5], [201062, 557262, 170.5], [201062, 557260, 172.7]]], [[[201062, 557262, 170.5], [201064, 557262, 172.5], [201064, 557264, 170.3], [201062, 557262, 170.5]]], [[[201062, 557262, 170.5], [201064, 557264, 170.3], [201062, 557264, 170.7], [201062, 557262, 170.5]]], [[[201062, 557268, 171.1], [201064, 557268, 170.7], [201064, 557270, 170.9], [201062, 557268, 171.1]]], [[[201062, 557268, 171.1], [201064, 557270, 170.9], [201062, 557270, 171.3], [201062, 557268, 171.1]]], [[[201062, 557270, 171.3], [201064, 557270, 170.9], [201064, 557272, 173.0], [201062, 557270, 171.3]]], [[[201062, 557270, 171.3], [201064, 557272, 173.0], [201062, 557272, 171.5], [201062, 557270, 171.3]]], [[[201062, 557272, 171.5], [201064, 557272, 173.0], [201062, 557274, 174.5], [201062, 557272, 171.5]]], [[[201064, 557238, 167.4], [201066, 557238, 167.0], [201066, 557240, 167.3], [201064, 557238, 167.4]]], [[[201064, 557238, 167.4], [201066, 557240, 167.3], [201064, 557240, 167.7], [201064, 557238, 167.4]]], [[[201064, 557240, 167.7], [201066, 557240, 167.3], [201066, 557242, 167.5], [201064, 557240, 167.7]]], [[[201064, 557240, 167.7], [201066, 557242, 167.5], [201064, 557242, 167.9], [201064, 557240, 167.7]]], [[[201064, 557242, 167.9], [201066, 557242, 167.5], [201066, 557244, 167.7], [201064, 557242, 167.9]]], [[[201064, 557242, 167.9], [201066, 557244, 167.7], [201064, 557244, 168.1], [201064, 557242, 167.9]]], [[[201064, 557244, 168.1], [201066, 557244, 167.7], [201066, 557246, 167.9], [201064, 557244, 168.1]]], [[[201064, 557244, 168.1], [201066, 557246, 167.9], [201064, 557246, 168.3], [201064, 557244, 168.1]]], [[[201064, 557246, 168.3], [201066, 557246, 167.9], [201066, 557248, 168.1], [201064, 557246, 168.3]]], [[[201064, 557246, 168.3], [201066, 557248, 168.1], [201064, 557248, 168.5], [201064, 557246, 168.3]]], [[[201064, 557248, 168.5], [201066, 557248, 168.1], [201066, 557250, 168.3], [201064, 557248, 168.5]]], [[[201064, 557248, 168.5], [201066, 557250, 168.3], [201064, 557250, 168.8], [201064, 557248, 168.5]]], [[[201064, 557250, 168.8], [201066, 557250, 168.3], [201066, 557252, 168.6], [201064, 557250, 168.8]]], [[[201064, 557250, 168.8], [201066, 557252, 168.6], [201064, 557252, 169.0], [201064, 557250, 168.8]]], [[[201064, 557252, 169.0], [201066, 557252, 168.6], [201066, 557254, 168.8], [201064, 557252, 169.0]]], [[[201064, 557252, 169.0], [201066, 557254, 168.8], [201064, 557254, 169.2], [201064, 557252, 169.0]]], [[[201064, 557254, 169.2], [201066, 557254, 168.8], [201066, 557256, 169.0], [201064, 557254, 169.2]]], [[[201064, 557254, 169.2], [201066, 557256, 169.0], [201064, 557256, 171.7], [201064, 557254, 169.2]]], [[[201064, 557256, 171.7], [201066, 557256, 169.0], [201066, 557258, 169.3], [201064, 557256, 171.7]]], [[[201064, 557256, 171.7], [201066, 557258, 169.3], [201064, 557258, 172.0], [201064, 557256, 171.7]]], [[[201064, 557258, 172.0], [201066, 557258, 169.3], [201066, 557260, 171.8], [201064, 557258, 172.0]]], [[[201064, 557258, 172.0], [201066, 557260, 171.8], [201064, 557260, 172.3], [201064, 557258, 172.0]]], [[[201064, 557260, 172.3], [201066, 557260, 171.8], [201066, 557262, 172.1], [201064, 557260, 172.3]]], [[[201064, 557260, 172.3], [201066, 557262, 172.1], [201064, 557262, 172.5], [201064, 557260, 172.3]]], [[[201064, 557262, 172.5], [201066, 557262, 172.1], [201066, 557264, 169.9], [201064, 557262, 172.5]]], [[[201064, 557262, 172.5], [201066, 557264, 169.9], [201064, 557264, 170.3], [201064, 557262, 172.5]]], [[[201064, 557264, 170.3], [201066, 557264, 169.9], [201066, 557266, 170.1], [201064, 557264, 170.3]]], [[[201064, 557268, 170.7], [201066, 557268, 170.4], [201066, 557270, 170.7], [201064, 557268, 170.7]]], [[[201064, 557268, 170.7], [201066, 557270, 170.7], [201064, 557270, 170.9], [201064, 557268, 170.7]]], [[[201064, 557270, 170.9], [201066, 557270, 170.7], [201064, 557272, 173.0], [201064, 557270, 170.9]]], [[[201066, 557238, 167.0], [201068, 557238, 166.6], [201068, 557240, 166.8], [201066, 557238, 167.0]]], [[[201066, 557238, 167.0], [201068, 557240, 166.8], [201066, 557240, 167.3], [201066, 557238, 167.0]]], [[[201066, 557240, 167.3], [201068, 557240, 166.8], [201068, 557242, 169.7], [201066, 557240, 167.3]]], [[[201066, 557240, 167.3], [201068, 557242, 169.7], [201066, 557242, 167.5], [201066, 557240, 167.3]]], [[[201066, 557242, 167.5], [201068, 557242, 169.7], [201066, 557244, 167.7], [201066, 557242, 167.5]]], [[[201066, 557244, 167.7], [201068, 557246, 167.6], [201066, 557246, 167.9], [201066, 557244, 167.7]]], [[[201066, 557246, 167.9], [201068, 557246, 167.6], [201068, 557248, 168.0], [201066, 557246, 167.9]]], [[[201066, 557246, 167.9], [201068, 557248, 168.0], [201066, 557248, 168.1], [201066, 557246, 167.9]]], [[[201066, 557248, 168.1], [201068, 557248, 168.0], [201068, 557250, 170.7], [201066, 557248, 168.1]]], [[[201066, 557248, 168.1], [201068, 557250, 170.7], [201066, 557250, 168.3], [201066, 557248, 168.1]]], [[[201066, 557250, 168.3], [201068, 557250, 170.7], [201068, 557252, 170.7], [201066, 557250, 168.3]]], [[[201066, 557250, 168.3], [201068, 557252, 170.7], [201066, 557252, 168.6], [201066, 557250, 168.3]]], [[[201066, 557252, 168.6], [201068, 557252, 170.7], [201068, 557254, 168.4], [201066, 557252, 168.6]]], [[[201066, 557252, 168.6], [201068, 557254, 168.4], [201066, 557254, 168.8], [201066, 557252, 168.6]]], [[[201066, 557254, 168.8], [201068, 557254, 168.4], [201068, 557256, 168.6], [201066, 557254, 168.8]]], [[[201066, 557254, 168.8], [201068, 557256, 168.6], [201066, 557256, 169.0], [201066, 557254, 168.8]]], [[[201066, 557256, 169.0], [201068, 557256, 168.6], [201068, 557258, 168.9], [201066, 557256, 169.0]]], [[[201066, 557256, 169.0], [201068, 557258, 168.9], [201066, 557258, 169.3], [201066, 557256, 169.0]]], [[[201066, 557258, 169.3], [201068, 557258, 168.9], [201068, 557260, 169.1], [201066, 557258, 169.3]]], [[[201066, 557258, 169.3], [201068, 557260, 169.1], [201066, 557260, 171.8], [201066, 557258, 169.3]]], [[[201066, 557260, 171.8], [201068, 557260, 169.1], [201068, 557262, 171.6], [201066, 557260, 171.8]]], [[[201066, 557260, 171.8], [201068, 557262, 171.6], [201066, 557262, 172.1], [201066, 557260, 171.8]]], [[[201066, 557262, 172.1], [201068, 557262, 171.6], [201068, 557264, 169.5], [201066, 557262, 172.1]]], [[[201066, 557262, 172.1], [201068, 557264, 169.5], [201066, 557264, 169.9], [201066, 557262, 172.1]]], [[[201066, 557264, 169.9], [201068, 557264, 169.5], [201068, 557266, 169.8], [201066, 557264, 169.9]]], [[[201066, 557264, 169.9], [201068, 557266, 169.8], [201066, 557266, 170.1], [201066, 557264, 169.9]]], [[[201066, 557266, 170.1], [201068, 557266, 169.8], [201068, 557268, 172.7], [201066, 557266, 170.1]]], [[[201066, 557266, 170.1], [201068, 557268, 172.7], [201066, 557268, 170.4], [201066, 557266, 170.1]]], [[[201066, 557268, 170.4], [201068, 557268, 172.7], [201066, 557270, 170.7], [201066, 557268, 170.4]]], [[[201068, 557252, 170.7], [201070, 557254, 168.0], [201068, 557254, 168.4], [201068, 557252, 170.7]]], [[[201068, 557254, 168.4], [201070, 557254, 168.0], [201070, 557256, 168.3], [201068, 557254, 168.4]]], [[[201068, 557254, 168.4], [201070, 557256, 168.3], [201068, 557256, 168.6], [201068, 557254, 168.4]]], [[[201068, 557256, 168.6], [201070, 557256, 168.3], [201070, 557258, 168.5], [201068, 557256, 168.6]]], [[[201068, 557256, 168.6], [201070, 557258, 168.5], [201068, 557258, 168.9], [201068, 557256, 168.6]]], [[[201068, 557258, 168.9], [201070, 557258, 168.5], [201070, 557260, 168.7], [201068, 557258, 168.9]]], [[[201068, 557258, 168.9], [201070, 557260, 168.7], [201068, 557260, 169.1], [201068, 557258, 168.9]]], [[[201068, 557260, 169.1], [201070, 557260, 168.7], [201070, 557262, 168.9], [201068, 557260, 169.1]]], [[[201068, 557260, 169.1], [201070, 557262, 168.9], [201068, 557262, 171.6], [201068, 557260, 169.1]]], [[[201068, 557262, 171.6], [201070, 557262, 168.9], [201070, 557264, 169.2], [201068, 557262, 171.6]]], [[[201068, 557262, 171.6], [201070, 557264, 169.2], [201068, 557264, 169.5], [201068, 557262, 171.6]]], [[[201068, 557264, 169.5], [201070, 557264, 169.2], [201070, 557266, 172.1], [201068, 557264, 169.5]]], [[[201068, 557264, 169.5], [201070, 557266, 172.1], [201068, 557266, 169.8], [201068, 557264, 169.5]]], [[[201068, 557266, 169.8], [201070, 557266, 172.1], [201068, 557268, 172.7], [201068, 557266, 169.8]]], [[[201070, 557254, 168.0], [201072, 557254, 167.7], [201072, 557256, 167.9], [201070, 557254, 168.0]]], [[[201070, 557254, 168.0], [201072, 557256, 167.9], [201070, 557256, 168.3], [201070, 557254, 168.0]]], [[[201070, 557256, 168.3], [201072, 557256, 167.9], [201072, 557258, 168.1], [201070, 557256, 168.3]]], [[[201070, 557256, 168.3], [201072, 557258, 168.1], [201070, 557258, 168.5], [201070, 557256, 168.3]]], [[[201070, 557258, 168.5], [201072, 557258, 168.1], [201072, 557260, 168.3], [201070, 557258, 168.5]]], [[[201070, 557258, 168.5], [201072, 557260, 168.3], [201070, 557260, 168.7], [201070, 557258, 168.5]]], [[[201070, 557260, 168.7], [201072, 557260, 168.3], [201070, 557262, 168.9], [201070, 557260, 168.7]]], [[[201072, 557254, 167.7], [201074, 557254, 167.3], [201074, 557256, 167.5], [201072, 557254, 167.7]]], [[[201072, 557254, 167.7], [201074, 557256, 167.5], [201072, 557256, 167.9], [201072, 557254, 167.7]]], [[[201072, 557256, 167.9], [201074, 557256, 167.5], [201074, 557258, 167.8], [201072, 557256, 167.9]]], [[[201072, 557256, 167.9], [201074, 557258, 167.8], [201072, 557258, 168.1], [201072, 557256, 167.9]]], [[[201072, 557258, 168.1], [201074, 557258, 167.8], [201072, 557260, 168.3], [201072, 557258, 168.1]]], [[[201074, 557252, 167.1], [201076, 557252, 166.8], [201076, 557254, 167.0], [201074, 557252, 167.1]]], [[[201074, 557252, 167.1], [201076, 557254, 167.0], [201074, 557254, 167.3], [201074, 557252, 167.1]]], [[[201074, 557254, 167.3], [201076, 557254, 167.0], [201076, 557256, 167.2], [201074, 557254, 167.3]]], [[[201074, 557254, 167.3], [201076, 557256, 167.2], [201074, 557256, 167.5], [201074, 557254, 167.3]]], [[[201074, 557256, 167.5], [201076, 557256, 167.2], [201074, 557258, 167.8], [201074, 557256, 167.5]]], [[[201076, 557252, 166.8], [201078, 557252, 169.1], [201076, 557254, 167.0], [201076, 557252, 166.8]]]]}}]}