{
 "type": "FeatureCollection",
 "name": "yudam-split-candidates",
 "crs": {
  "type": "name",
  "properties": {
   "name": "urn:ogc:def:crs:EPSG::5186"
  }
 },
 "properties": {
  "status": "미리보기 후보 전용, 운영·원본 반영 금지",
  "accuracyVerified": false,
  "created": "2026-10-09",
  "source_gpkg_sha256": "26c66faa36bd03c3f7106d68ac8a2f8e0a89a452f7899e5b0f20ab0673b45d13",
  "source_feature": "buildings_3d fid=2 유담관",
  "original_attrs": {
   "name": "유담관",
   "height_m": 48.27,
   "height_source": "REGISTER",
   "ground_floors": 10,
   "base_m": 95.182,
   "roof_m": 173.308,
   "terrain_min": 96.182,
   "terrain_max": 129.023,
   "note": "지면 기준고는 DEM 중앙값 추정; 출입층 미검증"
  },
  "register_height_applied_to_parts": false
 },
 "features": [
  {
   "type": "Feature",
   "properties": {
    "id": "Y-A",
    "part": "상부 타워(지붕 경사)",
    "accuracyVerified": false,
    "area_m2": 2064.0,
    "topZ_median": 174.5,
    "topZ_min": 114.1,
    "topZ_max": 182.7,
    "topZ_p10": 168.4,
    "topZ_p90": 179.0,
    "topZ_source": "S-MAP 메시 표면 z(지붕, 기울어진 면). 수평 지붕 아님",
    "baseZ": null,
    "baseZ_note": "미확정. 동측 도로 약118~124m, 서측 데크 129.1m, 서측 낮은 길 93~105m에 접해 하단이 일정하지 않음",
    "err_xy_m_assumed": 2.0,
    "err_z_m_assumed": 1.0,
    "vertices": [
     {
      "x": 201023.0,
      "y": 557255.0,
      "src": "S-MAP 3D getModelIdFromPixel=172425217(유담관 모델) 2m 셀 경계 합집합 후 1m 단순화 (2026-10-09)",
      "err_xy_m_assumed": 2.0
     },
     {
      "x": 201023.0,
      "y": 557259.0,
      "src": "S-MAP 3D getModelIdFromPixel=172425217(유담관 모델) 2m 셀 경계 합집합 후 1m 단순화 (2026-10-09)",
      "err_xy_m_assumed": 2.0
     },
     {
      "x": 201021.0,
      "y": 557259.0,
      "src": "S-MAP 3D getModelIdFromPixel=172425217(유담관 모델) 2m 셀 경계 합집합 후 1m 단순화 (2026-10-09)",
      "err_xy_m_assumed": 2.0
     },
     {
      "x": 201021.0,
      "y": 557261.0,
      "src": "S-MAP 3D getModelIdFromPixel=172425217(유담관 모델) 2m 셀 경계 합집합 후 1m 단순화 (2026-10-09)",
      "err_xy_m_assumed": 2.0
     },
     {
      "x": 201013.0,
      "y": 557263.0,
      "src": "S-MAP 3D getModelIdFromPixel=172425217(유담관 모델) 2m 셀 경계 합집합 후 1m 단순화 (2026-10-09)",
      "err_xy_m_assumed": 2.0
     },
     {
      "x": 201013.0,
      "y": 557265.0,
      "src": "S-MAP 3D getModelIdFromPixel=172425217(유담관 모델) 2m 셀 경계 합집합 후 1m 단순화 (2026-10-09)",
      "err_xy_m_assumed": 2.0
     },
     {
      "x": 201015.0,
      "y": 557265.0,
      "src": "S-MAP 3D getModelIdFromPixel=172425217(유담관 모델) 2m 셀 경계 합집합 후 1m 단순화 (2026-10-09)",
      "err_xy_m_assumed": 2.0
     },
     {
      "x": 201015.0,
      "y": 557271.0,
      "src": "S-MAP 3D getModelIdFromPixel=172425217(유담관 모델) 2m 셀 경계 합집합 후 1m 단순화 (2026-10-09)",
      "err_xy_m_assumed": 2.0
     },
     {
      "x": 201013.0,
      "y": 557271.0,
      "src": "S-MAP 3D getModelIdFromPixel=172425217(유담관 모델) 2m 셀 경계 합집합 후 1m 단순화 (2026-10-09)",
      "err_xy_m_assumed": 2.0
     },
     {
      "x": 201013.0,
      "y": 557273.0,
      "src": "S-MAP 3D getModelIdFromPixel=172425217(유담관 모델) 2m 셀 경계 합집합 후 1m 단순화 (2026-10-09)",
      "err_xy_m_assumed": 2.0
     },
     {
      "x": 201017.0,
      "y": 557273.0,
      "src": "S-MAP 3D getModelIdFromPixel=172425217(유담관 모델) 2m 셀 경계 합집합 후 1m 단순화 (2026-10-09)",
      "err_xy_m_assumed": 2.0
     },
     {
      "x": 201017.0,
      "y": 557277.0,
      "src": "S-MAP 3D getModelIdFromPixel=172425217(유담관 모델) 2m 셀 경계 합집합 후 1m 단순화 (2026-10-09)",
      "err_xy_m_assumed": 2.0
     },
     {
      "x": 201019.0,
      "y": 557277.0,
      "src": "S-MAP 3D getModelIdFromPixel=172425217(유담관 모델) 2m 셀 경계 합집합 후 1m 단순화 (2026-10-09)",
      "err_xy_m_assumed": 2.0
     },
     {
      "x": 201019.0,
      "y": 557279.0,
      "src": "S-MAP 3D getModelIdFromPixel=172425217(유담관 모델) 2m 셀 경계 합집합 후 1m 단순화 (2026-10-09)",
      "err_xy_m_assumed": 2.0
     },
     {
      "x": 201023.0,
      "y": 557279.0,
      "src": "S-MAP 3D getModelIdFromPixel=172425217(유담관 모델) 2m 셀 경계 합집합 후 1m 단순화 (2026-10-09)",
      "err_xy_m_assumed": 2.0
     },
     {
      "x": 201023.0,
      "y": 557287.0,
      "src": "S-MAP 3D getModelIdFromPixel=172425217(유담관 모델) 2m 셀 경계 합집합 후 1m 단순화 (2026-10-09)",
      "err_xy_m_assumed": 2.0
     },
     {
      "x": 201035.0,
      "y": 557289.0,
      "src": "S-MAP 3D getModelIdFromPixel=172425217(유담관 모델) 2m 셀 경계 합집합 후 1m 단순화 (2026-10-09)",
      "err_xy_m_assumed": 2.0
     },
     {
      "x": 201035.0,
      "y": 557287.0,
      "src": "S-MAP 3D getModelIdFromPixel=172425217(유담관 모델) 2m 셀 경계 합집합 후 1m 단순화 (2026-10-09)",
      "err_xy_m_assumed": 2.0
     },
     {
      "x": 201039.0,
      "y": 557287.0,
      "src": "S-MAP 3D getModelIdFromPixel=172425217(유담관 모델) 2m 셀 경계 합집합 후 1m 단순화 (2026-10-09)",
      "err_xy_m_assumed": 2.0
     },
     {
      "x": 201039.0,
      "y": 557285.0,
      "src": "S-MAP 3D getModelIdFromPixel=172425217(유담관 모델) 2m 셀 경계 합집합 후 1m 단순화 (2026-10-09)",
      "err_xy_m_assumed": 2.0
     },
     {
      "x": 201045.0,
      "y": 557285.0,
      "src": "S-MAP 3D getModelIdFromPixel=172425217(유담관 모델) 2m 셀 경계 합집합 후 1m 단순화 (2026-10-09)",
      "err_xy_m_assumed": 2.0
     },
     {
      "x": 201045.0,
      "y": 557283.0,
      "src": "S-MAP 3D getModelIdFromPixel=172425217(유담관 모델) 2m 셀 경계 합집합 후 1m 단순화 (2026-10-09)",
      "err_xy_m_assumed": 2.0
     },
     {
      "x": 201049.0,
      "y": 557283.0,
      "src": "S-MAP 3D getModelIdFromPixel=172425217(유담관 모델) 2m 셀 경계 합집합 후 1m 단순화 (2026-10-09)",
      "err_xy_m_assumed": 2.0
     },
     {
      "x": 201049.0,
      "y": 557281.0,
      "src": "S-MAP 3D getModelIdFromPixel=172425217(유담관 모델) 2m 셀 경계 합집합 후 1m 단순화 (2026-10-09)",
      "err_xy_m_assumed": 2.0
     },
     {
      "x": 201057.0,
      "y": 557279.0,
      "src": "S-MAP 3D getModelIdFromPixel=172425217(유담관 모델) 2m 셀 경계 합집합 후 1m 단순화 (2026-10-09)",
      "err_xy_m_assumed": 2.0
     },
     {
      "x": 201059.0,
      "y": 557275.0,
      "src": "S-MAP 3D getModelIdFromPixel=172425217(유담관 모델) 2m 셀 경계 합집합 후 1m 단순화 (2026-10-09)",
      "err_xy_m_assumed": 2.0
     },
     {
      "x": 201063.0,
      "y": 557275.0,
      "src": "S-MAP 3D getModelIdFromPixel=172425217(유담관 모델) 2m 셀 경계 합집합 후 1m 단순화 (2026-10-09)",
      "err_xy_m_assumed": 2.0
     },
     {
      "x": 201063.0,
      "y": 557273.0,
      "src": "S-MAP 3D getModelIdFromPixel=172425217(유담관 모델) 2m 셀 경계 합집합 후 1m 단순화 (2026-10-09)",
      "err_xy_m_assumed": 2.0
     },
     {
      "x": 201065.0,
      "y": 557273.0,
      "src": "S-MAP 3D getModelIdFromPixel=172425217(유담관 모델) 2m 셀 경계 합집합 후 1m 단순화 (2026-10-09)",
      "err_xy_m_assumed": 2.0
     },
     {
      "x": 201065.0,
      "y": 557271.0,
      "src": "S-MAP 3D getModelIdFromPixel=172425217(유담관 모델) 2m 셀 경계 합집합 후 1m 단순화 (2026-10-09)",
      "err_xy_m_assumed": 2.0
     },
     {
      "x": 201067.0,
      "y": 557271.0,
      "src": "S-MAP 3D getModelIdFromPixel=172425217(유담관 모델) 2m 셀 경계 합집합 후 1m 단순화 (2026-10-09)",
      "err_xy_m_assumed": 2.0
     },
     {
      "x": 201067.0,
      "y": 557269.0,
      "src": "S-MAP 3D getModelIdFromPixel=172425217(유담관 모델) 2m 셀 경계 합집합 후 1m 단순화 (2026-10-09)",
      "err_xy_m_assumed": 2.0
     },
     {
      "x": 201071.0,
      "y": 557267.0,
      "src": "S-MAP 3D getModelIdFromPixel=172425217(유담관 모델) 2m 셀 경계 합집합 후 1m 단순화 (2026-10-09)",
      "err_xy_m_assumed": 2.0
     },
     {
      "x": 201071.0,
      "y": 557263.0,
      "src": "S-MAP 3D getModelIdFromPixel=172425217(유담관 모델) 2m 셀 경계 합집합 후 1m 단순화 (2026-10-09)",
      "err_xy_m_assumed": 2.0
     },
     {
      "x": 201075.0,
      "y": 557263.0,
      "src": "S-MAP 3D getModelIdFromPixel=172425217(유담관 모델) 2m 셀 경계 합집합 후 1m 단순화 (2026-10-09)",
      "err_xy_m_assumed": 2.0
     },
     {
      "x": 201075.0,
      "y": 557261.0,
      "src": "S-MAP 3D getModelIdFromPixel=172425217(유담관 모델) 2m 셀 경계 합집합 후 1m 단순화 (2026-10-09)",
      "err_xy_m_assumed": 2.0
     },
     {
      "x": 201077.0,
      "y": 557261.0,
      "src": "S-MAP 3D getModelIdFromPixel=172425217(유담관 모델) 2m 셀 경계 합집합 후 1m 단순화 (2026-10-09)",
      "err_xy_m_assumed": 2.0
     },
     {
      "x": 201075.0,
      "y": 557257.0,
      "src": "S-MAP 3D getModelIdFromPixel=172425217(유담관 모델) 2m 셀 경계 합집합 후 1m 단순화 (2026-10-09)",
      "err_xy_m_assumed": 2.0
     },
     {
      "x": 201077.0,
      "y": 557257.0,
      "src": "S-MAP 3D getModelIdFromPixel=172425217(유담관 모델) 2m 셀 경계 합집합 후 1m 단순화 (2026-10-09)",
      "err_xy_m_assumed": 2.0
     },
     {
      "x": 201077.0,
      "y": 557253.0,
      "src": "S-MAP 3D getModelIdFromPixel=172425217(유담관 모델) 2m 셀 경계 합집합 후 1m 단순화 (2026-10-09)",
      "err_xy_m_assumed": 2.0
     },
     {
      "x": 201079.0,
      "y": 557253.0,
      "src": "S-MAP 3D getModelIdFromPixel=172425217(유담관 모델) 2m 셀 경계 합집합 후 1m 단순화 (2026-10-09)",
      "err_xy_m_assumed": 2.0
     },
     {
      "x": 201079.0,
      "y": 557251.0,
      "src": "S-MAP 3D getModelIdFromPixel=172425217(유담관 모델) 2m 셀 경계 합집합 후 1m 단순화 (2026-10-09)",
      "err_xy_m_assumed": 2.0
     },
     {
      "x": 201071.0,
      "y": 557251.0,
      "src": "S-MAP 3D getModelIdFromPixel=172425217(유담관 모델) 2m 셀 경계 합집합 후 1m 단순화 (2026-10-09)",
      "err_xy_m_assumed": 2.0
     },
     {
      "x": 201071.0,
      "y": 557249.0,
      "src": "S-MAP 3D getModelIdFromPixel=172425217(유담관 모델) 2m 셀 경계 합집합 후 1m 단순화 (2026-10-09)",
      "err_xy_m_assumed": 2.0
     },
     {
      "x": 201073.0,
      "y": 557249.0,
      "src": "S-MAP 3D getModelIdFromPixel=172425217(유담관 모델) 2m 셀 경계 합집합 후 1m 단순화 (2026-10-09)",
      "err_xy_m_assumed": 2.0
     },
     {
      "x": 201073.0,
      "y": 557245.0,
      "src": "S-MAP 3D getModelIdFromPixel=172425217(유담관 모델) 2m 셀 경계 합집합 후 1m 단순화 (2026-10-09)",
      "err_xy_m_assumed": 2.0
     },
     {
      "x": 201067.0,
      "y": 557245.0,
      "src": "S-MAP 3D getModelIdFromPixel=172425217(유담관 모델) 2m 셀 경계 합집합 후 1m 단순화 (2026-10-09)",
      "err_xy_m_assumed": 2.0
     },
     {
      "x": 201067.0,
      "y": 557243.0,
      "src": "S-MAP 3D getModelIdFromPixel=172425217(유담관 모델) 2m 셀 경계 합집합 후 1m 단순화 (2026-10-09)",
      "err_xy_m_assumed": 2.0
     },
     {
      "x": 201069.0,
      "y": 557243.0,
      "src": "S-MAP 3D getModelIdFromPixel=172425217(유담관 모델) 2m 셀 경계 합집합 후 1m 단순화 (2026-10-09)",
      "err_xy_m_assumed": 2.0
     },
     {
      "x": 201069.0,
      "y": 557237.0,
      "src": "S-MAP 3D getModelIdFromPixel=172425217(유담관 모델) 2m 셀 경계 합집합 후 1m 단순화 (2026-10-09)",
      "err_xy_m_assumed": 2.0
     },
     {
      "x": 201063.0,
      "y": 557237.0,
      "src": "S-MAP 3D getModelIdFromPixel=172425217(유담관 모델) 2m 셀 경계 합집합 후 1m 단순화 (2026-10-09)",
      "err_xy_m_assumed": 2.0
     },
     {
      "x": 201063.0,
      "y": 557235.0,
      "src": "S-MAP 3D getModelIdFromPixel=172425217(유담관 모델) 2m 셀 경계 합집합 후 1m 단순화 (2026-10-09)",
      "err_xy_m_assumed": 2.0
     },
     {
      "x": 201059.0,
      "y": 557235.0,
      "src": "S-MAP 3D getModelIdFromPixel=172425217(유담관 모델) 2m 셀 경계 합집합 후 1m 단순화 (2026-10-09)",
      "err_xy_m_assumed": 2.0
     },
     {
      "x": 201059.0,
      "y": 557237.0,
      "src": "S-MAP 3D getModelIdFromPixel=172425217(유담관 모델) 2m 셀 경계 합집합 후 1m 단순화 (2026-10-09)",
      "err_xy_m_assumed": 2.0
     },
     {
      "x": 201055.0,
      "y": 557237.0,
      "src": "S-MAP 3D getModelIdFromPixel=172425217(유담관 모델) 2m 셀 경계 합집합 후 1m 단순화 (2026-10-09)",
      "err_xy_m_assumed": 2.0
     },
     {
      "x": 201055.0,
      "y": 557239.0,
      "src": "S-MAP 3D getModelIdFromPixel=172425217(유담관 모델) 2m 셀 경계 합집합 후 1m 단순화 (2026-10-09)",
      "err_xy_m_assumed": 2.0
     },
     {
      "x": 201049.0,
      "y": 557239.0,
      "src": "S-MAP 3D getModelIdFromPixel=172425217(유담관 모델) 2m 셀 경계 합집합 후 1m 단순화 (2026-10-09)",
      "err_xy_m_assumed": 2.0
     },
     {
      "x": 201049.0,
      "y": 557241.0,
      "src": "S-MAP 3D getModelIdFromPixel=172425217(유담관 모델) 2m 셀 경계 합집합 후 1m 단순화 (2026-10-09)",
      "err_xy_m_assumed": 2.0
     },
     {
      "x": 201043.0,
      "y": 557241.0,
      "src": "S-MAP 3D getModelIdFromPixel=172425217(유담관 모델) 2m 셀 경계 합집합 후 1m 단순화 (2026-10-09)",
      "err_xy_m_assumed": 2.0
     },
     {
      "x": 201043.0,
      "y": 557243.0,
      "src": "S-MAP 3D getModelIdFromPixel=172425217(유담관 모델) 2m 셀 경계 합집합 후 1m 단순화 (2026-10-09)",
      "err_xy_m_assumed": 2.0
     },
     {
      "x": 201035.0,
      "y": 557245.0,
      "src": "S-MAP 3D getModelIdFromPixel=172425217(유담관 모델) 2m 셀 경계 합집합 후 1m 단순화 (2026-10-09)",
      "err_xy_m_assumed": 2.0
     },
     {
      "x": 201035.0,
      "y": 557247.0,
      "src": "S-MAP 3D getModelIdFromPixel=172425217(유담관 모델) 2m 셀 경계 합집합 후 1m 단순화 (2026-10-09)",
      "err_xy_m_assumed": 2.0
     },
     {
      "x": 201033.0,
      "y": 557247.0,
      "src": "S-MAP 3D getModelIdFromPixel=172425217(유담관 모델) 2m 셀 경계 합집합 후 1m 단순화 (2026-10-09)",
      "err_xy_m_assumed": 2.0
     },
     {
      "x": 201031.0,
      "y": 557251.0,
      "src": "S-MAP 3D getModelIdFromPixel=172425217(유담관 모델) 2m 셀 경계 합집합 후 1m 단순화 (2026-10-09)",
      "err_xy_m_assumed": 2.0
     },
     {
      "x": 201027.0,
      "y": 557251.0,
      "src": "S-MAP 3D getModelIdFromPixel=172425217(유담관 모델) 2m 셀 경계 합집합 후 1m 단순화 (2026-10-09)",
      "err_xy_m_assumed": 2.0
     },
     {
      "x": 201027.0,
      "y": 557253.0,
      "src": "S-MAP 3D getModelIdFromPixel=172425217(유담관 모델) 2m 셀 경계 합집합 후 1m 단순화 (2026-10-09)",
      "err_xy_m_assumed": 2.0
     },
     {
      "x": 201023.0,
      "y": 557255.0,
      "src": "S-MAP 3D getModelIdFromPixel=172425217(유담관 모델) 2m 셀 경계 합집합 후 1m 단순화 (2026-10-09)",
      "err_xy_m_assumed": 2.0
     }
    ]
   },
   "geometry": {
    "type": "Polygon",
    "coordinates": [
     [
      [
       201023.0,
       557255.0
      ],
      [
       201023.0,
       557259.0
      ],
      [
       201021.0,
       557259.0
      ],
      [
       201021.0,
       557261.0
      ],
      [
       201013.0,
       557263.0
      ],
      [
       201013.0,
       557265.0
      ],
      [
       201015.0,
       557265.0
      ],
      [
       201015.0,
       557271.0
      ],
      [
       201013.0,
       557271.0
      ],
      [
       201013.0,
       557273.0
      ],
      [
       201017.0,
       557273.0
      ],
      [
       201017.0,
       557277.0
      ],
      [
       201019.0,
       557277.0
      ],
      [
       201019.0,
       557279.0
      ],
      [
       201023.0,
       557279.0
      ],
      [
       201023.0,
       557287.0
      ],
      [
       201035.0,
       557289.0
      ],
      [
       201035.0,
       557287.0
      ],
      [
       201039.0,
       557287.0
      ],
      [
       201039.0,
       557285.0
      ],
      [
       201045.0,
       557285.0
      ],
      [
       201045.0,
       557283.0
      ],
      [
       201049.0,
       557283.0
      ],
      [
       201049.0,
       557281.0
      ],
      [
       201057.0,
       557279.0
      ],
      [
       201059.0,
       557275.0
      ],
      [
       201063.0,
       557275.0
      ],
      [
       201063.0,
       557273.0
      ],
      [
       201065.0,
       557273.0
      ],
      [
       201065.0,
       557271.0
      ],
      [
       201067.0,
       557271.0
      ],
      [
       201067.0,
       557269.0
      ],
      [
       201071.0,
       557267.0
      ],
      [
       201071.0,
       557263.0
      ],
      [
       201075.0,
       557263.0
      ],
      [
       201075.0,
       557261.0
      ],
      [
       201077.0,
       557261.0
      ],
      [
       201075.0,
       557257.0
      ],
      [
       201077.0,
       557257.0
      ],
      [
       201077.0,
       557253.0
      ],
      [
       201079.0,
       557253.0
      ],
      [
       201079.0,
       557251.0
      ],
      [
       201071.0,
       557251.0
      ],
      [
       201071.0,
       557249.0
      ],
      [
       201073.0,
       557249.0
      ],
      [
       201073.0,
       557245.0
      ],
      [
       201067.0,
       557245.0
      ],
      [
       201067.0,
       557243.0
      ],
      [
       201069.0,
       557243.0
      ],
      [
       201069.0,
       557237.0
      ],
      [
       201063.0,
       557237.0
      ],
      [
       201063.0,
       557235.0
      ],
      [
       201059.0,
       557235.0
      ],
      [
       201059.0,
       557237.0
      ],
      [
       201055.0,
       557237.0
      ],
      [
       201055.0,
       557239.0
      ],
      [
       201049.0,
       557239.0
      ],
      [
       201049.0,
       557241.0
      ],
      [
       201043.0,
       557241.0
      ],
      [
       201043.0,
       557243.0
      ],
      [
       201035.0,
       557245.0
      ],
      [
       201035.0,
       557247.0
      ],
      [
       201033.0,
       557247.0
      ],
      [
       201031.0,
       557251.0
      ],
      [
       201027.0,
       557251.0
      ],
      [
       201027.0,
       557253.0
      ],
      [
       201023.0,
       557255.0
      ]
     ]
    ]
   }
  },
  {
   "type": "Feature",
   "properties": {
    "id": "Y-B",
    "part": "서·남서 평탄 데크(가려진 저층부 지붕 또는 상부 광장 추정)",
    "accuracyVerified": false,
    "area_m2": 605.3,
    "topZ_median": 129.1,
    "topZ_min": 128.8,
    "topZ_max": 129.4,
    "topZ_source": "S-MAP 지형 메시 표면 z. S-MAP dem_z(D2 201040,557236)=115.8m보다 약13m 위",
    "baseZ": null,
    "baseZ_note": "미확정. 데크 아래 저층부 존재·층수 미확인(사진·도면 없음)",
    "err_xy_m_assumed": 2.0,
    "err_z_m_assumed": 0.5,
    "vertices": [
     {
      "x": 201007.0,
      "y": 557273.0,
      "src": "S-MAP 3D 지형 메시 표면 z 128.8~129.4 평탄 셀(유담관 외곽선 안) 2m 셀 경계, 1m 단순화 (2026-10-09)",
      "err_xy_m_assumed": 2.0
     },
     {
      "x": 201007.0,
      "y": 557275.0,
      "src": "S-MAP 3D 지형 메시 표면 z 128.8~129.4 평탄 셀(유담관 외곽선 안) 2m 셀 경계, 1m 단순화 (2026-10-09)",
      "err_xy_m_assumed": 2.0
     },
     {
      "x": 201011.0,
      "y": 557275.0,
      "src": "S-MAP 3D 지형 메시 표면 z 128.8~129.4 평탄 셀(유담관 외곽선 안) 2m 셀 경계, 1m 단순화 (2026-10-09)",
      "err_xy_m_assumed": 2.0
     },
     {
      "x": 201011.0,
      "y": 557277.0,
      "src": "S-MAP 3D 지형 메시 표면 z 128.8~129.4 평탄 셀(유담관 외곽선 안) 2m 셀 경계, 1m 단순화 (2026-10-09)",
      "err_xy_m_assumed": 2.0
     },
     {
      "x": 201013.0,
      "y": 557277.0,
      "src": "S-MAP 3D 지형 메시 표면 z 128.8~129.4 평탄 셀(유담관 외곽선 안) 2m 셀 경계, 1m 단순화 (2026-10-09)",
      "err_xy_m_assumed": 2.0
     },
     {
      "x": 201013.0,
      "y": 557281.0,
      "src": "S-MAP 3D 지형 메시 표면 z 128.8~129.4 평탄 셀(유담관 외곽선 안) 2m 셀 경계, 1m 단순화 (2026-10-09)",
      "err_xy_m_assumed": 2.0
     },
     {
      "x": 201015.0,
      "y": 557281.0,
      "src": "S-MAP 3D 지형 메시 표면 z 128.8~129.4 평탄 셀(유담관 외곽선 안) 2m 셀 경계, 1m 단순화 (2026-10-09)",
      "err_xy_m_assumed": 2.0
     },
     {
      "x": 201015.0,
      "y": 557287.0,
      "src": "S-MAP 3D 지형 메시 표면 z 128.8~129.4 평탄 셀(유담관 외곽선 안) 2m 셀 경계, 1m 단순화 (2026-10-09)",
      "err_xy_m_assumed": 2.0
     },
     {
      "x": 201017.0,
      "y": 557287.0,
      "src": "S-MAP 3D 지형 메시 표면 z 128.8~129.4 평탄 셀(유담관 외곽선 안) 2m 셀 경계, 1m 단순화 (2026-10-09)",
      "err_xy_m_assumed": 2.0
     },
     {
      "x": 201017.0,
      "y": 557289.0,
      "src": "S-MAP 3D 지형 메시 표면 z 128.8~129.4 평탄 셀(유담관 외곽선 안) 2m 셀 경계, 1m 단순화 (2026-10-09)",
      "err_xy_m_assumed": 2.0
     },
     {
      "x": 201019.0,
      "y": 557289.0,
      "src": "S-MAP 3D 지형 메시 표면 z 128.8~129.4 평탄 셀(유담관 외곽선 안) 2m 셀 경계, 1m 단순화 (2026-10-09)",
      "err_xy_m_assumed": 2.0
     },
     {
      "x": 201019.0,
      "y": 557291.0,
      "src": "S-MAP 3D 지형 메시 표면 z 128.8~129.4 평탄 셀(유담관 외곽선 안) 2m 셀 경계, 1m 단순화 (2026-10-09)",
      "err_xy_m_assumed": 2.0
     },
     {
      "x": 201021.0,
      "y": 557291.0,
      "src": "S-MAP 3D 지형 메시 표면 z 128.8~129.4 평탄 셀(유담관 외곽선 안) 2m 셀 경계, 1m 단순화 (2026-10-09)",
      "err_xy_m_assumed": 2.0
     },
     {
      "x": 201021.0,
      "y": 557293.0,
      "src": "S-MAP 3D 지형 메시 표면 z 128.8~129.4 평탄 셀(유담관 외곽선 안) 2m 셀 경계, 1m 단순화 (2026-10-09)",
      "err_xy_m_assumed": 2.0
     },
     {
      "x": 201023.87,
      "y": 557294.43,
      "src": "S-MAP 3D 지형 메시 표면 z 128.8~129.4 평탄 셀(유담관 외곽선 안) 2m 셀 경계, 1m 단순화 (2026-10-09)",
      "err_xy_m_assumed": 2.0
     },
     {
      "x": 201025.0,
      "y": 557293.69,
      "src": "S-MAP 3D 지형 메시 표면 z 128.8~129.4 평탄 셀(유담관 외곽선 안) 2m 셀 경계, 1m 단순화 (2026-10-09)",
      "err_xy_m_assumed": 2.0
     },
     {
      "x": 201025.0,
      "y": 557293.0,
      "src": "S-MAP 3D 지형 메시 표면 z 128.8~129.4 평탄 셀(유담관 외곽선 안) 2m 셀 경계, 1m 단순화 (2026-10-09)",
      "err_xy_m_assumed": 2.0
     },
     {
      "x": 201026.06,
      "y": 557293.0,
      "src": "S-MAP 3D 지형 메시 표면 z 128.8~129.4 평탄 셀(유담관 외곽선 안) 2m 셀 경계, 1m 단순화 (2026-10-09)",
      "err_xy_m_assumed": 2.0
     },
     {
      "x": 201027.0,
      "y": 557292.39,
      "src": "S-MAP 3D 지형 메시 표면 z 128.8~129.4 평탄 셀(유담관 외곽선 안) 2m 셀 경계, 1m 단순화 (2026-10-09)",
      "err_xy_m_assumed": 2.0
     },
     {
      "x": 201027.0,
      "y": 557289.0,
      "src": "S-MAP 3D 지형 메시 표면 z 128.8~129.4 평탄 셀(유담관 외곽선 안) 2m 셀 경계, 1m 단순화 (2026-10-09)",
      "err_xy_m_assumed": 2.0
     },
     {
      "x": 201025.0,
      "y": 557289.0,
      "src": "S-MAP 3D 지형 메시 표면 z 128.8~129.4 평탄 셀(유담관 외곽선 안) 2m 셀 경계, 1m 단순화 (2026-10-09)",
      "err_xy_m_assumed": 2.0
     },
     {
      "x": 201025.0,
      "y": 557287.33,
      "src": "S-MAP 3D 지형 메시 표면 z 128.8~129.4 평탄 셀(유담관 외곽선 안) 2m 셀 경계, 1m 단순화 (2026-10-09)",
      "err_xy_m_assumed": 2.0
     },
     {
      "x": 201023.0,
      "y": 557287.0,
      "src": "S-MAP 3D 지형 메시 표면 z 128.8~129.4 평탄 셀(유담관 외곽선 안) 2m 셀 경계, 1m 단순화 (2026-10-09)",
      "err_xy_m_assumed": 2.0
     },
     {
      "x": 201021.0,
      "y": 557287.0,
      "src": "S-MAP 3D 지형 메시 표면 z 128.8~129.4 평탄 셀(유담관 외곽선 안) 2m 셀 경계, 1m 단순화 (2026-10-09)",
      "err_xy_m_assumed": 2.0
     },
     {
      "x": 201021.0,
      "y": 557281.0,
      "src": "S-MAP 3D 지형 메시 표면 z 128.8~129.4 평탄 셀(유담관 외곽선 안) 2m 셀 경계, 1m 단순화 (2026-10-09)",
      "err_xy_m_assumed": 2.0
     },
     {
      "x": 201019.0,
      "y": 557281.0,
      "src": "S-MAP 3D 지형 메시 표면 z 128.8~129.4 평탄 셀(유담관 외곽선 안) 2m 셀 경계, 1m 단순화 (2026-10-09)",
      "err_xy_m_assumed": 2.0
     },
     {
      "x": 201018.0,
      "y": 557277.0,
      "src": "S-MAP 3D 지형 메시 표면 z 128.8~129.4 평탄 셀(유담관 외곽선 안) 2m 셀 경계, 1m 단순화 (2026-10-09)",
      "err_xy_m_assumed": 2.0
     },
     {
      "x": 201017.0,
      "y": 557277.0,
      "src": "S-MAP 3D 지형 메시 표면 z 128.8~129.4 평탄 셀(유담관 외곽선 안) 2m 셀 경계, 1m 단순화 (2026-10-09)",
      "err_xy_m_assumed": 2.0
     },
     {
      "x": 201017.0,
      "y": 557273.0,
      "src": "S-MAP 3D 지형 메시 표면 z 128.8~129.4 평탄 셀(유담관 외곽선 안) 2m 셀 경계, 1m 단순화 (2026-10-09)",
      "err_xy_m_assumed": 2.0
     },
     {
      "x": 201013.0,
      "y": 557273.0,
      "src": "S-MAP 3D 지형 메시 표면 z 128.8~129.4 평탄 셀(유담관 외곽선 안) 2m 셀 경계, 1m 단순화 (2026-10-09)",
      "err_xy_m_assumed": 2.0
     },
     {
      "x": 201013.0,
      "y": 557271.0,
      "src": "S-MAP 3D 지형 메시 표면 z 128.8~129.4 평탄 셀(유담관 외곽선 안) 2m 셀 경계, 1m 단순화 (2026-10-09)",
      "err_xy_m_assumed": 2.0
     },
     {
      "x": 201013.0,
      "y": 557269.0,
      "src": "S-MAP 3D 지형 메시 표면 z 128.8~129.4 평탄 셀(유담관 외곽선 안) 2m 셀 경계, 1m 단순화 (2026-10-09)",
      "err_xy_m_assumed": 2.0
     },
     {
      "x": 201015.0,
      "y": 557269.0,
      "src": "S-MAP 3D 지형 메시 표면 z 128.8~129.4 평탄 셀(유담관 외곽선 안) 2m 셀 경계, 1m 단순화 (2026-10-09)",
      "err_xy_m_assumed": 2.0
     },
     {
      "x": 201015.0,
      "y": 557267.0,
      "src": "S-MAP 3D 지형 메시 표면 z 128.8~129.4 평탄 셀(유담관 외곽선 안) 2m 셀 경계, 1m 단순화 (2026-10-09)",
      "err_xy_m_assumed": 2.0
     },
     {
      "x": 201013.0,
      "y": 557267.0,
      "src": "S-MAP 3D 지형 메시 표면 z 128.8~129.4 평탄 셀(유담관 외곽선 안) 2m 셀 경계, 1m 단순화 (2026-10-09)",
      "err_xy_m_assumed": 2.0
     },
     {
      "x": 201013.0,
      "y": 557265.0,
      "src": "S-MAP 3D 지형 메시 표면 z 128.8~129.4 평탄 셀(유담관 외곽선 안) 2m 셀 경계, 1m 단순화 (2026-10-09)",
      "err_xy_m_assumed": 2.0
     },
     {
      "x": 201013.0,
      "y": 557263.0,
      "src": "S-MAP 3D 지형 메시 표면 z 128.8~129.4 평탄 셀(유담관 외곽선 안) 2m 셀 경계, 1m 단순화 (2026-10-09)",
      "err_xy_m_assumed": 2.0
     },
     {
      "x": 201021.0,
      "y": 557261.0,
      "src": "S-MAP 3D 지형 메시 표면 z 128.8~129.4 평탄 셀(유담관 외곽선 안) 2m 셀 경계, 1m 단순화 (2026-10-09)",
      "err_xy_m_assumed": 2.0
     },
     {
      "x": 201021.0,
      "y": 557259.0,
      "src": "S-MAP 3D 지형 메시 표면 z 128.8~129.4 평탄 셀(유담관 외곽선 안) 2m 셀 경계, 1m 단순화 (2026-10-09)",
      "err_xy_m_assumed": 2.0
     },
     {
      "x": 201021.0,
      "y": 557257.0,
      "src": "S-MAP 3D 지형 메시 표면 z 128.8~129.4 평탄 셀(유담관 외곽선 안) 2m 셀 경계, 1m 단순화 (2026-10-09)",
      "err_xy_m_assumed": 2.0
     },
     {
      "x": 201023.0,
      "y": 557257.0,
      "src": "S-MAP 3D 지형 메시 표면 z 128.8~129.4 평탄 셀(유담관 외곽선 안) 2m 셀 경계, 1m 단순화 (2026-10-09)",
      "err_xy_m_assumed": 2.0
     },
     {
      "x": 201023.0,
      "y": 557255.0,
      "src": "S-MAP 3D 지형 메시 표면 z 128.8~129.4 평탄 셀(유담관 외곽선 안) 2m 셀 경계, 1m 단순화 (2026-10-09)",
      "err_xy_m_assumed": 2.0
     },
     {
      "x": 201025.67,
      "y": 557253.67,
      "src": "S-MAP 3D 지형 메시 표면 z 128.8~129.4 평탄 셀(유담관 외곽선 안) 2m 셀 경계, 1m 단순화 (2026-10-09)",
      "err_xy_m_assumed": 2.0
     },
     {
      "x": 201027.0,
      "y": 557251.0,
      "src": "S-MAP 3D 지형 메시 표면 z 128.8~129.4 평탄 셀(유담관 외곽선 안) 2m 셀 경계, 1m 단순화 (2026-10-09)",
      "err_xy_m_assumed": 2.0
     },
     {
      "x": 201031.0,
      "y": 557251.0,
      "src": "S-MAP 3D 지형 메시 표면 z 128.8~129.4 평탄 셀(유담관 외곽선 안) 2m 셀 경계, 1m 단순화 (2026-10-09)",
      "err_xy_m_assumed": 2.0
     },
     {
      "x": 201031.0,
      "y": 557249.0,
      "src": "S-MAP 3D 지형 메시 표면 z 128.8~129.4 평탄 셀(유담관 외곽선 안) 2m 셀 경계, 1m 단순화 (2026-10-09)",
      "err_xy_m_assumed": 2.0
     },
     {
      "x": 201032.0,
      "y": 557249.0,
      "src": "S-MAP 3D 지형 메시 표면 z 128.8~129.4 평탄 셀(유담관 외곽선 안) 2m 셀 경계, 1m 단순화 (2026-10-09)",
      "err_xy_m_assumed": 2.0
     },
     {
      "x": 201033.0,
      "y": 557247.0,
      "src": "S-MAP 3D 지형 메시 표면 z 128.8~129.4 평탄 셀(유담관 외곽선 안) 2m 셀 경계, 1m 단순화 (2026-10-09)",
      "err_xy_m_assumed": 2.0
     },
     {
      "x": 201034.0,
      "y": 557247.0,
      "src": "S-MAP 3D 지형 메시 표면 z 128.8~129.4 평탄 셀(유담관 외곽선 안) 2m 셀 경계, 1m 단순화 (2026-10-09)",
      "err_xy_m_assumed": 2.0
     },
     {
      "x": 201035.0,
      "y": 557245.0,
      "src": "S-MAP 3D 지형 메시 표면 z 128.8~129.4 평탄 셀(유담관 외곽선 안) 2m 셀 경계, 1m 단순화 (2026-10-09)",
      "err_xy_m_assumed": 2.0
     },
     {
      "x": 201043.0,
      "y": 557243.0,
      "src": "S-MAP 3D 지형 메시 표면 z 128.8~129.4 평탄 셀(유담관 외곽선 안) 2m 셀 경계, 1m 단순화 (2026-10-09)",
      "err_xy_m_assumed": 2.0
     },
     {
      "x": 201043.0,
      "y": 557241.0,
      "src": "S-MAP 3D 지형 메시 표면 z 128.8~129.4 평탄 셀(유담관 외곽선 안) 2m 셀 경계, 1m 단순화 (2026-10-09)",
      "err_xy_m_assumed": 2.0
     },
     {
      "x": 201047.0,
      "y": 557239.0,
      "src": "S-MAP 3D 지형 메시 표면 z 128.8~129.4 평탄 셀(유담관 외곽선 안) 2m 셀 경계, 1m 단순화 (2026-10-09)",
      "err_xy_m_assumed": 2.0
     },
     {
      "x": 201047.0,
      "y": 557235.0,
      "src": "S-MAP 3D 지형 메시 표면 z 128.8~129.4 평탄 셀(유담관 외곽선 안) 2m 셀 경계, 1m 단순화 (2026-10-09)",
      "err_xy_m_assumed": 2.0
     },
     {
      "x": 201049.0,
      "y": 557235.0,
      "src": "S-MAP 3D 지형 메시 표면 z 128.8~129.4 평탄 셀(유담관 외곽선 안) 2m 셀 경계, 1m 단순화 (2026-10-09)",
      "err_xy_m_assumed": 2.0
     },
     {
      "x": 201049.0,
      "y": 557233.0,
      "src": "S-MAP 3D 지형 메시 표면 z 128.8~129.4 평탄 셀(유담관 외곽선 안) 2m 셀 경계, 1m 단순화 (2026-10-09)",
      "err_xy_m_assumed": 2.0
     },
     {
      "x": 201047.0,
      "y": 557233.0,
      "src": "S-MAP 3D 지형 메시 표면 z 128.8~129.4 평탄 셀(유담관 외곽선 안) 2m 셀 경계, 1m 단순화 (2026-10-09)",
      "err_xy_m_assumed": 2.0
     },
     {
      "x": 201047.0,
      "y": 557231.0,
      "src": "S-MAP 3D 지형 메시 표면 z 128.8~129.4 평탄 셀(유담관 외곽선 안) 2m 셀 경계, 1m 단순화 (2026-10-09)",
      "err_xy_m_assumed": 2.0
     },
     {
      "x": 201041.0,
      "y": 557231.0,
      "src": "S-MAP 3D 지형 메시 표면 z 128.8~129.4 평탄 셀(유담관 외곽선 안) 2m 셀 경계, 1m 단순화 (2026-10-09)",
      "err_xy_m_assumed": 2.0
     },
     {
      "x": 201041.0,
      "y": 557233.0,
      "src": "S-MAP 3D 지형 메시 표면 z 128.8~129.4 평탄 셀(유담관 외곽선 안) 2m 셀 경계, 1m 단순화 (2026-10-09)",
      "err_xy_m_assumed": 2.0
     },
     {
      "x": 201039.0,
      "y": 557233.0,
      "src": "S-MAP 3D 지형 메시 표면 z 128.8~129.4 평탄 셀(유담관 외곽선 안) 2m 셀 경계, 1m 단순화 (2026-10-09)",
      "err_xy_m_assumed": 2.0
     },
     {
      "x": 201037.0,
      "y": 557237.0,
      "src": "S-MAP 3D 지형 메시 표면 z 128.8~129.4 평탄 셀(유담관 외곽선 안) 2m 셀 경계, 1m 단순화 (2026-10-09)",
      "err_xy_m_assumed": 2.0
     },
     {
      "x": 201031.0,
      "y": 557237.0,
      "src": "S-MAP 3D 지형 메시 표면 z 128.8~129.4 평탄 셀(유담관 외곽선 안) 2m 셀 경계, 1m 단순화 (2026-10-09)",
      "err_xy_m_assumed": 2.0
     },
     {
      "x": 201031.0,
      "y": 557239.0,
      "src": "S-MAP 3D 지형 메시 표면 z 128.8~129.4 평탄 셀(유담관 외곽선 안) 2m 셀 경계, 1m 단순화 (2026-10-09)",
      "err_xy_m_assumed": 2.0
     },
     {
      "x": 201029.0,
      "y": 557239.0,
      "src": "S-MAP 3D 지형 메시 표면 z 128.8~129.4 평탄 셀(유담관 외곽선 안) 2m 셀 경계, 1m 단순화 (2026-10-09)",
      "err_xy_m_assumed": 2.0
     },
     {
      "x": 201029.0,
      "y": 557241.0,
      "src": "S-MAP 3D 지형 메시 표면 z 128.8~129.4 평탄 셀(유담관 외곽선 안) 2m 셀 경계, 1m 단순화 (2026-10-09)",
      "err_xy_m_assumed": 2.0
     },
     {
      "x": 201025.0,
      "y": 557241.0,
      "src": "S-MAP 3D 지형 메시 표면 z 128.8~129.4 평탄 셀(유담관 외곽선 안) 2m 셀 경계, 1m 단순화 (2026-10-09)",
      "err_xy_m_assumed": 2.0
     },
     {
      "x": 201023.0,
      "y": 557245.0,
      "src": "S-MAP 3D 지형 메시 표면 z 128.8~129.4 평탄 셀(유담관 외곽선 안) 2m 셀 경계, 1m 단순화 (2026-10-09)",
      "err_xy_m_assumed": 2.0
     },
     {
      "x": 201015.0,
      "y": 557247.0,
      "src": "S-MAP 3D 지형 메시 표면 z 128.8~129.4 평탄 셀(유담관 외곽선 안) 2m 셀 경계, 1m 단순화 (2026-10-09)",
      "err_xy_m_assumed": 2.0
     },
     {
      "x": 201015.0,
      "y": 557251.0,
      "src": "S-MAP 3D 지형 메시 표면 z 128.8~129.4 평탄 셀(유담관 외곽선 안) 2m 셀 경계, 1m 단순화 (2026-10-09)",
      "err_xy_m_assumed": 2.0
     },
     {
      "x": 201011.0,
      "y": 557253.0,
      "src": "S-MAP 3D 지형 메시 표면 z 128.8~129.4 평탄 셀(유담관 외곽선 안) 2m 셀 경계, 1m 단순화 (2026-10-09)",
      "err_xy_m_assumed": 2.0
     },
     {
      "x": 201011.0,
      "y": 557257.0,
      "src": "S-MAP 3D 지형 메시 표면 z 128.8~129.4 평탄 셀(유담관 외곽선 안) 2m 셀 경계, 1m 단순화 (2026-10-09)",
      "err_xy_m_assumed": 2.0
     },
     {
      "x": 201009.0,
      "y": 557257.0,
      "src": "S-MAP 3D 지형 메시 표면 z 128.8~129.4 평탄 셀(유담관 외곽선 안) 2m 셀 경계, 1m 단순화 (2026-10-09)",
      "err_xy_m_assumed": 2.0
     },
     {
      "x": 201009.0,
      "y": 557273.0,
      "src": "S-MAP 3D 지형 메시 표면 z 128.8~129.4 평탄 셀(유담관 외곽선 안) 2m 셀 경계, 1m 단순화 (2026-10-09)",
      "err_xy_m_assumed": 2.0
     },
     {
      "x": 201007.0,
      "y": 557273.0,
      "src": "S-MAP 3D 지형 메시 표면 z 128.8~129.4 평탄 셀(유담관 외곽선 안) 2m 셀 경계, 1m 단순화 (2026-10-09)",
      "err_xy_m_assumed": 2.0
     }
    ]
   },
   "geometry": {
    "type": "Polygon",
    "coordinates": [
     [
      [
       201007.0,
       557273.0
      ],
      [
       201007.0,
       557275.0
      ],
      [
       201011.0,
       557275.0
      ],
      [
       201011.0,
       557277.0
      ],
      [
       201013.0,
       557277.0
      ],
      [
       201013.0,
       557281.0
      ],
      [
       201015.0,
       557281.0
      ],
      [
       201015.0,
       557287.0
      ],
      [
       201017.0,
       557287.0
      ],
      [
       201017.0,
       557289.0
      ],
      [
       201019.0,
       557289.0
      ],
      [
       201019.0,
       557291.0
      ],
      [
       201021.0,
       557291.0
      ],
      [
       201021.0,
       557293.0
      ],
      [
       201023.86659213126,
       557294.4332960657
      ],
      [
       201025.0,
       557293.694090622
      ],
      [
       201025.0,
       557293.0
      ],
      [
       201026.06423427945,
       557293.0
      ],
      [
       201027.0,
       557292.389696213
      ],
      [
       201027.0,
       557289.0
      ],
      [
       201025.0,
       557289.0
      ],
      [
       201025.0,
       557287.3333333334
      ],
      [
       201023.0,
       557287.0
      ],
      [
       201021.0,
       557287.0
      ],
      [
       201021.0,
       557281.0
      ],
      [
       201019.0,
       557281.0
      ],
      [
       201018.0,
       557277.0
      ],
      [
       201017.0,
       557277.0
      ],
      [
       201017.0,
       557273.0
      ],
      [
       201013.0,
       557273.0
      ],
      [
       201013.0,
       557271.0
      ],
      [
       201013.0,
       557269.0
      ],
      [
       201015.0,
       557269.0
      ],
      [
       201015.0,
       557267.0
      ],
      [
       201013.0,
       557267.0
      ],
      [
       201013.0,
       557265.0
      ],
      [
       201013.0,
       557263.0
      ],
      [
       201021.0,
       557261.0
      ],
      [
       201021.0,
       557259.0
      ],
      [
       201021.0,
       557257.0
      ],
      [
       201023.0,
       557257.0
      ],
      [
       201023.0,
       557255.0
      ],
      [
       201025.66666666666,
       557253.6666666666
      ],
      [
       201027.0,
       557251.0
      ],
      [
       201031.0,
       557251.0
      ],
      [
       201031.0,
       557249.0
      ],
      [
       201032.0,
       557249.0
      ],
      [
       201033.0,
       557247.0
      ],
      [
       201034.0,
       557247.0
      ],
      [
       201035.0,
       557245.0
      ],
      [
       201043.0,
       557243.0
      ],
      [
       201043.0,
       557241.0
      ],
      [
       201047.0,
       557239.0
      ],
      [
       201047.0,
       557235.0
      ],
      [
       201049.0,
       557235.0
      ],
      [
       201049.0,
       557233.0
      ],
      [
       201047.0,
       557233.0
      ],
      [
       201047.0,
       557231.0
      ],
      [
       201041.0,
       557231.0
      ],
      [
       201041.0,
       557233.0
      ],
      [
       201039.0,
       557233.0
      ],
      [
       201037.0,
       557237.0
      ],
      [
       201031.0,
       557237.0
      ],
      [
       201031.0,
       557239.0
      ],
      [
       201029.0,
       557239.0
      ],
      [
       201029.0,
       557241.0
      ],
      [
       201025.0,
       557241.0
      ],
      [
       201023.0,
       557245.0
      ],
      [
       201015.0,
       557247.0
      ],
      [
       201015.0,
       557251.0
      ],
      [
       201011.0,
       557253.0
      ],
      [
       201011.0,
       557257.0
      ],
      [
       201009.0,
       557257.0
      ],
      [
       201009.0,
       557273.0
      ],
      [
       201007.0,
       557273.0
      ]
     ]
    ]
   }
  },
  {
   "type": "Feature",
   "properties": {
    "id": "Y-C",
    "part": "보존 구간(확인 불가, 원본 유지)",
    "accuracyVerified": false,
    "area_m2": 1937.8,
    "topZ_median": null,
    "baseZ": null,
    "note": "서측 띠(x≈200992~201010)는 S-MAP 지형 메시이며 표면 130~136m 불규칙(수목·사면 추정), 북측 일부는 회차공간 지면(129~131m, S-MAP dem과 일치). 건물 여부를 온라인으로 확정할 수 없어 원본 외곽선 보존",
    "err_xy_m_assumed": 0.0
   },
   "geometry": {
    "type": "MultiPolygon",
    "coordinates": [
     [
      [
       [
        200998.8633296056,
        557363.735365057
       ],
       [
        201002.91329393117,
        557363.8854294352
       ],
       [
        201003.87341371298,
        557356.0055101637
       ],
       [
        201008.21295387077,
        557320.4658744081
       ],
       [
        201006.72296561496,
        557320.4958500202
       ],
       [
        201008.80321714596,
        557303.9160208456
       ],
       [
        201011.66318979868,
        557304.155065204
       ],
       [
        201012.35322981956,
        557301.3350997086
       ],
       [
        201017.43318796164,
        557301.3451819329
       ],
       [
        201017.39323186944,
        557298.6552035324
       ],
       [
        201023.86659213123,
        557294.4332960657
       ],
       [
        201021.0,
        557293.0
       ],
       [
        201021.0,
        557291.0
       ],
       [
        201019.0,
        557291.0
       ],
       [
        201019.0,
        557289.0
       ],
       [
        201017.0,
        557289.0
       ],
       [
        201017.0,
        557287.0
       ],
       [
        201015.0,
        557287.0
       ],
       [
        201015.0,
        557281.0
       ],
       [
        201013.0,
        557281.0
       ],
       [
        201013.0,
        557277.0
       ],
       [
        201011.0,
        557277.0
       ],
       [
        201011.0,
        557275.0
       ],
       [
        201007.0,
        557275.0
       ],
       [
        201007.0,
        557273.0
       ],
       [
        201009.0,
        557273.0
       ],
       [
        201009.0,
        557257.0
       ],
       [
        201011.0,
        557257.0
       ],
       [
        201011.0,
        557253.0
       ],
       [
        201015.0,
        557251.0
       ],
       [
        201015.0,
        557247.0
       ],
       [
        201023.0,
        557245.0
       ],
       [
        201025.0,
        557241.0
       ],
       [
        201029.0,
        557241.0
       ],
       [
        201029.0,
        557239.0
       ],
       [
        201031.0,
        557239.0
       ],
       [
        201031.0,
        557237.0
       ],
       [
        201037.0,
        557237.0
       ],
       [
        201039.0,
        557233.0
       ],
       [
        201041.0,
        557233.0
       ],
       [
        201041.0,
        557231.0
       ],
       [
        201047.0,
        557231.0
       ],
       [
        201047.0,
        557233.0
       ],
       [
        201049.0,
        557233.0
       ],
       [
        201049.0,
        557235.0
       ],
       [
        201047.0,
        557235.0
       ],
       [
        201047.0,
        557239.0
       ],
       [
        201043.0,
        557241.0
       ],
       [
        201049.0,
        557241.0
       ],
       [
        201049.0,
        557239.0
       ],
       [
        201055.0,
        557239.0
       ],
       [
        201055.0,
        557237.0
       ],
       [
        201059.0,
        557237.0
       ],
       [
        201059.0,
        557235.0
       ],
       [
        201063.0,
        557235.0
       ],
       [
        201063.0,
        557237.0
       ],
       [
        201069.0,
        557237.0
       ],
       [
        201069.0,
        557243.0
       ],
       [
        201067.0,
        557243.0
       ],
       [
        201067.0,
        557245.0
       ],
       [
        201073.0,
        557245.0
       ],
       [
        201073.0,
        557249.0
       ],
       [
        201071.0,
        557249.0
       ],
       [
        201071.0,
        557251.0
       ],
       [
        201076.9379273925,
        557251.0
       ],
       [
        201077.38357465286,
        557247.1056018247
       ],
       [
        201076.64266206275,
        557242.0856313326
       ],
       [
        201075.002758308,
        557236.9756470193
       ],
       [
        201070.3328735889,
        557232.2256106357
       ],
       [
        201065.1129478585,
        557230.2855421028
       ],
       [
        201055.06305350596,
        557228.8553910992
       ],
       [
        201053.16305970415,
        557229.4353555157
       ],
       [
        201051.1430605681,
        557230.405314769
       ],
       [
        201045.54325573338,
        557221.1953002007
       ],
       [
        201005.1731596915,
        557247.5754279679
       ],
       [
        201004.77313575702,
        557249.2554075948
       ],
       [
        201008.07298798137,
        557256.7053994496
       ],
       [
        201006.97299214842,
        557257.0053791462
       ],
       [
        201005.86288121637,
        557264.4152998809
       ],
       [
        201003.84290038742,
        557264.2552684746
       ],
       [
        200992.1425278272,
        557354.9053291919
       ],
       [
        200991.73348031574,
        557358.045296595
       ],
       [
        200992.90246002676,
        557358.7053100753
       ],
       [
        200992.32340013928,
        557362.6952676937
       ],
       [
        200991.35330020348,
        557369.3551968925
       ],
       [
        200997.08324182793,
        557370.0552839421
       ],
       [
        200998.8633296056,
        557363.735365057
       ]
      ]
     ],
     [
      [
       [
        201026.06423427945,
        557293.0
       ],
       [
        201025.0,
        557293.0
       ],
       [
        201025.0,
        557293.694090622
       ],
       [
        201024.55942269298,
        557293.9814339101
       ],
       [
        201026.06423427945,
        557293.0
       ]
      ]
     ],
     [
      [
       [
        201032.7677835258,
        557288.6279639209
       ],
       [
        201023.0,
        557287.0
       ],
       [
        201025.0,
        557287.3333333334
       ],
       [
        201025.0,
        557289.0
       ],
       [
        201027.0,
        557289.0
       ],
       [
        201027.0,
        557292.389696213
       ],
       [
        201032.7677835258,
        557288.6279639209
       ]
      ]
     ],
     [
      [
       [
        201035.26390572567,
        557287.0
       ],
       [
        201035.0,
        557287.0
       ],
       [
        201035.0,
        557287.1721185766
       ],
       [
        201035.26390572567,
        557287.0
       ]
      ]
     ],
     [
      [
       [
        201072.06259151062,
        557263.0
       ],
       [
        201071.0,
        557263.0
       ],
       [
        201071.0,
        557263.6930192128
       ],
       [
        201072.06259151062,
        557263.0
       ]
      ]
     ],
     [
      [
       [
        201075.12914865935,
        557261.0
       ],
       [
        201075.0,
        557261.0
       ],
       [
        201075.0,
        557261.0842303946
       ],
       [
        201075.12914865935,
        557261.0
       ]
      ]
     ],
     [
      [
       [
        201075.44342257568,
        557257.4754846388
       ],
       [
        201075.55754704308,
        557257.0
       ],
       [
        201075.0,
        557257.0
       ],
       [
        201075.9318279876,
        557258.8636559752
       ],
       [
        201075.44342257568,
        557257.4754846388
       ]
      ]
     ],
     [
      [
       [
        201023.0,
        557279.0
       ],
       [
        201019.0,
        557279.0
       ],
       [
        201019.0,
        557277.0
       ],
       [
        201018.0,
        557277.0
       ],
       [
        201019.0,
        557281.0
       ],
       [
        201021.0,
        557281.0
       ],
       [
        201021.0,
        557287.0
       ],
       [
        201023.0,
        557287.0
       ],
       [
        201023.0,
        557279.0
       ]
      ]
     ],
     [
      [
       [
        201023.0,
        557257.0
       ],
       [
        201021.0,
        557257.0
       ],
       [
        201021.0,
        557259.0
       ],
       [
        201023.0,
        557259.0
       ],
       [
        201023.0,
        557257.0
       ]
      ]
     ],
     [
      [
       [
        201013.0,
        557265.0
       ],
       [
        201013.0,
        557267.0
       ],
       [
        201015.0,
        557267.0
       ],
       [
        201015.0,
        557265.0
       ],
       [
        201013.0,
        557265.0
       ]
      ]
     ],
     [
      [
       [
        201015.0,
        557269.0
       ],
       [
        201013.0,
        557269.0
       ],
       [
        201013.0,
        557271.0
       ],
       [
        201015.0,
        557271.0
       ],
       [
        201015.0,
        557269.0
       ]
      ]
     ],
     [
      [
       [
        201035.0,
        557245.0
       ],
       [
        201034.0,
        557247.0
       ],
       [
        201035.0,
        557247.0
       ],
       [
        201035.0,
        557245.0
       ]
      ]
     ],
     [
      [
       [
        201032.0,
        557249.0
       ],
       [
        201031.0,
        557249.0
       ],
       [
        201031.0,
        557251.0
       ],
       [
        201032.0,
        557249.0
       ]
      ]
     ],
     [
      [
       [
        201027.0,
        557251.0
       ],
       [
        201025.66666666666,
        557253.6666666666
       ],
       [
        201023.0,
        557255.0
       ],
       [
        201027.0,
        557253.0
       ],
       [
        201027.0,
        557251.0
       ]
      ]
     ]
    ]
   }
  }
 ]
}