{
 "type": "FeatureCollection",
 "name": "v02-road-profile",
 "crs": {
  "type": "name",
  "properties": {
   "name": "urn:ogc:def:crs:EPSG::5186"
  }
 },
 "features": [
  {
   "type": "Feature",
   "properties": {
    "id": "V1",
    "roadId": "729bd2ad-9e46-4554-a584-8356ebdbda26",
    "fromNodeId": "b460f7c7-7c0b-4a04-baaa-5311affe1bec",
    "toNodeId": "3660818d-16ec-4f6f-bec2-1abb00c1415d",
    "lengthM": 27.53,
    "vertices": 12,
    "zStart": 106.94,
    "zEnd": 107.08,
    "grade": {
     "max1mPct": 1.7,
     "max1mAtS": 26.0,
     "max15mPct": 0.4,
     "max15mFromS": 0.0,
     "avgPct": 0.5,
     "over15pct_stations": [],
     "maxGradeChangePctPerM": 0.29
    },
    "widthM_stored": null,
    "flatBandWidthM": {
     "n": 6,
     "median": 13.0,
     "p25": 12.6,
     "p75": 13.4
    },
    "plan": {
     "maxDeviationOfOldVertexM": 0.5,
     "maxDeviationOfNewVertexM": 0.5,
     "maxTurnAtOldVertexDeg": 8.9,
     "maxTurnAtNewVertexDeg": 1.2
    },
    "zChangeAtOldVertices": {
     "min": -0.07,
     "max": 0.04,
     "medianAbs": 0.03
    },
    "kind": "vehicle-road",
    "accuracyVerified": false,
    "line": "main",
    "mainStationStartM": 0.0
   },
   "geometry": {
    "type": "LineString",
    "coordinates": [
     [
      201134.83,
      557097.35,
      106.94
     ],
     [
      201134.12,
      557099.75,
      106.97
     ],
     [
      201133.36,
      557102.13,
      106.99
     ],
     [
      201132.56,
      557104.51,
      107.0
     ],
     [
      201131.72,
      557106.86,
      107.01
     ],
     [
      201130.84,
      557109.2,
      107.01
     ],
     [
      201129.92,
      557111.53,
      107.01
     ],
     [
      201128.97,
      557113.85,
      107.01
     ],
     [
      201127.99,
      557116.15,
      107.01
     ],
     [
      201126.98,
      557118.44,
      107.02
     ],
     [
      201125.95,
      557120.72,
      107.04
     ],
     [
      201124.89,
      557122.99,
      107.08
     ]
    ]
   }
  },
  {
   "type": "Feature",
   "properties": {
    "id": "V2",
    "roadId": "e934fcd3-f453-44bf-829f-9c77322aa212",
    "fromNodeId": "3660818d-16ec-4f6f-bec2-1abb00c1415d",
    "toNodeId": "7e93e170-1d28-4ea4-9d91-799146a8a92d",
    "lengthM": 151.61,
    "vertices": 62,
    "zStart": 107.08,
    "zEnd": 120.93,
    "grade": {
     "max1mPct": 16.1,
     "max1mAtS": 125.0,
     "max15mPct": 15.7,
     "max15mFromS": 116.0,
     "avgPct": 9.1,
     "over15pct_stations": [
      [
       110.0,
       132.0
      ]
     ],
     "maxGradeChangePctPerM": 0.84
    },
    "widthM_stored": null,
    "flatBandWidthM": {
     "n": 37,
     "median": 10.5,
     "p25": 9.5,
     "p75": 12.0
    },
    "plan": {
     "maxDeviationOfOldVertexM": 0.42,
     "maxDeviationOfNewVertexM": 0.44,
     "maxTurnAtOldVertexDeg": 16.7,
     "maxTurnAtNewVertexDeg": 3.9
    },
    "zChangeAtOldVertices": {
     "min": -0.15,
     "max": 0.08,
     "medianAbs": 0.02
    },
    "kind": "vehicle-road",
    "accuracyVerified": false,
    "line": "main",
    "mainStationStartM": 27.5
   },
   "geometry": {
    "type": "LineString",
    "coordinates": [
     [
      201124.89,
      557122.99,
      107.08
     ],
     [
      201123.82,
      557125.23,
      107.14
     ],
     [
      201122.73,
      557127.47,
      107.2
     ],
     [
      201121.63,
      557129.69,
      107.27
     ],
     [
      201120.51,
      557131.91,
      107.35
     ],
     [
      201119.38,
      557134.13,
      107.43
     ],
     [
      201118.24,
      557136.34,
      107.51
     ],
     [
      201117.1,
      557138.55,
      107.6
     ],
     [
      201115.95,
      557140.75,
      107.7
     ],
     [
      201114.8,
      557142.95,
      107.81
     ],
     [
      201113.65,
      557145.15,
      107.92
     ],
     [
      201112.5,
      557147.36,
      108.02
     ],
     [
      201111.35,
      557149.56,
      108.12
     ],
     [
      201110.22,
      557151.77,
      108.2
     ],
     [
      201109.09,
      557153.99,
      108.28
     ],
     [
      201107.97,
      557156.21,
      108.35
     ],
     [
      201106.86,
      557158.43,
      108.42
     ],
     [
      201105.77,
      557160.67,
      108.51
     ],
     [
      201104.7,
      557162.91,
      108.63
     ],
     [
      201103.65,
      557165.16,
      108.77
     ],
     [
      201102.62,
      557167.42,
      108.93
     ],
     [
      201101.61,
      557169.7,
      109.08
     ],
     [
      201100.64,
      557171.98,
      109.21
     ],
     [
      201099.69,
      557174.28,
      109.33
     ],
     [
      201098.78,
      557176.59,
      109.44
     ],
     [
      201097.89,
      557178.92,
      109.57
     ],
     [
      201097.04,
      557181.25,
      109.74
     ],
     [
      201096.23,
      557183.6,
      109.96
     ],
     [
      201095.45,
      557185.96,
      110.22
     ],
     [
      201094.71,
      557188.33,
      110.49
     ],
     [
      201094.01,
      557190.72,
      110.76
     ],
     [
      201093.35,
      557193.11,
      111.04
     ],
     [
      201092.73,
      557195.52,
      111.33
     ],
     [
      201092.15,
      557197.94,
      111.62
     ],
     [
      201091.61,
      557200.36,
      111.91
     ],
     [
      201091.12,
      557202.8,
      112.18
     ],
     [
      201090.67,
      557205.24,
      112.44
     ],
     [
      201090.27,
      557207.7,
      112.7
     ],
     [
      201089.92,
      557210.16,
      112.97
     ],
     [
      201089.61,
      557212.62,
      113.25
     ],
     [
      201089.36,
      557215.1,
      113.55
     ],
     [
      201089.15,
      557217.57,
      113.87
     ],
     [
      201089.0,
      557220.05,
      114.21
     ],
     [
      201088.89,
      557222.54,
      114.57
     ],
     [
      201088.81,
      557225.02,
      114.93
     ],
     [
      201088.76,
      557227.51,
      115.31
     ],
     [
      201088.72,
      557229.99,
      115.68
     ],
     [
      201088.67,
      557232.48,
      116.06
     ],
     [
      201088.6,
      557234.96,
      116.44
     ],
     [
      201088.5,
      557237.44,
      116.83
     ],
     [
      201088.36,
      557239.93,
      117.23
     ],
     [
      201088.17,
      557242.4,
      117.63
     ],
     [
      201087.91,
      557244.87,
      118.03
     ],
     [
      201087.57,
      557247.34,
      118.41
     ],
     [
      201087.13,
      557249.78,
      118.77
     ],
     [
      201086.58,
      557252.21,
      119.12
     ],
     [
      201085.9,
      557254.6,
      119.44
     ],
     [
      201085.07,
      557256.94,
      119.74
     ],
     [
      201084.08,
      557259.22,
      120.02
     ],
     [
      201082.94,
      557261.43,
      120.31
     ],
     [
      201081.66,
      557263.56,
      120.62
     ],
     [
      201080.26,
      557265.61,
      120.93
     ]
    ]
   }
  },
  {
   "type": "Feature",
   "properties": {
    "id": "V3",
    "roadId": "499ab1ab-cc02-4ea6-9bd3-e5fe5e5c2a62",
    "fromNodeId": "7e93e170-1d28-4ea4-9d91-799146a8a92d",
    "toNodeId": "422719fb-61e4-44a4-9eb9-fdf2b0544eb2",
    "lengthM": 60.64,
    "vertices": 25,
    "zStart": 120.93,
    "zEnd": 127.8,
    "grade": {
     "max1mPct": 14.1,
     "max1mAtS": 34.0,
     "max15mPct": 13.9,
     "max15mFromS": 30.0,
     "avgPct": 11.4,
     "over15pct_stations": [],
     "maxGradeChangePctPerM": 0.99
    },
    "widthM_stored": null,
    "flatBandWidthM": {
     "n": 15,
     "median": 11.5,
     "p25": 10.5,
     "p75": 13.8
    },
    "plan": {
     "maxDeviationOfOldVertexM": 0.66,
     "maxDeviationOfNewVertexM": 0.75,
     "maxTurnAtOldVertexDeg": 7.7,
     "maxTurnAtNewVertexDeg": 3.5
    },
    "zChangeAtOldVertices": {
     "min": -0.13,
     "max": 0.12,
     "medianAbs": 0.06
    },
    "kind": "vehicle-road",
    "accuracyVerified": false,
    "line": "main",
    "mainStationStartM": 179.1
   },
   "geometry": {
    "type": "LineString",
    "coordinates": [
     [
      201080.26,
      557265.61,
      120.93
     ],
     [
      201078.72,
      557267.61,
      121.25
     ],
     [
      201077.07,
      557269.52,
      121.54
     ],
     [
      201075.33,
      557271.35,
      121.8
     ],
     [
      201073.5,
      557273.1,
      122.03
     ],
     [
      201071.61,
      557274.77,
      122.27
     ],
     [
      201069.65,
      557276.37,
      122.54
     ],
     [
      201067.64,
      557277.9,
      122.82
     ],
     [
      201065.57,
      557279.36,
      123.13
     ],
     [
      201063.47,
      557280.76,
      123.45
     ],
     [
      201061.33,
      557282.1,
      123.78
     ],
     [
      201059.16,
      557283.39,
      124.1
     ],
     [
      201056.97,
      557284.65,
      124.44
     ],
     [
      201054.77,
      557285.89,
      124.79
     ],
     [
      201052.56,
      557287.12,
      125.14
     ],
     [
      201050.36,
      557288.37,
      125.5
     ],
     [
      201048.18,
      557289.64,
      125.85
     ],
     [
      201046.02,
      557290.95,
      126.2
     ],
     [
      201043.89,
      557292.31,
      126.55
     ],
     [
      201041.81,
      557293.75,
      126.87
     ],
     [
      201039.79,
      557295.26,
      127.15
     ],
     [
      201037.83,
      557296.86,
      127.37
     ],
     [
      201035.97,
      557298.57,
      127.54
     ],
     [
      201034.22,
      557300.39,
      127.67
     ],
     [
      201032.58,
      557302.31,
      127.8
     ]
    ]
   }
  },
  {
   "type": "Feature",
   "properties": {
    "id": "V4a",
    "roadId": "07615440-e6c0-4f7b-9a01-982ea7a4af68",
    "fromNodeId": "422719fb-61e4-44a4-9eb9-fdf2b0544eb2",
    "toNodeId": "0a815157-05e4-48fd-bc2c-7817a03c0aef",
    "lengthM": 36.0,
    "vertices": 15,
    "zStart": 127.8,
    "zEnd": 130.19,
    "grade": {
     "max1mPct": 7.9,
     "max1mAtS": 29.0,
     "max15mPct": 7.3,
     "max15mFromS": 20.0,
     "avgPct": 6.7,
     "over15pct_stations": [],
     "maxGradeChangePctPerM": 0.5
    },
    "widthM_stored": 14,
    "flatBandWidthM": {
     "n": 8,
     "median": 15.5,
     "p25": 12.9,
     "p75": 18.9
    },
    "plan": {
     "maxDeviationOfOldVertexM": 0.78,
     "maxDeviationOfNewVertexM": 0.78,
     "maxTurnAtOldVertexDeg": 20.1,
     "maxTurnAtNewVertexDeg": 3.7
    },
    "zChangeAtOldVertices": {
     "min": -0.01,
     "max": 0.2,
     "medianAbs": 0.07
    },
    "kind": "vehicle-road",
    "accuracyVerified": false,
    "line": "main",
    "mainStationStartM": 239.8
   },
   "geometry": {
    "type": "LineString",
    "coordinates": [
     [
      201032.58,
      557302.31,
      127.8
     ],
     [
      201031.04,
      557304.37,
      127.94
     ],
     [
      201029.62,
      557306.51,
      128.09
     ],
     [
      201028.34,
      557308.74,
      128.26
     ],
     [
      201027.2,
      557311.05,
      128.45
     ],
     [
      201026.2,
      557313.41,
      128.62
     ],
     [
      201025.31,
      557315.83,
      128.78
     ],
     [
      201024.53,
      557318.28,
      128.92
     ],
     [
      201023.83,
      557320.75,
      129.08
     ],
     [
      201023.18,
      557323.24,
      129.25
     ],
     [
      201022.58,
      557325.74,
      129.43
     ],
     [
      201022.0,
      557328.25,
      129.63
     ],
     [
      201021.43,
      557330.75,
      129.84
     ],
     [
      201020.85,
      557333.26,
      130.03
     ],
     [
      201020.26,
      557335.76,
      130.19
     ]
    ]
   }
  },
  {
   "type": "Feature",
   "properties": {
    "id": "V4b",
    "roadId": "67e234b5-f38c-4400-b046-975d0125ebc6",
    "fromNodeId": "0a815157-05e4-48fd-bc2c-7817a03c0aef",
    "toNodeId": "a12b5e30-31e6-46d0-9c11-97c751f81266",
    "lengthM": 9.07,
    "vertices": 5,
    "zStart": 130.19,
    "zEnd": 130.53,
    "grade": {
     "max1mPct": 5.4,
     "max1mAtS": 0.0,
     "avgPct": 3.7,
     "over15pct_stations": [],
     "maxGradeChangePctPerM": 0.52
    },
    "widthM_stored": 14,
    "flatBandWidthM": {
     "n": 2,
     "median": 25.5,
     "p25": 25.0,
     "p75": 26.0
    },
    "plan": {
     "maxDeviationOfOldVertexM": 0.07,
     "maxDeviationOfNewVertexM": 0.04,
     "maxTurnAtOldVertexDeg": 3.8,
     "maxTurnAtNewVertexDeg": 1.4
    },
    "zChangeAtOldVertices": {
     "min": -0.33,
     "max": 0.09,
     "medianAbs": 0.09
    },
    "kind": "vehicle-road",
    "accuracyVerified": false,
    "line": "main",
    "mainStationStartM": 275.8
   },
   "geometry": {
    "type": "LineString",
    "coordinates": [
     [
      201020.26,
      557335.76,
      130.19
     ],
     [
      201019.71,
      557337.96,
      130.31
     ],
     [
      201019.12,
      557340.15,
      130.4
     ],
     [
      201018.49,
      557342.33,
      130.47
     ],
     [
      201017.81,
      557344.49,
      130.53
     ]
    ]
   }
  },
  {
   "type": "Feature",
   "properties": {
    "id": "P-LOW",
    "roadId": "1b2219e1-b8e0-4495-a037-6712f1639c1b",
    "fromNodeId": "3660818d-16ec-4f6f-bec2-1abb00c1415d",
    "toNodeId": "da7c81b3-d572-4c5f-8898-2d086a23e2ba",
    "lengthM": 34.28,
    "vertices": 15,
    "zStart": 107.08,
    "zEnd": 106.02,
    "grade": {
     "max1mPct": -17.2,
     "max1mAtS": 33.0,
     "max15mPct": -10.2,
     "max15mFromS": 19.0,
     "avgPct": -3.0,
     "over15pct_stations": [
      [
       30.0,
       34.0
      ]
     ],
     "maxGradeChangePctPerM": 1.72
    },
    "widthM_stored": null,
    "flatBandWidthM": {
     "n": 8,
     "median": 16.5,
     "p25": 12.8,
     "p75": 18.1
    },
    "plan": {
     "maxDeviationOfOldVertexM": 0.35,
     "maxDeviationOfNewVertexM": 0.32,
     "maxTurnAtOldVertexDeg": 12.9,
     "maxTurnAtNewVertexDeg": 2.4
    },
    "zChangeAtOldVertices": {
     "min": -0.13,
     "max": 0.02,
     "medianAbs": 0.03
    },
    "kind": "vehicle-road",
    "accuracyVerified": false,
    "line": "P-LOW",
    "startsAtMainJunctionOf": "V1"
   },
   "geometry": {
    "type": "LineString",
    "coordinates": [
     [
      201124.89,
      557122.99,
      107.08
     ],
     [
      201122.81,
      557124.28,
      107.09
     ],
     [
      201120.78,
      557125.66,
      107.12
     ],
     [
      201118.82,
      557127.11,
      107.18
     ],
     [
      201116.9,
      557128.64,
      107.27
     ],
     [
      201115.04,
      557130.23,
      107.38
     ],
     [
      201113.23,
      557131.87,
      107.49
     ],
     [
      201111.46,
      557133.57,
      107.57
     ],
     [
      201109.73,
      557135.3,
      107.6
     ],
     [
      201108.03,
      557137.06,
      107.55
     ],
     [
      201106.36,
      557138.85,
      107.4
     ],
     [
      201104.71,
      557140.66,
      107.14
     ],
     [
      201103.08,
      557142.49,
      106.82
     ],
     [
      201101.46,
      557144.32,
      106.44
     ],
     [
      201099.84,
      557146.16,
      106.02
     ]
    ]
   }
  },
  {
   "type": "Feature",
   "properties": {
    "id": "P-UP",
    "roadId": "192703b3-1c53-4602-8435-bba8533e93e8",
    "fromNodeId": "422719fb-61e4-44a4-9eb9-fdf2b0544eb2",
    "toNodeId": "334dbc48-b34f-4d2b-bc1a-b91f4cb8748b",
    "lengthM": 12.73,
    "vertices": 3,
    "zStart": 127.8,
    "zEnd": 127.94,
    "grade": {
     "max1mPct": 1.1,
     "max1mAtS": 10.0,
     "avgPct": 1.1,
     "over15pct_stations": [],
     "maxGradeChangePctPerM": 0.0
    },
    "widthM_stored": null,
    "flatBandWidthM": {
     "n": 3,
     "median": 8.0,
     "p25": 6.5,
     "p75": 10.8
    },
    "plan": {
     "maxDeviationOfOldVertexM": 0.01,
     "maxDeviationOfNewVertexM": 0.01,
     "maxTurnAtOldVertexDeg": 47.9,
     "maxTurnAtNewVertexDeg": 47.7
    },
    "zChangeAtOldVertices": {
     "min": -0.0,
     "max": 0.22,
     "medianAbs": 0.01
    },
    "kind": "vehicle-road",
    "accuracyVerified": false,
    "line": "P-UP",
    "startsAtMainJunctionOf": "V3"
   },
   "geometry": {
    "type": "LineString",
    "coordinates": [
     [
      201032.58,
      557302.31,
      127.8
     ],
     [
      201025.76,
      557302.56,
      127.88
     ],
     [
      201021.95,
      557307.07,
      127.94
     ]
    ]
   }
  },
  {
   "type": "Feature",
   "properties": {
    "id": "U1",
    "roadId": "9713befb-0f85-419e-8246-b8f6665c3e3b",
    "fromNodeId": "7e93e170-1d28-4ea4-9d91-799146a8a92d",
    "toNodeId": "98909b6c-4a26-4eb7-a959-26664cedc2ca",
    "lengthM": 92.9,
    "vertices": 38,
    "zStart": 120.93,
    "zEnd": 130.92,
    "grade": {
     "max1mPct": 21.7,
     "max1mAtS": 9.0,
     "max15mPct": 19.7,
     "max15mFromS": 2.0,
     "avgPct": 10.8,
     "over15pct_stations": [
      [
       0.0,
       17.0
      ],
      [
       40.0,
       54.0
      ]
     ],
     "maxGradeChangePctPerM": 1.88
    },
    "widthM_stored": null,
    "flatBandWidthM": {
     "n": 23,
     "median": 6.5,
     "p25": 2.2,
     "p75": 9.8
    },
    "plan": {
     "maxDeviationOfOldVertexM": 1.07,
     "maxDeviationOfNewVertexM": 0.86,
     "maxTurnAtOldVertexDeg": 49.3,
     "maxTurnAtNewVertexDeg": 18.2
    },
    "zChangeAtOldVertices": {
     "min": -0.4,
     "max": 0.37,
     "medianAbs": 0.05
    },
    "kind": "vehicle-road",
    "accuracyVerified": false,
    "line": "U1",
    "startsAtMainJunctionOf": "V2"
   },
   "geometry": {
    "type": "LineString",
    "coordinates": [
     [
      201080.26,
      557265.61,
      120.93
     ],
     [
      201081.85,
      557267.56,
      121.34
     ],
     [
      201083.34,
      557269.58,
      121.8
     ],
     [
      201084.85,
      557271.59,
      122.32
     ],
     [
      201086.54,
      557273.45,
      122.86
     ],
     [
      201088.57,
      557274.92,
      123.4
     ],
     [
      201090.95,
      557275.68,
      123.89
     ],
     [
      201093.45,
      557275.8,
      124.3
     ],
     [
      201095.95,
      557275.5,
      124.63
     ],
     [
      201098.39,
      557274.91,
      124.85
     ],
     [
      201100.77,
      557274.1,
      124.97
     ],
     [
      201103.03,
      557273.02,
      125.02
     ],
     [
      201105.1,
      557271.6,
      125.03
     ],
     [
      201106.77,
      557269.73,
      125.07
     ],
     [
      201107.83,
      557267.46,
      125.19
     ],
     [
      201108.36,
      557265.01,
      125.41
     ],
     [
      201108.56,
      557262.5,
      125.75
     ],
     [
      201108.59,
      557259.99,
      126.17
     ],
     [
      201108.54,
      557257.48,
      126.64
     ],
     [
      201108.44,
      557254.97,
      127.12
     ],
     [
      201108.35,
      557252.46,
      127.6
     ],
     [
      201108.29,
      557249.94,
      128.03
     ],
     [
      201108.32,
      557247.43,
      128.42
     ],
     [
      201108.49,
      557244.92,
      128.74
     ],
     [
      201108.85,
      557242.44,
      129.02
     ],
     [
      201109.45,
      557240.0,
      129.26
     ],
     [
      201110.37,
      557237.66,
      129.47
     ],
     [
      201111.57,
      557235.45,
      129.66
     ],
     [
      201112.82,
      557233.27,
      129.84
     ],
     [
      201113.85,
      557230.99,
      129.99
     ],
     [
      201114.42,
      557228.54,
      130.11
     ],
     [
      201114.53,
      557226.04,
      130.21
     ],
     [
      201114.3,
      557223.54,
      130.31
     ],
     [
      201113.86,
      557221.06,
      130.42
     ],
     [
      201113.32,
      557218.61,
      130.56
     ],
     [
      201112.77,
      557216.16,
      130.69
     ],
     [
      201112.33,
      557213.68,
      130.81
     ],
     [
      201112.12,
      557211.18,
      130.92
     ]
    ]
   }
  },
  {
   "type": "Feature",
   "properties": {
    "id": "U1-EXT",
    "roadId": null,
    "optional": true,
    "lengthM": 22.6,
    "note": "사용자 핀 4개(두 캡처에서 자리 차 3 m 이내)를 그대로 이은 선. E09 제안·시험용 DB 에 없는 구간. 폭·포장 경계 미확인. 만들지는 사용자 확인 뒤",
    "kind": "vehicle-road",
    "accuracyVerified": false
   },
   "geometry": {
    "type": "LineString",
    "coordinates": [
     [
      201112.12,
      557211.18,
      130.92
     ],
     [
      201116.32,
      557208.17,
      131.2
     ],
     [
      201120.14,
      557204.47,
      131.7
     ],
     [
      201124.53,
      557200.64,
      132.2
     ],
     [
      201128.3,
      557195.63,
      132.2
     ]
    ]
   }
  },
  {
   "type": "Feature",
   "properties": {
    "id": "node-b460f7c7",
    "nodeId": "b460f7c7-7c0b-4a04-baaa-5311affe1bec",
    "roads": [
     "V1"
    ],
    "zNow": 106.9,
    "zNew": 106.94,
    "dz": 0.04
   },
   "geometry": {
    "type": "Point",
    "coordinates": [
     201134.83,
     557097.35,
     106.94
    ]
   }
  },
  {
   "type": "Feature",
   "properties": {
    "id": "node-3660818d",
    "nodeId": "3660818d-16ec-4f6f-bec2-1abb00c1415d",
    "roads": [
     "V1",
     "V2",
     "P-LOW"
    ],
    "zNow": 107.1,
    "zNew": 107.08,
    "dz": -0.02
   },
   "geometry": {
    "type": "Point",
    "coordinates": [
     201124.89,
     557122.99,
     107.08
    ]
   }
  },
  {
   "type": "Feature",
   "properties": {
    "id": "node-7e93e170",
    "nodeId": "7e93e170-1d28-4ea4-9d91-799146a8a92d",
    "roads": [
     "V2",
     "V3",
     "U1"
    ],
    "zNow": 121.06,
    "zNew": 120.93,
    "dz": -0.13
   },
   "geometry": {
    "type": "Point",
    "coordinates": [
     201080.26,
     557265.61,
     120.93
    ]
   }
  },
  {
   "type": "Feature",
   "properties": {
    "id": "node-422719fb",
    "nodeId": "422719fb-61e4-44a4-9eb9-fdf2b0544eb2",
    "roads": [
     "V3",
     "V4a",
     "P-UP"
    ],
    "zNow": 127.79,
    "zNew": 127.8,
    "dz": 0.01
   },
   "geometry": {
    "type": "Point",
    "coordinates": [
     201032.58,
     557302.31,
     127.8
    ]
   }
  },
  {
   "type": "Feature",
   "properties": {
    "id": "node-0a815157",
    "nodeId": "0a815157-05e4-48fd-bc2c-7817a03c0aef",
    "roads": [
     "V4a",
     "V4b"
    ],
    "zNow": 130.11,
    "zNew": 130.19,
    "dz": 0.08
   },
   "geometry": {
    "type": "Point",
    "coordinates": [
     201020.26,
     557335.76,
     130.19
    ]
   }
  },
  {
   "type": "Feature",
   "properties": {
    "id": "node-a12b5e30",
    "nodeId": "a12b5e30-31e6-46d0-9c11-97c751f81266",
    "roads": [
     "V4b"
    ],
    "zNow": 130.86,
    "zNew": 130.53,
    "dz": -0.33
   },
   "geometry": {
    "type": "Point",
    "coordinates": [
     201017.81,
     557344.49,
     130.53
    ]
   }
  },
  {
   "type": "Feature",
   "properties": {
    "id": "node-da7c81b3",
    "nodeId": "da7c81b3-d572-4c5f-8898-2d086a23e2ba",
    "roads": [
     "P-LOW"
    ],
    "zNow": 106.05,
    "zNew": 106.02,
    "dz": -0.03
   },
   "geometry": {
    "type": "Point",
    "coordinates": [
     201099.84,
     557146.16,
     106.02
    ]
   }
  },
  {
   "type": "Feature",
   "properties": {
    "id": "node-334dbc48",
    "nodeId": "334dbc48-b34f-4d2b-bc1a-b91f4cb8748b",
    "roads": [
     "P-UP"
    ],
    "zNow": 127.94,
    "zNew": 127.94,
    "dz": 0.0
   },
   "geometry": {
    "type": "Point",
    "coordinates": [
     201021.95,
     557307.07,
     127.94
    ]
   }
  },
  {
   "type": "Feature",
   "properties": {
    "id": "node-98909b6c",
    "nodeId": "98909b6c-4a26-4eb7-a959-26664cedc2ca",
    "roads": [
     "U1"
    ],
    "zNow": 130.83,
    "zNew": 130.92,
    "dz": 0.09
   },
   "geometry": {
    "type": "Point",
    "coordinates": [
     201112.12,
     557211.18,
     130.92
    ]
   }
  }
 ]
}