{"type": "FeatureCollection", "features": [{"type": "Feature", "properties": {"name": "plaza", "srid": 5186, "heightM": 130.6, "reason": "회차 공간·북악관 현관 앞 포장면의 평탄부(N02 영역). 높이는 사용자 S-MAP 핀(중앙 130.7 m)과 차도 종단 끝(130.53 m)에 맞춘 130.6 m."}, "geometry": {"type": "Polygon", "coordinates": [[[201041.4, 557337.6], [201044.2, 557344.6], [201045.2, 557346.0], [201045.2, 557357.0], [201043.0, 557361.6], [201031.0, 557363.6], [201027.0, 557367.5], [201021.0, 557371.5], [201014.5, 557376.0], [201011.2, 557381.0], [201009.0, 557384.5], [201008.0, 557386.0], [201000.8, 557385.5], [201000.8, 557362.5], [201003.2, 557359.0], [201005.2, 557353.0], [201007.0, 557346.0], [201007.5, 557339.0], [201030.0, 557340.5], [201036.0, 557337.5], [201041.4, 557337.6]]]}}, {"type": "Feature", "properties": {"name": "field", "srid": 5186, "heightM": 148.9, "reason": "운동장(F05 경계: S-MAP 평지 가장자리와 건물 외곽에 맞춘 곧은 변 22개). 바닥 148.9 m 는 사용자 확정(E06 측정)."}, "geometry": {"type": "Polygon", "coordinates": [[[201197.68, 557175.65], [201135.95, 557230.72], [201137.27, 557243.5], [201134.79, 557243.5], [201136.75, 557255.5], [201140.1, 557255.5], [201146.24, 557293.5], [201143.2, 557293.5], [201145.05, 557311.01], [201178.11, 557300.1], [201179.43, 557296.96], [201206.06, 557288.63], [201213.32, 557280.0], [201221.2, 557275.0], [201227.21, 557273.8], [201237.3, 557262.9], [201244.16, 557257.31], [201228.26, 557229.99], [201229.84, 557229.09], [201219.73, 557212.37], [201217.86, 557213.44], [201201.71, 557185.81], [201197.68, 557175.65]]]}}]}