{
 "type": "FeatureCollection",
 "name": "g02-surface",
 "crs": {
  "type": "name",
  "properties": {
   "name": "urn:ogc:def:crs:EPSG::5186"
  }
 },
 "features": [
  {
   "type": "Feature",
   "properties": {
    "name": "WAY",
    "srid": 5186,
    "reason": "G02 내리막길 기본 경사면: 가운데 경사로의 S-MAP 높이에 맞춘 평면 조각 4개(폭 방향 평평). 본관 북벽에서 북쪽 건물 벽까지 한 평면. 아래 끝은 회차 공간 포장면 130.6 m(T06), 위 끝은 운동장 148.9 m(F05 경계)에 벽 없이 닿는다.",
    "grade": "S-MAP",
    "source": "S-MAP 3D 뷰어 메시 0.5 m 판독(g02/smap-mesh-g02-way-05m-a~d.txt, 2026-10-11)",
    "profile": {
     "origin": [
      201044.0,
      557350.0
     ],
     "direction": [
      0.8973985107073343,
      -0.44122093443110605
     ],
     "points": [
      [
       -6.8,
       130.6
      ],
      [
       20.0,
       133.75
      ],
      [
       55.0,
       138.95
      ],
      [
       112.9,
       148.9
      ]
     ]
    }
   },
   "geometry": {
    "type": "Polygon",
    "coordinates": [
     [
      [
       201044.27,
       557343.74
      ],
      [
       201103.76,
       557314.49
      ],
      [
       201105.09,
       557317.18
      ],
      [
       201133.53,
       557303.19
      ],
      [
       201133.31,
       557302.74
      ],
      [
       201144.26,
       557297.36
      ],
      [
       201144.61,
       557299.42
      ],
      [
       201145.6,
       557311.19
      ],
      [
       201148.19,
       557318.27
      ],
      [
       201051.72,
       557365.7
      ],
      [
       201047.75,
       557357.63
      ],
      [
       201045.96,
       557358.51
      ],
      [
       201045.29,
       557357.16
      ],
      [
       201045.32,
       557352.69
      ],
      [
       201045.37,
       557345.98
      ],
      [
       201044.27,
       557343.74
      ]
     ]
    ]
   }
  },
  {
   "type": "Feature",
   "properties": {
    "name": "LANE",
    "srid": 5186,
    "reason": "G02 북악관 동쪽 낮은 마당: S-MAP 132.4~132.9 m, 사용자 핀 U100 132.3·U102 132.5. 길 경사면과는 화단 상자와 벽면으로 만난다.",
    "grade": "S-MAP",
    "source": "S-MAP 3D 뷰어 메시 0.5 m 판독(g02/smap-mesh-g02-way-05m-a~d.txt, 2026-10-11)",
    "heightM": 132.5
   },
   "geometry": {
    "type": "Polygon",
    "coordinates": [
     [
      [
       201047.75,
       557357.63
      ],
      [
       201076.02,
       557343.73
      ],
      [
       201079.99,
       557351.81
      ],
      [
       201051.72,
       557365.7
      ],
      [
       201047.75,
       557357.63
      ]
     ]
    ]
   }
  },
  {
   "type": "Feature",
   "properties": {
    "name": "PODIUM",
    "srid": 5186,
    "reason": "G02 문예관 기단 테라스: S-MAP 138.7~138.8 m, 사용자 핀 U094·U096 138.8. 서쪽 끝은 낮은 마당 위 6.3 m 벽면.",
    "grade": "S-MAP",
    "source": "S-MAP 3D 뷰어 메시 0.5 m 판독(g02/smap-mesh-g02-way-05m-a~d.txt, 2026-10-11)",
    "heightM": 138.8
   },
   "geometry": {
    "type": "Polygon",
    "coordinates": [
     [
      [
       201075.14,
       557341.93
      ],
      [
       201091.74,
       557333.77
      ],
      [
       201096.59,
       557343.64
      ],
      [
       201079.99,
       557351.81
      ],
      [
       201075.14,
       557341.93
      ]
     ]
    ]
   }
  },
  {
   "type": "Feature",
   "properties": {
    "name": "FORK",
    "srid": 5186,
    "reason": "G02 갈림 지점 평탄면: S-MAP 143.6~144.2 m, 사용자 사진 8 의 144.2, 핀 U089 143.7.",
    "grade": "S-MAP",
    "source": "S-MAP 3D 뷰어 메시 0.5 m 판독(g02/smap-mesh-g02-way-05m-a~d.txt, 2026-10-11)",
    "heightM": 144.2
   },
   "geometry": {
    "type": "Polygon",
    "coordinates": [
     [
      [
       201108.1,
       557328.51
      ],
      [
       201116.17,
       557324.54
      ],
      [
       201119.92,
       557332.17
      ],
      [
       201111.85,
       557336.14
      ],
      [
       201108.1,
       557328.51
      ]
     ]
    ]
   }
  },
  {
   "type": "Feature",
   "properties": {
    "name": "TOP",
    "srid": 5186,
    "reason": "G02 대일관 서쪽 끝 앞 평탄부: S-MAP 145.3~145.8 m, 사용자 사진 8 의 145.4, 핀 U081·U085 145.6·U088 145.4. 동쪽 끝(s 93.3)에서 길 경사면과 같은 높이.",
    "grade": "S-MAP",
    "source": "S-MAP 3D 뷰어 메시 0.5 m 판독(g02/smap-mesh-g02-way-05m-a~d.txt, 2026-10-11)",
    "heightM": 145.5
   },
   "geometry": {
    "type": "Polygon",
    "coordinates": [
     [
      [
       201116.39,
       557324.99
      ],
      [
       201131.92,
       557317.36
      ],
      [
       201135.45,
       557324.54
      ],
      [
       201119.92,
       557332.17
      ],
      [
       201116.39,
       557324.99
      ]
     ]
    ]
   }
  }
 ]
}
