{"type": "FeatureCollection", "features": [{"type": "Feature", "properties": {"name": "plaza", "srid": 5186, "heightM": 130.6, "reason": "회차 공간·북악관 현관 앞 포장면의 평탄부(N02 영역). 높이는 사용자 S-MAP 핀(중앙 130.7 m)과 차도 종단 끝(130.53 m)에 맞춘 130.6 m."}, "geometry": {"type": "Polygon", "coordinates": [[[201041.4, 557337.6], [201044.2, 557344.6], [201045.2, 557346.0], [201045.2, 557357.0], [201043.0, 557361.6], [201031.0, 557363.6], [201027.0, 557367.5], [201021.0, 557371.5], [201014.5, 557376.0], [201011.2, 557381.0], [201009.0, 557384.5], [201008.0, 557386.0], [201000.8, 557385.5], [201000.8, 557362.5], [201003.2, 557359.0], [201005.2, 557353.0], [201007.0, 557346.0], [201007.5, 557339.0], [201030.0, 557340.5], [201036.0, 557337.5], [201041.4, 557337.6]]]}}, {"type": "Feature", "properties": {"name": "field", "srid": 5186, "heightM": 148.9, "reason": "운동장(E10 영역). 바닥 148.9 m 는 사용자 확정(E06 측정)."}, "geometry": {"type": "Polygon", "coordinates": [[[201141, 557227], [201135, 557227], [201139, 557237], [201135, 557249], [201143, 557255], [201143, 557271], [201147, 557281], [201147, 557297], [201143, 557295], [201143, 557299], [201149, 557301], [201149, 557309], [201157, 557307], [201159, 557303], [201167, 557305], [201179, 557299], [201181, 557293], [201189, 557295], [201197, 557289], [201207, 557287], [201211, 557281], [201227, 557273], [201237, 557261], [201241, 557261], [201239, 557249], [201235, 557247], [201229, 557233], [201225, 557233], [201219, 557217], [201213, 557213], [201213, 557207], [201205, 557191], [201201, 557189], [201201, 557179], [201197, 557179], [201197, 557175], [201183, 557189], [201183, 557193], [201177, 557193], [201175, 557199], [201171, 557199], [201161, 557211], [201153, 557215], [201153, 557219], [201143, 557223], [201141, 557227]]]}}]}