{"type": "FeatureCollection", "features": [{"type": "Feature", "properties": {"name": "field-north-wall", "srid": 5186, "reason": "운동장 북쪽 변: 대일관 앞 흰 돌 화단 벽(사용자 사진으로 확정, E10). 바깥 지면이 1.5~3 m 높다."}, "geometry": {"type": "Polygon", "coordinates": [[[201157, 557307], [201159, 557303], [201167, 557305], [201179, 557299], [201181, 557293], [201189, 557295], [201197, 557289], [201207, 557287], [201208.77, 557295.83], [201200.67, 557297.22], [201190.78, 557303.82], [201185.33, 557300.89], [201185.8, 557304.9], [201167.98, 557313.95], [201162.76, 557311.18], [201165.05, 557311.02], [201157, 557307]]]}}, {"type": "Feature", "properties": {"name": "plaza-northeast-ledge", "srid": 5186, "reason": "포장면 북동쪽 변: 북악관 현관 계단·화단 쪽 턱(N02 가 S-MAP 메시의 턱으로 경계를 잡은 변). 바깥 지면이 1~2 m 높다."}, "geometry": {"type": "Polygon", "coordinates": [[[201045.2, 557357.0], [201043.0, 557361.6], [201031.0, 557363.6], [201027.0, 557367.5], [201021.0, 557371.5], [201014.5, 557376.0], [201011.2, 557381.0], [201009.0, 557384.5], [201016.62, 557389.29], [201018.77, 557385.87], [201020.93, 557382.29], [201026.06, 557378.94], [201032.66, 557374.5], [201035.07, 557371.63], [201048.41, 557368.79], [201053.32, 557360.88], [201045.2, 557357.0]]]}}, {"type": "Feature", "properties": {"name": "plaza-west-drop", "srid": 5186, "reason": "포장면 서쪽 변 북쪽 구간: 유담관 쪽으로 3~6 m 떨어지는 단(S-MAP 메시의 턱)."}, "geometry": {"type": "Polygon", "coordinates": [[[201000.8, 557385.5], [201000.8, 557362.5], [200991.8, 557362.5], [200991.8, 557385.5], [201000.8, 557385.5]]]}}]}